station,valid,lon,lat,tmpf,dwpf,relh,drct,sknt,alti,mslp,p01i,vsby,gust,skyl1,skyl2,skyl3,wxcodes
BUF,2018-01-01 00:00,-78.7358,42.9408,M,M,M,260.00,6.00,30.39,M,M,10.00,M,M,M,M,M
BUF,2018-01-01 00:05,-78.7358,42.9408,M,M,M,260.00,6.00,30.39,M,M,10.00,M,M,M,M,M
BUF,2018-01-01 00:10,-78.7358,42.9408,M,M,M,260.00,5.00,30.39,M,M,10.00,M,M,M,M,M
BUF,2018-01-01 00:15,-78.7358,42.9408,M,M,M,260.00,5.00,30.39,M,M,10.00,M,M,M,M,M
BUF,2018-01-01 00:20,-78.7358,42.9408,M,M,M,250.00,5.00,30.39,M,M,10.00,M,M,M,M,M
BUF,2018-01-01 00:25,-78.7358,42.9408,M,M,M,250.00,5.00,30.39,M,M,10.00,M,M,M,M,M
BUF,2018-01-01 00:30,-78.7358,42.9408,M,M,M,250.00,5.00,30.39,M,M,10.00,M,4100.00,M,M,M
BUF,2018-01-01 00:35,-78.7358,42.9408,M,M,M,250.00,5.00,30.39,M,M,10.00,M,4100.00,M,M,M
BUF,2018-01-01 00:40,-78.7358,42.9408,M,M,M,250.00,6.00,30.39,M,M,10.00,M,4100.00,M,M,M
BUF,2018-01-01 00:45,-78.7358,42.9408,M,M,M,240.00,5.00,30.39,M,M,10.00,M,4100.00,M,M,M
BUF,2018-01-01 00:50,-78.7358,42.9408,M,M,M,240.00,5.00,30.39,M,M,10.00,M,4200.00,M,M,M
BUF,2018-01-01 00:54,-78.7358,42.9408,3.90,-2.00,75.92,250.00,5.00,30.39,1031.00,0.00,10.00,M,4200.00,M,M,M
BUF,2018-01-01 00:55,-78.7358,42.9408,M,M,M,250.00,5.00,30.39,M,M,10.00,M,4200.00,M,M,M
BUF,2018-01-01 01:00,-78.7358,42.9408,M,M,M,250.00,5.00,30.39,M,M,10.00,M,M,M,M,M
BUF,2018-01-01 01:05,-78.7358,42.9408,M,M,M,250.00,5.00,30.39,M,M,10.00,M,M,M,M,M
BUF,2018-01-01 01:10,-78.7358,42.9408,M,M,M,240.00,5.00,30.39,M,M,10.00,M,M,M,M,M
BUF,2018-01-01 01:15,-78.7358,42.9408,M,M,M,240.00,5.00,30.39,M,M,10.00,M,M,M,M,M
BUF,2018-01-01 01:20,-78.7358,42.9408,M,M,M,250.00,5.00,30.39,M,M,10.00,M,M,M,M,M
BUF,2018-01-01 01:25,-78.7358,42.9408,M,M,M,250.00,4.00,30.38,M,M,10.00,M,M,M,M,M
BUF,2018-01-01 01:30,-78.7358,42.9408,M,M,M,250.00,5.00,30.38,M,M,10.00,M,M,M,M,M
BUF,2018-01-01 01:35,-78.7358,42.9408,M,M,M,260.00,5.00,30.38,M,M,10.00,M,M,M,M,M
BUF,2018-01-01 01:40,-78.7358,42.9408,M,M,M,260.00,5.00,30.38,M,M,10.00,M,M,M,M,M
BUF,2018-01-01 01:45,-78.7358,42.9408,M,M,M,260.00,5.00,30.38,M,M,10.00,M,M,M,M,M
BUF,2018-01-01 01:50,-78.7358,42.9408,M,M,M,260.00,6.00,30.38,M,M,10.00,M,3999.00,M,M,M
BUF,2018-01-01 01:54,-78.7358,42.9408,3.00,-4.00,71.95,270.00,5.00,30.38,1030.70,0.00,10.00,M,4000.00,M,M,M
BUF,2018-01-01 01:55,-78.7358,42.9408,M,M,M,260.00,6.00,30.38,M,M,10.00,M,M,M,M,M
BUF,2018-01-01 02:00,-78.7358,42.9408,M,M,M,260.00,6.00,30.38,M,M,10.00,M,M,M,M,M
BUF,2018-01-01 02:05,-78.7358,42.9408,M,M,M,270.00,7.00,30.38,M,M,10.00,M,M,M,M,M
BUF,2018-01-01 02:10,-78.7358,42.9408,M,M,M,260.00,6.00,30.38,M,M,10.00,M,2300.00,M,M,M
BUF,2018-01-01 02:15,-78.7358,42.9408,M,M,M,270.00,6.00,30.38,M,M,10.00,M,2300.00,M,M,M
BUF,2018-01-01 02:20,-78.7358,42.9408,M,M,M,260.00,7.00,30.38,M,M,10.00,M,2500.00,3600.00,M,M
BUF,2018-01-01 02:25,-78.7358,42.9408,M,M,M,260.00,6.00,30.38,M,M,10.00,M,2300.00,3600.00,M,M
BUF,2018-01-01 02:30,-78.7358,42.9408,M,M,M,260.00,6.00,30.38,M,M,10.00,M,2300.00,3399.00,M,M
BUF,2018-01-01 02:35,-78.7358,42.9408,M,M,M,260.00,6.00,30.38,M,M,10.00,M,2300.00,3399.00,M,M
BUF,2018-01-01 02:40,-78.7358,42.9408,M,M,M,260.00,6.00,30.38,M,M,10.00,M,2300.00,3399.00,M,M
BUF,2018-01-01 02:45,-78.7358,42.9408,M,M,M,260.00,6.00,30.38,M,M,10.00,M,2300.00,3399.00,M,M
BUF,2018-01-01 02:50,-78.7358,42.9408,M,M,M,260.00,6.00,30.38,M,M,10.00,M,2400.00,3500.00,M,M
BUF,2018-01-01 02:54,-78.7358,42.9408,3.90,-2.90,72.74,260.00,7.00,30.38,1030.70,0.00,10.00,M,2400.00,3500.00,M,M
BUF,2018-01-01 02:55,-78.7358,42.9408,M,M,M,260.00,7.00,30.38,M,M,10.00,M,M,M,M,M
BUF,2018-01-01 03:00,-78.7358,42.9408,M,M,M,260.00,7.00,30.38,M,M,10.00,M,M,M,M,M
BUF,2018-01-01 03:05,-78.7358,42.9408,M,M,M,260.00,7.00,30.38,M,M,10.00,M,M,M,M,M
BUF,2018-01-01 03:10,-78.7358,42.9408,M,M,M,260.00,8.00,30.38,M,M,10.00,M,M,M,M,M
BUF,2018-01-01 03:15,-78.7358,42.9408,M,M,M,260.00,7.00,30.39,M,M,10.00,M,M,M,M,M
BUF,2018-01-01 03:20,-78.7358,42.9408,M,M,M,260.00,8.00,30.39,M,M,10.00,M,M,M,M,M
BUF,2018-01-01 03:25,-78.7358,42.9408,M,M,M,270.00,8.00,30.39,M,M,10.00,M,M,M,M,M
BUF,2018-01-01 03:30,-78.7358,42.9408,M,M,M,260.00,8.00,30.39,M,M,10.00,M,M,M,M,M
BUF,2018-01-01 03:35,-78.7358,42.9408,M,M,M,270.00,8.00,30.39,M,M,10.00,M,M,M,M,M
BUF,2018-01-01 03:40,-78.7358,42.9408,M,M,M,270.00,7.00,30.38,M,M,10.00,M,M,M,M,M
BUF,2018-01-01 03:45,-78.7358,42.9408,M,M,M,270.00,7.00,30.39,M,M,10.00,M,M,M,M,M
BUF,2018-01-01 03:50,-78.7358,42.9408,M,M,M,260.00,7.00,30.39,M,M,10.00,M,3000.00,M,M,M
BUF,2018-01-01 03:54,-78.7358,42.9408,3.00,-2.90,75.82,270.00,7.00,30.39,1031.00,0.00,10.00,M,3000.00,M,M,M
BUF,2018-01-01 03:55,-78.7358,42.9408,M,M,M,270.00,6.00,30.39,M,M,10.00,M,M,M,M,M
BUF,2018-01-01 04:00,-78.7358,42.9408,M,M,M,270.00,7.00,30.39,M,M,10.00,M,M,M,M,M
BUF,2018-01-01 04:05,-78.7358,42.9408,M,M,M,270.00,6.00,30.39,M,M,10.00,M,M,M,M,M
BUF,2018-01-01 04:10,-78.7358,42.9408,M,M,M,270.00,7.00,30.39,M,M,10.00,M,M,M,M,M
BUF,2018-01-01 04:15,-78.7358,42.9408,M,M,M,270.00,7.00,30.39,M,M,10.00,M,M,M,M,M
BUF,2018-01-01 04:20,-78.7358,42.9408,M,M,M,270.00,7.00,30.39,M,M,10.00,M,M,M,M,M
BUF,2018-01-01 04:25,-78.7358,42.9408,M,M,M,270.00,7.00,30.39,M,M,10.00,M,M,M,M,M
BUF,2018-01-01 04:30,-78.7358,42.9408,M,M,M,280.00,9.00,30.39,M,M,10.00,M,M,M,M,M
BUF,2018-01-01 04:35,-78.7358,42.9408,M,M,M,280.00,9.00,30.39,M,M,10.00,M,M,M,M,M
BUF,2018-01-01 04:40,-78.7358,42.9408,M,M,M,280.00,8.00,30.39,M,M,10.00,M,M,M,M,M
BUF,2018-01-01 04:45,-78.7358,42.9408,M,M,M,280.00,7.00,30.39,M,M,10.00,M,M,M,M,M
BUF,2018-01-01 04:50,-78.7358,42.9408,M,M,M,270.00,8.00,30.39,M,M,10.00,M,3200.00,M,M,M
BUF,2018-01-01 04:54,-78.7358,42.9408,3.90,-2.00,75.92,270.00,8.00,30.39,1031.10,0.00,10.00,M,3200.00,M,M,M
BUF,2018-01-01 04:55,-78.7358,42.9408,M,M,M,270.00,7.00,30.39,M,M,10.00,M,3200.00,M,M,M
BUF,2018-01-01 05:00,-78.7358,42.9408,M,M,M,270.00,8.00,30.39,M,M,10.00,M,3200.00,M,M,M
BUF,2018-01-01 05:05,-78.7358,42.9408,M,M,M,270.00,8.00,30.39,M,M,10.00,M,3200.00,M,M,M
BUF,2018-01-01 05:10,-78.7358,42.9408,M,M,M,270.00,8.00,30.39,M,M,10.00,M,3200.00,M,M,M
BUF,2018-01-01 05:15,-78.7358,42.9408,M,M,M,270.00,7.00,30.39,M,M,10.00,M,3200.00,M,M,M
BUF,2018-01-01 05:20,-78.7358,42.9408,M,M,M,270.00,7.00,30.39,M,M,10.00,M,3200.00,M,M,M
BUF,2018-01-01 05:25,-78.7358,42.9408,M,M,M,270.00,7.00,30.39,M,M,10.00,M,3200.00,M,M,M
BUF,2018-01-01 05:30,-78.7358,42.9408,M,M,M,270.00,6.00,30.39,M,M,10.00,M,3200.00,M,M,M
BUF,2018-01-01 05:35,-78.7358,42.9408,M,M,M,270.00,7.00,30.39,M,M,10.00,M,3200.00,M,M,M
BUF,2018-01-01 05:40,-78.7358,42.9408,M,M,M,260.00,6.00,30.39,M,M,10.00,M,3200.00,M,M,M
BUF,2018-01-01 05:45,-78.7358,42.9408,M,M,M,260.00,6.00,30.39,M,M,10.00,M,3200.00,M,M,M
BUF,2018-01-01 05:50,-78.7358,42.9408,M,M,M,260.00,6.00,30.39,M,M,10.00,M,3200.00,M,M,M
BUF,2018-01-01 05:54,-78.7358,42.9408,3.00,-0.90,83.36,260.00,7.00,30.39,1031.00,0.00,10.00,M,3200.00,M,M,M
BUF,2018-01-01 05:55,-78.7358,42.9408,M,M,M,260.00,7.00,30.39,M,M,10.00,M,M,M,M,M
BUF,2018-01-01 06:00,-78.7358,42.9408,M,M,M,260.00,7.00,30.39,M,M,8.00,M,3200.00,12000.00,M,M
BUF,2018-01-01 06:05,-78.7358,42.9408,M,M,M,260.00,6.00,30.39,M,M,8.00,M,3200.00,12000.00,M,M
BUF,2018-01-01 06:10,-78.7358,42.9408,M,M,M,260.00,7.00,30.39,M,M,10.00,M,3200.00,12000.00,M,M
BUF,2018-01-01 06:15,-78.7358,42.9408,M,M,M,250.00,7.00,30.39,M,M,10.00,M,3200.00,12000.00,M,M
BUF,2018-01-01 06:20,-78.7358,42.9408,M,M,M,260.00,6.00,30.39,M,M,10.00,M,3200.00,12000.00,M,M
BUF,2018-01-01 06:25,-78.7358,42.9408,M,M,M,260.00,7.00,30.39,M,M,10.00,M,3200.00,12000.00,M,M
BUF,2018-01-01 06:30,-78.7358,42.9408,M,M,M,260.00,7.00,30.39,M,M,10.00,M,3200.00,12000.00,M,M
BUF,2018-01-01 06:35,-78.7358,42.9408,M,M,M,260.00,8.00,30.39,M,M,10.00,M,3200.00,12000.00,M,M
BUF,2018-01-01 06:40,-78.7358,42.9408,M,M,M,260.00,8.00,30.39,M,M,10.00,M,3200.00,12000.00,M,M
BUF,2018-01-01 06:45,-78.7358,42.9408,M,M,M,260.00,7.00,30.39,M,M,10.00,M,3200.00,12000.00,M,M
BUF,2018-01-01 06:50,-78.7358,42.9408,M,M,M,260.00,8.00,30.39,M,M,10.00,M,3200.00,12000.00,M,M
BUF,2018-01-01 06:54,-78.7358,42.9408,3.00,-0.90,83.36,260.00,7.00,30.39,1031.20,0.00,10.00,M,3200.00,12000.00,M,M
BUF,2018-01-01 06:55,-78.7358,42.9408,M,M,M,260.00,7.00,30.40,M,M,10.00,M,M,M,M,M
BUF,2018-01-01 07:00,-78.7358,42.9408,M,M,M,260.00,8.00,30.40,M,M,10.00,M,M,M,M,M
BUF,2018-01-01 07:05,-78.7358,42.9408,M,M,M,260.00,7.00,30.40,M,M,10.00,M,M,M,M,M
BUF,2018-01-01 07:10,-78.7358,42.9408,M,M,M,260.00,6.00,30.40,M,M,10.00,M,M,M,M,M
BUF,2018-01-01 07:15,-78.7358,42.9408,M,M,M,260.00,7.00,30.40,M,M,10.00,M,M,M,M,M
BUF,2018-01-01 07:20,-78.7358,42.9408,M,M,M,260.00,6.00,30.40,M,M,10.00,M,2800.00,M,M,M
BUF,2018-01-01 07:25,-78.7358,42.9408,M,M,M,260.00,6.00,30.40,M,M,10.00,M,2800.00,M,M,M
BUF,2018-01-01 07:30,-78.7358,42.9408,M,M,M,260.00,5.00,30.40,M,M,10.00,M,2700.00,M,M,M
BUF,2018-01-01 07:35,-78.7358,42.9408,M,M,M,270.00,5.00,30.40,M,M,10.00,M,2700.00,M,M,M
BUF,2018-01-01 07:40,-78.7358,42.9408,M,M,M,270.00,4.00,30.40,M,M,10.00,M,2700.00,M,M,M
BUF,2018-01-01 07:45,-78.7358,42.9408,M,M,M,260.00,5.00,30.40,M,M,10.00,M,2700.00,M,M,M
BUF,2018-01-01 07:50,-78.7358,42.9408,M,M,M,260.00,6.00,30.40,M,M,7.00,M,1600.00,2700.00,M,M
BUF,2018-01-01 07:54,-78.7358,42.9408,3.00,0.00,86.96,270.00,4.00,30.40,1031.50,0.00,6.00,M,1600.00,2700.00,23000.00,BR
BUF,2018-01-01 07:55,-78.7358,42.9408,M,M,M,270.00,4.00,30.40,M,M,6.00,M,1600.00,2700.00,M,BR
BUF,2018-01-01 08:00,-78.7358,42.9408,M,M,M,270.00,3.00,30.40,M,M,9.00,M,1600.00,2700.00,M,M
BUF,2018-01-01 08:05,-78.7358,42.9408,M,M,M,280.00,4.00,30.40,M,M,10.00,M,1600.00,2700.00,M,M
BUF,2018-01-01 08:10,-78.7358,42.9408,M,M,M,290.00,4.00,30.40,M,M,10.00,M,1600.00,2500.00,M,M
BUF,2018-01-01 08:15,-78.7358,42.9408,M,M,M,290.00,3.00,30.40,M,M,10.00,M,1600.00,2500.00,M,M
BUF,2018-01-01 08:20,-78.7358,42.9408,M,M,M,300.00,3.00,30.40,M,M,10.00,M,1600.00,2500.00,M,M
BUF,2018-01-01 08:24,-78.7358,42.9408,3.00,-0.90,83.36,290.00,3.00,30.39,M,0.00,10.00,M,2500.00,M,M,M
BUF,2018-01-01 08:25,-78.7358,42.9408,M,M,M,280.00,3.00,30.39,M,M,10.00,M,2500.00,M,M,M
BUF,2018-01-01 08:30,-78.7358,42.9408,M,M,M,0.00,0.00,30.39,M,M,10.00,M,2500.00,M,M,M
BUF,2018-01-01 08:35,-78.7358,42.9408,M,M,M,220.00,3.00,30.39,M,M,10.00,M,2500.00,M,M,M
BUF,2018-01-01 08:40,-78.7358,42.9408,M,M,M,230.00,4.00,30.39,M,M,10.00,M,2500.00,M,M,M
BUF,2018-01-01 08:45,-78.7358,42.9408,M,M,M,230.00,4.00,30.38,M,M,10.00,M,2500.00,M,M,M
BUF,2018-01-01 08:50,-78.7358,42.9408,M,M,M,240.00,5.00,30.39,M,M,10.00,M,2500.00,M,M,M
BUF,2018-01-01 08:54,-78.7358,42.9408,1.90,-0.90,87.72,240.00,5.00,30.39,1031.00,0.00,10.00,M,2500.00,M,M,M
BUF,2018-01-01 08:55,-78.7358,42.9408,M,M,M,240.00,5.00,30.39,M,M,10.00,M,2500.00,M,M,M
BUF,2018-01-01 09:00,-78.7358,42.9408,M,M,M,240.00,6.00,30.39,M,M,10.00,M,M,M,M,M
BUF,2018-01-01 09:05,-78.7358,42.9408,M,M,M,250.00,6.00,30.39,M,M,10.00,M,M,M,M,M
BUF,2018-01-01 09:10,-78.7358,42.9408,M,M,M,250.00,6.00,30.39,M,M,10.00,M,M,M,M,M
BUF,2018-01-01 09:15,-78.7358,42.9408,M,M,M,260.00,6.00,30.39,M,M,10.00,M,M,M,M,M
BUF,2018-01-01 09:20,-78.7358,42.9408,M,M,M,250.00,6.00,30.39,M,M,10.00,M,M,M,M,M
BUF,2018-01-01 09:25,-78.7358,42.9408,M,M,M,250.00,5.00,30.39,M,M,10.00,M,M,M,M,M
BUF,2018-01-01 09:30,-78.7358,42.9408,M,M,M,250.00,5.00,30.39,M,M,10.00,M,M,M,M,M
BUF,2018-01-01 09:35,-78.7358,42.9408,M,M,M,250.00,5.00,30.39,M,M,10.00,M,M,M,M,M
BUF,2018-01-01 09:40,-78.7358,42.9408,M,M,M,250.00,5.00,30.39,M,M,10.00,M,M,M,M,M
BUF,2018-01-01 09:45,-78.7358,42.9408,M,M,M,250.00,6.00,30.39,M,M,10.00,M,M,M,M,M
BUF,2018-01-01 09:50,-78.7358,42.9408,M,M,M,260.00,5.00,30.39,M,M,10.00,M,M,M,M,M
BUF,2018-01-01 09:54,-78.7358,42.9408,1.90,-0.90,87.72,250.00,5.00,30.39,1030.90,0.00,10.00,M,M,M,M,M
BUF,2018-01-01 09:55,-78.7358,42.9408,M,M,M,250.00,5.00,30.38,M,M,10.00,M,M,M,M,M
BUF,2018-01-01 10:00,-78.7358,42.9408,M,M,M,250.00,5.00,30.38,M,M,10.00,M,M,M,M,M
BUF,2018-01-01 10:05,-78.7358,42.9408,M,M,M,260.00,5.00,30.38,M,M,10.00,M,M,M,M,M
BUF,2018-01-01 10:10,-78.7358,42.9408,M,M,M,260.00,5.00,30.38,M,M,10.00,M,M,M,M,M
BUF,2018-01-01 10:15,-78.7358,42.9408,M,M,M,260.00,5.00,30.38,M,M,10.00,M,M,M,M,M
BUF,2018-01-01 10:20,-78.7358,42.9408,M,M,M,260.00,5.00,30.38,M,M,10.00,M,M,M,M,M
BUF,2018-01-01 10:25,-78.7358,42.9408,M,M,M,270.00,5.00,30.38,M,M,10.00,M,M,M,M,M
BUF,2018-01-01 10:30,-78.7358,42.9408,M,M,M,270.00,4.00,30.38,M,M,10.00,M,M,M,M,M
BUF,2018-01-01 10:35,-78.7358,42.9408,M,M,M,260.00,5.00,30.38,M,M,10.00,M,M,M,M,M
BUF,2018-01-01 10:40,-78.7358,42.9408,M,M,M,260.00,5.00,30.38,M,M,10.00,M,6000.00,M,M,M
BUF,2018-01-01 10:45,-78.7358,42.9408,M,M,M,260.00,5.00,30.38,M,M,10.00,M,5500.00,M,M,M
BUF,2018-01-01 10:50,-78.7358,42.9408,M,M,M,240.00,5.00,30.38,M,M,10.00,M,5500.00,6500.00,M,M
BUF,2018-01-01 10:54,-78.7358,42.9408,1.90,-2.00,83.28,250.00,5.00,30.38,1030.70,0.00,10.00,M,5500.00,6500.00,M,M
BUF,2018-01-01 10:55,-78.7358,42.9408,M,M,M,240.00,5.00,30.38,M,M,10.00,M,5500.00,M,M,M
BUF,2018-01-01 11:00,-78.7358,42.9408,M,M,M,250.00,5.00,30.38,M,M,10.00,M,5500.00,M,M,M
BUF,2018-01-01 11:05,-78.7358,42.9408,M,M,M,250.00,5.00,30.38,M,M,10.00,M,5500.00,M,M,M
BUF,2018-01-01 11:10,-78.7358,42.9408,M,M,M,230.00,3.00,30.38,M,M,10.00,M,5500.00,M,M,M
BUF,2018-01-01 11:15,-78.7358,42.9408,M,M,M,200.00,3.00,30.38,M,M,10.00,M,5500.00,M,M,M
BUF,2018-01-01 11:20,-78.7358,42.9408,M,M,M,190.00,3.00,30.38,M,M,10.00,M,4500.00,6000.00,M,M
BUF,2018-01-01 11:25,-78.7358,42.9408,M,M,M,170.00,4.00,30.38,M,M,10.00,M,4100.00,6000.00,M,M
BUF,2018-01-01 11:30,-78.7358,42.9408,M,M,M,170.00,3.00,30.38,M,M,10.00,M,4100.00,6000.00,M,M
BUF,2018-01-01 11:35,-78.7358,42.9408,M,M,M,140.00,3.00,30.38,M,M,10.00,M,4300.00,6000.00,M,M
BUF,2018-01-01 11:40,-78.7358,42.9408,M,M,M,160.00,3.00,30.38,M,M,10.00,M,4300.00,M,M,M
BUF,2018-01-01 11:45,-78.7358,42.9408,M,M,M,150.00,3.00,30.38,M,M,10.00,M,4100.00,M,M,M
BUF,2018-01-01 11:50,-78.7358,42.9408,M,M,M,130.00,3.00,30.37,M,M,10.00,M,4100.00,M,M,M
BUF,2018-01-01 11:54,-78.7358,42.9408,-2.00,-5.10,86.24,150.00,4.00,30.37,1030.70,0.00,10.00,M,4100.00,M,M,M
BUF,2018-01-01 11:55,-78.7358,42.9408,M,M,M,150.00,4.00,30.37,M,M,10.00,M,4100.00,M,M,M
BUF,2018-01-01 12:00,-78.7358,42.9408,M,M,M,160.00,4.00,30.37,M,M,10.00,M,4100.00,M,M,M
BUF,2018-01-01 12:05,-78.7358,42.9408,M,M,M,170.00,4.00,30.37,M,M,10.00,M,3900.00,M,M,M
BUF,2018-01-01 12:10,-78.7358,42.9408,M,M,M,160.00,3.00,30.38,M,M,10.00,M,3700.00,M,M,M
BUF,2018-01-01 12:15,-78.7358,42.9408,M,M,M,160.00,3.00,30.37,M,M,10.00,M,3500.00,M,M,M
BUF,2018-01-01 12:20,-78.7358,42.9408,M,M,M,150.00,3.00,30.37,M,M,10.00,M,3500.00,M,M,M
BUF,2018-01-01 12:25,-78.7358,42.9408,M,M,M,150.00,3.00,30.37,M,M,10.00,M,3500.00,M,M,M
BUF,2018-01-01 12:30,-78.7358,42.9408,M,M,M,170.00,3.00,30.37,M,M,10.00,M,3399.00,M,M,M
BUF,2018-01-01 12:35,-78.7358,42.9408,M,M,M,170.00,4.00,30.37,M,M,10.00,M,3399.00,M,M,M
BUF,2018-01-01 12:40,-78.7358,42.9408,M,M,M,170.00,5.00,30.37,M,M,10.00,M,3200.00,M,M,M
BUF,2018-01-01 12:45,-78.7358,42.9408,M,M,M,180.00,7.00,30.37,M,M,10.00,M,M,M,M,M
BUF,2018-01-01 12:50,-78.7358,42.9408,M,M,M,180.00,6.00,30.37,M,M,10.00,M,3399.00,4100.00,M,M
BUF,2018-01-01 12:54,-78.7358,42.9408,-2.90,-6.00,86.18,180.00,6.00,30.37,1030.60,0.00,10.00,M,3400.00,4100.00,13000.00,M
BUF,2018-01-01 12:55,-78.7358,42.9408,M,M,M,180.00,6.00,30.37,M,M,10.00,M,M,M,M,M
BUF,2018-01-01 13:00,-78.7358,42.9408,M,M,M,180.00,6.00,30.37,M,M,10.00,M,4700.00,M,M,M
BUF,2018-01-01 13:05,-78.7358,42.9408,M,M,M,190.00,6.00,30.37,M,M,10.00,M,4900.00,M,M,M
BUF,2018-01-01 13:10,-78.7358,42.9408,M,M,M,210.00,6.00,30.37,M,M,10.00,M,1900.00,4900.00,M,M
BUF,2018-01-01 13:15,-78.7358,42.9408,M,M,M,190.00,7.00,30.37,M,M,10.00,M,1900.00,4900.00,M,M
BUF,2018-01-01 13:20,-78.7358,42.9408,M,M,M,190.00,7.00,30.37,M,M,10.00,M,4900.00,M,M,M
BUF,2018-01-01 13:25,-78.7358,42.9408,M,M,M,190.00,7.00,30.37,M,M,10.00,M,4900.00,6000.00,M,M
BUF,2018-01-01 13:30,-78.7358,42.9408,M,M,M,190.00,7.00,30.37,M,M,10.00,M,5500.00,M,M,M
BUF,2018-01-01 13:35,-78.7358,42.9408,M,M,M,190.00,8.00,30.37,M,M,10.00,M,5500.00,M,M,M
BUF,2018-01-01 13:40,-78.7358,42.9408,M,M,M,190.00,7.00,30.37,M,M,10.00,M,5500.00,M,M,M
BUF,2018-01-01 13:45,-78.7358,42.9408,M,M,M,190.00,7.00,30.37,M,M,10.00,M,5500.00,M,M,M
BUF,2018-01-01 13:50,-78.7358,42.9408,M,M,M,190.00,6.00,30.37,M,M,10.00,M,5500.00,M,M,M
BUF,2018-01-01 13:54,-78.7358,42.9408,-0.90,-4.00,86.31,190.00,6.00,30.36,1030.40,0.00,10.00,M,5500.00,M,M,M
BUF,2018-01-01 13:55,-78.7358,42.9408,M,M,M,190.00,6.00,30.36,M,M,10.00,M,5500.00,M,M,M
BUF,2018-01-01 14:00,-78.7358,42.9408,M,M,M,190.00,5.00,30.36,M,M,10.00,M,5000.00,M,M,M
BUF,2018-01-01 14:05,-78.7358,42.9408,M,M,M,190.00,6.00,30.36,M,M,10.00,M,M,M,M,M
BUF,2018-01-01 14:10,-78.7358,42.9408,M,M,M,190.00,7.00,30.36,M,M,10.00,M,M,M,M,M
BUF,2018-01-01 14:15,-78.7358,42.9408,M,M,M,190.00,7.00,30.36,M,M,10.00,M,M,M,M,M
BUF,2018-01-01 14:20,-78.7358,42.9408,M,M,M,190.00,5.00,30.36,M,M,10.00,M,M,M,M,M
BUF,2018-01-01 14:25,-78.7358,42.9408,M,M,M,190.00,5.00,30.36,M,M,10.00,M,M,M,M,M
BUF,2018-01-01 14:30,-78.7358,42.9408,M,M,M,200.00,6.00,30.36,M,M,10.00,M,M,M,M,M
BUF,2018-01-01 14:35,-78.7358,42.9408,M,M,M,190.00,6.00,30.36,M,M,10.00,M,M,M,M,M
BUF,2018-01-01 14:40,-78.7358,42.9408,M,M,M,190.00,6.00,30.36,M,M,10.00,M,M,M,M,M
BUF,2018-01-01 14:45,-78.7358,42.9408,M,M,M,190.00,5.00,30.36,M,M,10.00,M,M,M,M,M
BUF,2018-01-01 14:50,-78.7358,42.9408,M,M,M,180.00,5.00,30.36,M,M,10.00,M,M,M,M,M
BUF,2018-01-01 14:54,-78.7358,42.9408,3.00,-0.90,83.36,190.00,5.00,30.36,1030.00,0.00,10.00,M,1900.00,5500.00,7000.00,M
BUF,2018-01-01 14:55,-78.7358,42.9408,M,M,M,190.00,4.00,30.36,M,M,10.00,M,M,M,M,M
BUF,2018-01-01 15:00,-78.7358,42.9408,M,M,M,200.00,5.00,30.35,M,M,10.00,M,M,M,M,M
BUF,2018-01-01 15:05,-78.7358,42.9408,M,M,M,190.00,4.00,30.35,M,M,10.00,M,M,M,M,M
BUF,2018-01-01 15:10,-78.7358,42.9408,M,M,M,170.00,4.00,30.36,M,M,10.00,M,M,M,M,M
BUF,2018-01-01 15:15,-78.7358,42.9408,M,M,M,220.00,4.00,30.35,M,M,10.00,M,M,M,M,M
BUF,2018-01-01 15:20,-78.7358,42.9408,M,M,M,M,M,30.36,M,M,10.00,M,M,M,M,M
BUF,2018-01-01 15:25,-78.7358,42.9408,M,M,M,190.00,5.00,30.36,M,M,10.00,M,M,M,M,M
BUF,2018-01-01 15:30,-78.7358,42.9408,M,M,M,190.00,5.00,30.35,M,M,10.00,M,M,M,M,M
BUF,2018-01-01 15:35,-78.7358,42.9408,M,M,M,270.00,12.00,30.35,M,M,10.00,M,M,M,M,M
BUF,2018-01-01 15:40,-78.7358,42.9408,M,M,M,M,M,30.35,M,M,10.00,M,M,M,M,M
BUF,2018-01-01 15:45,-78.7358,42.9408,M,M,M,M,M,30.35,M,M,10.00,M,M,M,M,M
BUF,2018-01-01 15:50,-78.7358,42.9408,M,M,M,270.00,12.00,30.35,M,M,10.00,M,M,M,M,M
BUF,2018-01-01 15:54,-78.7358,42.9408,10.90,0.00,60.77,270.00,13.00,30.35,1029.40,0.00,10.00,21.00,2200.00,5000.00,10000.00,M
BUF,2018-01-01 15:55,-78.7358,42.9408,M,M,M,270.00,14.00,30.35,M,M,10.00,M,M,M,M,M
BUF,2018-01-01 16:00,-78.7358,42.9408,M,M,M,260.00,14.00,30.34,M,M,10.00,M,M,M,M,M
BUF,2018-01-01 16:05,-78.7358,42.9408,M,M,M,270.00,15.00,30.34,M,M,10.00,M,M,M,M,M
BUF,2018-01-01 16:10,-78.7358,42.9408,M,M,M,260.00,15.00,30.34,M,M,10.00,M,M,M,M,M
BUF,2018-01-01 16:15,-78.7358,42.9408,M,M,M,260.00,10.00,30.34,M,M,10.00,M,M,M,M,M
BUF,2018-01-01 16:20,-78.7358,42.9408,M,M,M,260.00,16.00,30.33,M,M,10.00,M,M,M,M,M
BUF,2018-01-01 16:25,-78.7358,42.9408,M,M,M,260.00,17.00,30.33,M,M,10.00,M,M,M,M,M
BUF,2018-01-01 16:30,-78.7358,42.9408,M,M,M,260.00,15.00,30.33,M,M,10.00,M,M,M,M,M
BUF,2018-01-01 16:35,-78.7358,42.9408,M,M,M,260.00,16.00,30.33,M,M,10.00,M,M,M,M,M
BUF,2018-01-01 16:40,-78.7358,42.9408,M,M,M,260.00,17.00,30.33,M,M,10.00,M,M,M,M,M
BUF,2018-01-01 16:45,-78.7358,42.9408,M,M,M,270.00,12.00,30.33,M,M,10.00,M,M,M,M,M
BUF,2018-01-01 16:50,-78.7358,42.9408,M,M,M,260.00,14.00,30.32,M,M,10.00,M,2500.00,5000.00,10000.00,M
BUF,2018-01-01 16:54,-78.7358,42.9408,12.90,0.00,55.62,260.00,15.00,30.32,1028.40,0.00,10.00,21.00,2500.00,5000.00,10000.00,M
BUF,2018-01-01 16:55,-78.7358,42.9408,M,M,M,260.00,15.00,30.32,M,M,10.00,M,M,M,M,M
BUF,2018-01-01 17:00,-78.7358,42.9408,M,M,M,260.00,14.00,30.32,M,M,10.00,M,M,M,M,M
BUF,2018-01-01 17:05,-78.7358,42.9408,M,M,M,260.00,17.00,30.32,M,M,10.00,M,M,M,M,M
BUF,2018-01-01 17:10,-78.7358,42.9408,M,M,M,250.00,17.00,30.31,M,M,10.00,M,M,M,M,M
BUF,2018-01-01 17:15,-78.7358,42.9408,M,M,M,250.00,14.00,30.31,M,M,10.00,M,6000.00,M,M,M
BUF,2018-01-01 17:20,-78.7358,42.9408,M,M,M,260.00,15.00,30.31,M,M,10.00,M,6000.00,M,M,M
BUF,2018-01-01 17:25,-78.7358,42.9408,M,M,M,260.00,15.00,30.31,M,M,10.00,M,6000.00,M,M,M
BUF,2018-01-01 17:30,-78.7358,42.9408,M,M,M,270.00,15.00,30.31,M,M,10.00,M,6000.00,M,M,M
BUF,2018-01-01 17:35,-78.7358,42.9408,M,M,M,260.00,14.00,30.30,M,M,10.00,M,6000.00,M,M,M
BUF,2018-01-01 17:40,-78.7358,42.9408,M,M,M,250.00,14.00,30.30,M,M,10.00,M,6000.00,M,M,M
BUF,2018-01-01 17:45,-78.7358,42.9408,M,M,M,260.00,13.00,30.30,M,M,10.00,M,6000.00,M,M,M
BUF,2018-01-01 17:50,-78.7358,42.9408,M,M,M,250.00,15.00,30.30,M,M,10.00,M,6000.00,7999.00,M,M
BUF,2018-01-01 17:54,-78.7358,42.9408,12.90,1.90,60.78,250.00,13.00,30.30,1027.80,0.00,10.00,M,2500.00,6000.00,11000.00,M
BUF,2018-01-01 17:55,-78.7358,42.9408,M,M,M,250.00,13.00,30.30,M,M,10.00,M,6000.00,7999.00,M,M
BUF,2018-01-01 18:00,-78.7358,42.9408,M,M,M,240.00,13.00,30.29,M,M,10.00,M,6000.00,7999.00,M,M
BUF,2018-01-01 18:05,-78.7358,42.9408,M,M,M,250.00,14.00,30.29,M,M,10.00,M,6000.00,7999.00,M,M
BUF,2018-01-01 18:10,-78.7358,42.9408,M,M,M,250.00,16.00,30.29,M,M,10.00,M,6000.00,7999.00,M,M
BUF,2018-01-01 18:15,-78.7358,42.9408,M,M,M,250.00,13.00,30.29,M,M,10.00,18.00,6000.00,7999.00,M,M
BUF,2018-01-01 18:20,-78.7358,42.9408,M,M,M,250.00,15.00,30.29,M,M,10.00,M,6000.00,7999.00,M,M
BUF,2018-01-01 18:25,-78.7358,42.9408,M,M,M,260.00,16.00,30.29,M,M,10.00,M,7999.00,M,M,M
BUF,2018-01-01 18:30,-78.7358,42.9408,M,M,M,250.00,17.00,30.29,M,M,10.00,M,7999.00,M,M,M
BUF,2018-01-01 18:35,-78.7358,42.9408,M,M,M,250.00,16.00,30.29,M,M,10.00,M,7999.00,M,M,M
BUF,2018-01-01 18:40,-78.7358,42.9408,M,M,M,250.00,15.00,30.29,M,M,10.00,M,7999.00,M,M,M
BUF,2018-01-01 18:45,-78.7358,42.9408,M,M,M,250.00,12.00,30.29,M,M,10.00,17.00,7999.00,M,M,M
BUF,2018-01-01 18:50,-78.7358,42.9408,M,M,M,260.00,16.00,30.29,M,M,10.00,M,7999.00,M,M,M
BUF,2018-01-01 18:54,-78.7358,42.9408,12.90,1.00,58.29,260.00,17.00,30.29,1027.40,0.00,10.00,23.00,2500.00,6000.00,8000.00,M
BUF,2018-01-01 18:55,-78.7358,42.9408,M,M,M,250.00,17.00,30.29,M,M,10.00,M,7999.00,M,M,M
BUF,2018-01-01 19:00,-78.7358,42.9408,M,M,M,260.00,15.00,30.29,M,M,10.00,M,7999.00,M,M,M
BUF,2018-01-01 19:05,-78.7358,42.9408,M,M,M,260.00,12.00,30.29,M,M,10.00,M,7999.00,M,M,M
BUF,2018-01-01 19:10,-78.7358,42.9408,M,M,M,260.00,15.00,30.29,M,M,10.00,M,7500.00,M,M,M
BUF,2018-01-01 19:15,-78.7358,42.9408,M,M,M,260.00,17.00,30.29,M,M,10.00,M,7500.00,M,M,M
BUF,2018-01-01 19:20,-78.7358,42.9408,M,M,M,260.00,16.00,30.28,M,M,10.00,M,7500.00,9000.00,M,M
BUF,2018-01-01 19:25,-78.7358,42.9408,M,M,M,260.00,14.00,30.28,M,M,10.00,M,7500.00,9000.00,M,M
BUF,2018-01-01 19:30,-78.7358,42.9408,M,M,M,250.00,12.00,30.28,M,M,10.00,M,7000.00,9000.00,M,M
BUF,2018-01-01 19:35,-78.7358,42.9408,M,M,M,250.00,11.00,30.28,M,M,10.00,M,7000.00,9000.00,M,M
BUF,2018-01-01 19:40,-78.7358,42.9408,M,M,M,260.00,13.00,30.28,M,M,10.00,M,9000.00,M,M,M
BUF,2018-01-01 19:45,-78.7358,42.9408,M,M,M,270.00,15.00,30.29,M,M,10.00,M,9000.00,M,M,M
BUF,2018-01-01 19:50,-78.7358,42.9408,M,M,M,270.00,17.00,30.29,M,M,10.00,22.00,9000.00,M,M,M
BUF,2018-01-01 19:54,-78.7358,42.9408,14.00,1.00,55.54,260.00,18.00,30.29,1027.40,0.00,10.00,26.00,2800.00,6000.00,9000.00,M
BUF,2018-01-01 19:55,-78.7358,42.9408,M,M,M,260.00,19.00,30.29,M,M,10.00,M,8500.00,M,M,M
BUF,2018-01-01 20:00,-78.7358,42.9408,M,M,M,260.00,13.00,30.29,M,M,10.00,M,8500.00,M,M,M
BUF,2018-01-01 20:05,-78.7358,42.9408,M,M,M,250.00,16.00,30.28,M,M,10.00,M,8500.00,M,M,M
BUF,2018-01-01 20:10,-78.7358,42.9408,M,M,M,250.00,18.00,30.28,M,M,10.00,M,8500.00,M,M,M
BUF,2018-01-01 20:15,-78.7358,42.9408,M,M,M,260.00,19.00,30.28,M,M,10.00,M,7999.00,M,M,M
BUF,2018-01-01 20:20,-78.7358,42.9408,M,M,M,260.00,15.00,30.28,M,M,10.00,20.00,7999.00,M,M,M
BUF,2018-01-01 20:25,-78.7358,42.9408,M,M,M,250.00,18.00,30.29,M,M,10.00,M,7999.00,M,M,M
BUF,2018-01-01 20:30,-78.7358,42.9408,M,M,M,260.00,17.00,30.29,M,M,9.00,M,7999.00,M,M,M
BUF,2018-01-01 20:35,-78.7358,42.9408,M,M,M,260.00,18.00,30.29,M,M,10.00,M,2500.00,5000.00,7999.00,M
BUF,2018-01-01 20:40,-78.7358,42.9408,M,M,M,260.00,18.00,30.29,M,M,10.00,M,2500.00,5000.00,7999.00,M
BUF,2018-01-01 20:45,-78.7358,42.9408,M,M,M,250.00,17.00,30.29,M,M,10.00,M,2500.00,6000.00,9000.00,M
BUF,2018-01-01 20:50,-78.7358,42.9408,M,M,M,260.00,17.00,30.29,M,M,10.00,M,2500.00,6000.00,9000.00,M
BUF,2018-01-01 20:54,-78.7358,42.9408,12.00,1.90,63.25,260.00,17.00,30.29,1027.60,0.00,10.00,24.00,2500.00,6000.00,9000.00,M
BUF,2018-01-01 20:55,-78.7358,42.9408,M,M,M,260.00,15.00,30.29,M,M,10.00,M,6000.00,7000.00,9500.00,M
BUF,2018-01-01 21:00,-78.7358,42.9408,M,M,M,260.00,15.00,30.29,M,M,10.00,M,6000.00,9000.00,M,M
BUF,2018-01-01 21:05,-78.7358,42.9408,M,M,M,260.00,11.00,30.29,M,M,10.00,M,6000.00,9000.00,M,M
BUF,2018-01-01 21:10,-78.7358,42.9408,M,M,M,260.00,14.00,30.29,M,M,10.00,20.00,6000.00,9500.00,M,M
BUF,2018-01-01 21:15,-78.7358,42.9408,M,M,M,M,M,30.29,M,M,10.00,M,6000.00,9500.00,M,M
BUF,2018-01-01 21:20,-78.7358,42.9408,M,M,M,260.00,13.00,30.29,M,M,10.00,M,6000.00,9000.00,M,M
BUF,2018-01-01 21:25,-78.7358,42.9408,M,M,M,260.00,13.00,30.30,M,M,10.00,M,6000.00,9000.00,M,M
BUF,2018-01-01 21:30,-78.7358,42.9408,M,M,M,260.00,17.00,30.30,M,M,10.00,M,5500.00,9500.00,M,M
BUF,2018-01-01 21:35,-78.7358,42.9408,M,M,M,260.00,15.00,30.30,M,M,10.00,M,5500.00,9500.00,M,M
BUF,2018-01-01 21:40,-78.7358,42.9408,M,M,M,260.00,19.00,30.29,M,M,10.00,M,5500.00,10000.00,M,M
BUF,2018-01-01 21:45,-78.7358,42.9408,M,M,M,260.00,18.00,30.30,M,M,10.00,M,4900.00,5500.00,10000.00,M
BUF,2018-01-01 21:50,-78.7358,42.9408,M,M,M,260.00,14.00,30.30,M,M,10.00,M,4900.00,10000.00,M,M
BUF,2018-01-01 21:54,-78.7358,42.9408,10.90,3.00,69.89,270.00,18.00,30.30,1027.80,0.00,9.00,24.00,2000.00,5000.00,25000.00,M
BUF,2018-01-01 21:55,-78.7358,42.9408,M,M,M,260.00,18.00,30.30,M,M,9.00,M,5000.00,10000.00,M,M
BUF,2018-01-01 22:00,-78.7358,42.9408,M,M,M,260.00,16.00,30.30,M,M,9.00,M,11000.00,M,M,M
BUF,2018-01-01 22:05,-78.7358,42.9408,M,M,M,260.00,15.00,30.30,M,M,10.00,20.00,11000.00,M,M,M
BUF,2018-01-01 22:10,-78.7358,42.9408,M,M,M,M,M,30.30,M,M,10.00,M,11000.00,M,M,M
BUF,2018-01-01 22:15,-78.7358,42.9408,M,M,M,270.00,17.00,30.31,M,M,10.00,M,M,M,M,M
BUF,2018-01-01 22:20,-78.7358,42.9408,M,M,M,270.00,17.00,30.31,M,M,10.00,M,M,M,M,M
BUF,2018-01-01 22:25,-78.7358,42.9408,M,M,M,M,M,30.31,M,M,10.00,M,M,M,M,M
BUF,2018-01-01 22:30,-78.7358,42.9408,M,M,M,270.00,18.00,30.31,M,M,10.00,M,7000.00,M,M,M
BUF,2018-01-01 22:35,-78.7358,42.9408,M,M,M,M,M,30.31,M,M,10.00,M,7000.00,M,M,M
BUF,2018-01-01 22:40,-78.7358,42.9408,M,M,M,260.00,17.00,30.31,M,M,10.00,M,7000.00,M,M,M
BUF,2018-01-01 22:45,-78.7358,42.9408,M,M,M,M,M,30.31,M,M,10.00,M,7000.00,M,M,M
BUF,2018-01-01 22:50,-78.7358,42.9408,M,M,M,M,M,30.32,M,M,10.00,M,5000.00,7000.00,M,M
BUF,2018-01-01 22:54,-78.7358,42.9408,10.90,3.00,69.89,270.00,16.00,30.32,1028.60,T,8.00,27.00,2000.00,5000.00,7000.00,-SN
BUF,2018-01-01 22:55,-78.7358,42.9408,M,M,M,270.00,16.00,30.32,M,M,9.00,M,5000.00,7000.00,M,-SN
BUF,2018-01-01 23:00,-78.7358,42.9408,M,M,M,M,M,30.32,M,M,7.00,M,4500.00,7000.00,M,-SN
BUF,2018-01-01 23:05,-78.7358,42.9408,M,M,M,M,M,30.32,M,M,6.00,M,3900.00,7000.00,M,-SN
BUF,2018-01-01 23:10,-78.7358,42.9408,M,M,M,M,M,30.33,M,M,5.00,M,3800.00,7000.00,M,-SN
BUF,2018-01-01 23:15,-78.7358,42.9408,M,M,M,270.00,17.00,30.33,M,M,7.00,M,3999.00,5500.00,M,-SN
BUF,2018-01-01 23:20,-78.7358,42.9408,M,M,M,M,M,30.33,M,M,8.00,M,3999.00,6000.00,M,-SN
BUF,2018-01-01 23:25,-78.7358,42.9408,M,M,M,270.00,17.00,30.33,M,M,7.00,M,3800.00,6000.00,M,-SN
BUF,2018-01-01 23:30,-78.7358,42.9408,M,M,M,270.00,19.00,30.33,M,M,5.00,M,3800.00,6000.00,M,-SN
BUF,2018-01-01 23:35,-78.7358,42.9408,M,M,M,M,M,30.33,M,M,4.00,M,3399.00,6000.00,M,-SN
BUF,2018-01-01 23:40,-78.7358,42.9408,M,M,M,270.00,17.00,30.33,M,M,4.00,M,3200.00,6000.00,M,-SN
BUF,2018-01-01 23:45,-78.7358,42.9408,M,M,M,260.00,18.00,30.34,M,M,5.00,M,3600.00,6000.00,M,-SN
BUF,2018-01-01 23:50,-78.7358,42.9408,M,M,M,260.00,15.00,30.33,M,M,4.00,M,3600.00,M,M,-SN
BUF,2018-01-01 23:54,-78.7358,42.9408,10.90,3.90,72.85,260.00,18.00,30.34,1029.30,T,4.00,23.00,2200.00,3600.00,4500.00,-SN
BUF,2018-01-01 23:55,-78.7358,42.9408,M,M,M,260.00,17.00,30.34,M,M,5.00,M,3300.00,M,M,-SN
BUF,2018-01-02 00:00,-78.7358,42.9408,M,M,M,M,M,30.34,M,M,2.50,M,3100.00,M,M,-SN
BUF,2018-01-02 00:02,-78.7358,42.9408,10.90,5.00,76.62,270.00,17.00,30.34,M,T,1.50,M,2900.00,M,M,-SN
BUF,2018-01-02 00:05,-78.7358,42.9408,M,M,M,260.00,17.00,30.34,M,M,1.50,M,2900.00,M,M,-SN
BUF,2018-01-02 00:10,-78.7358,42.9408,M,M,M,260.00,16.00,30.34,M,M,1.50,M,2500.00,M,M,-SN
BUF,2018-01-02 00:15,-78.7358,42.9408,M,M,M,260.00,16.00,30.34,M,M,1.50,M,2300.00,M,M,-SN
BUF,2018-01-02 00:20,-78.7358,42.9408,M,M,M,260.00,17.00,30.34,M,M,1.50,M,2100.00,M,M,-SN
BUF,2018-01-02 00:25,-78.7358,42.9408,M,M,M,260.00,15.00,30.35,M,M,1.25,M,1900.00,M,M,-SN
BUF,2018-01-02 00:30,-78.7358,42.9408,M,M,M,260.00,18.00,30.35,M,M,1.25,M,1900.00,M,M,-SN
BUF,2018-01-02 00:35,-78.7358,42.9408,M,M,M,260.00,14.00,30.35,M,M,1.00,19.00,1900.00,M,M,-SN
BUF,2018-01-02 00:40,-78.7358,42.9408,M,M,M,260.00,16.00,30.35,M,M,1.00,M,1900.00,M,M,-SN
BUF,2018-01-02 00:44,-78.7358,42.9408,10.90,6.10,80.57,260.00,17.00,30.35,M,T,0.75,24.00,1900.00,M,M,-SN BLSN
BUF,2018-01-02 00:45,-78.7358,42.9408,M,M,M,260.00,18.00,30.35,M,M,0.75,M,1900.00,M,M,-SN
BUF,2018-01-02 00:50,-78.7358,42.9408,M,M,M,260.00,17.00,30.35,M,M,0.75,M,1900.00,M,M,-SN
BUF,2018-01-02 00:54,-78.7358,42.9408,10.00,7.00,87.37,260.00,14.00,30.35,1029.70,T,0.75,M,1900.00,M,M,-SN BLSN
BUF,2018-01-02 00:55,-78.7358,42.9408,M,M,M,260.00,15.00,30.35,M,M,0.75,M,1900.00,M,M,-SN
BUF,2018-01-02 00:59,-78.7358,42.9408,10.00,7.00,87.37,260.00,15.00,30.35,M,T,1.00,M,1900.00,M,M,-SN BLSN
BUF,2018-01-02 01:00,-78.7358,42.9408,M,M,M,260.00,15.00,30.35,M,M,1.00,M,1900.00,M,M,-SN
BUF,2018-01-02 01:05,-78.7358,42.9408,M,M,M,260.00,15.00,30.35,M,M,1.25,M,1900.00,3600.00,M,-SN
BUF,2018-01-02 01:10,-78.7358,42.9408,M,M,M,270.00,15.00,30.35,M,M,1.25,M,1900.00,3600.00,M,-SN
BUF,2018-01-02 01:14,-78.7358,42.9408,10.90,6.10,80.57,260.00,14.00,30.35,M,T,1.00,20.00,2100.00,3600.00,M,-SN BLSN
BUF,2018-01-02 01:15,-78.7358,42.9408,M,M,M,260.00,15.00,30.35,M,M,1.00,M,2300.00,3600.00,M,-SN
BUF,2018-01-02 01:20,-78.7358,42.9408,M,M,M,260.00,14.00,30.35,M,M,1.00,M,2500.00,3700.00,M,-SN
BUF,2018-01-02 01:25,-78.7358,42.9408,M,M,M,270.00,13.00,30.36,M,M,1.50,M,3500.00,M,M,-SN
BUF,2018-01-02 01:30,-78.7358,42.9408,M,M,M,260.00,15.00,30.36,M,M,1.50,M,3500.00,M,M,-SN
BUF,2018-01-02 01:35,-78.7358,42.9408,M,M,M,260.00,14.00,30.36,M,M,1.25,M,1600.00,2900.00,M,-SN
BUF,2018-01-02 01:37,-78.7358,42.9408,10.90,6.10,80.57,260.00,16.00,30.36,M,T,1.00,M,1600.00,2900.00,M,-SN
BUF,2018-01-02 01:40,-78.7358,42.9408,M,M,M,260.00,14.00,30.36,M,M,1.00,M,1600.00,2900.00,M,-SN BR
BUF,2018-01-02 01:45,-78.7358,42.9408,M,M,M,260.00,11.00,30.36,M,M,1.00,M,1600.00,2900.00,M,-SN BR
BUF,2018-01-02 01:50,-78.7358,42.9408,M,M,M,270.00,14.00,30.36,M,M,1.00,M,1600.00,2900.00,M,-SN BR
BUF,2018-01-02 01:54,-78.7358,42.9408,10.90,7.00,83.93,270.00,13.00,30.37,1030.20,T,1.25,M,1200.00,2200.00,M,-SN BR
BUF,2018-01-02 01:55,-78.7358,42.9408,M,M,M,270.00,15.00,30.36,M,M,1.25,M,2200.00,M,M,-SN BR
BUF,2018-01-02 02:00,-78.7358,42.9408,M,M,M,270.00,12.00,30.37,M,M,1.25,M,2200.00,3700.00,M,-SN BR
BUF,2018-01-02 02:05,-78.7358,42.9408,M,M,M,270.00,12.00,30.37,M,M,1.50,M,2400.00,3700.00,M,-SN BR
BUF,2018-01-02 02:10,-78.7358,42.9408,M,M,M,260.00,14.00,30.37,M,M,1.50,M,2400.00,3500.00,M,-SN BR
BUF,2018-01-02 02:15,-78.7358,42.9408,M,M,M,270.00,12.00,30.37,M,M,1.50,M,2400.00,3500.00,M,-SN BR
BUF,2018-01-02 02:17,-78.7358,42.9408,10.90,7.00,83.93,270.00,11.00,30.37,M,T,1.00,M,2500.00,3500.00,M,-SN BR
BUF,2018-01-02 02:20,-78.7358,42.9408,M,M,M,260.00,13.00,30.37,M,M,1.00,M,3000.00,3500.00,M,-SN BR
BUF,2018-01-02 02:25,-78.7358,42.9408,M,M,M,260.00,10.00,30.37,M,M,1.00,M,3000.00,3600.00,M,-SN BR
BUF,2018-01-02 02:30,-78.7358,42.9408,M,M,M,260.00,12.00,30.37,M,M,1.00,M,3300.00,M,M,-SN BR
BUF,2018-01-02 02:35,-78.7358,42.9408,M,M,M,270.00,13.00,30.38,M,M,1.00,M,3000.00,3500.00,M,-SN BR
BUF,2018-01-02 02:39,-78.7358,42.9408,10.90,7.00,83.93,270.00,14.00,30.38,M,T,1.00,M,2600.00,3400.00,M,-SN BR
BUF,2018-01-02 02:40,-78.7358,42.9408,M,M,M,270.00,13.00,30.38,M,M,1.00,M,2600.00,3399.00,M,-SN BR
BUF,2018-01-02 02:45,-78.7358,42.9408,M,M,M,260.00,13.00,30.38,M,M,1.00,M,2400.00,3200.00,M,-SN BR
BUF,2018-01-02 02:50,-78.7358,42.9408,M,M,M,270.00,13.00,30.38,M,M,1.25,M,2400.00,3600.00,M,-SN BR
BUF,2018-01-02 02:54,-78.7358,42.9408,10.90,7.00,83.93,270.00,10.00,30.38,1030.60,T,1.25,M,2600.00,3200.00,M,-SN BR
BUF,2018-01-02 02:55,-78.7358,42.9408,M,M,M,270.00,10.00,30.38,M,M,1.75,M,2600.00,3200.00,3900.00,-SN BR
BUF,2018-01-02 03:00,-78.7358,42.9408,M,M,M,270.00,12.00,30.38,M,M,2.00,M,2600.00,3200.00,M,-SN BR
BUF,2018-01-02 03:05,-78.7358,42.9408,M,M,M,280.00,12.00,30.38,M,M,1.50,M,2600.00,3300.00,M,-SN BR
BUF,2018-01-02 03:10,-78.7358,42.9408,M,M,M,270.00,9.00,30.38,M,M,1.50,M,2800.00,3399.00,M,-SN BR
BUF,2018-01-02 03:15,-78.7358,42.9408,M,M,M,270.00,10.00,30.38,M,M,1.50,M,2900.00,M,M,-SN BR
BUF,2018-01-02 03:20,-78.7358,42.9408,M,M,M,270.00,11.00,30.38,M,M,2.00,M,2900.00,M,M,-SN BR
BUF,2018-01-02 03:25,-78.7358,42.9408,M,M,M,270.00,10.00,30.38,M,M,1.50,M,2900.00,M,M,-SN BR
BUF,2018-01-02 03:30,-78.7358,42.9408,M,M,M,260.00,11.00,30.38,M,M,1.50,M,2900.00,M,M,-SN BR
BUF,2018-01-02 03:35,-78.7358,42.9408,M,M,M,270.00,11.00,30.38,M,M,1.50,M,2900.00,M,M,-SN BR
BUF,2018-01-02 03:40,-78.7358,42.9408,M,M,M,270.00,10.00,30.38,M,M,1.50,M,2900.00,M,M,-SN BR
BUF,2018-01-02 03:45,-78.7358,42.9408,M,M,M,260.00,10.00,30.39,M,M,1.50,M,2900.00,M,M,-SN BR
BUF,2018-01-02 03:47,-78.7358,42.9408,10.90,7.00,83.93,260.00,10.00,30.39,M,T,1.50,M,3300.00,M,M,-SN BR
BUF,2018-01-02 03:50,-78.7358,42.9408,M,M,M,260.00,9.00,30.38,M,M,1.50,M,3300.00,M,M,-SN BR
BUF,2018-01-02 03:54,-78.7358,42.9408,10.90,7.00,83.93,270.00,9.00,30.39,1030.70,T,1.50,M,3300.00,M,M,-SN BR
BUF,2018-01-02 03:55,-78.7358,42.9408,M,M,M,260.00,9.00,30.39,M,M,1.50,M,3300.00,M,M,-SN BR
BUF,2018-01-02 04:00,-78.7358,42.9408,M,M,M,260.00,10.00,30.39,M,M,1.50,M,3500.00,M,M,-SN BR
BUF,2018-01-02 04:05,-78.7358,42.9408,M,M,M,260.00,13.00,30.38,M,M,1.50,M,3500.00,M,M,-SN BR
BUF,2018-01-02 04:08,-78.7358,42.9408,10.90,7.00,83.93,260.00,13.00,30.38,M,T,2.00,M,3500.00,M,M,-SN BR
BUF,2018-01-02 04:10,-78.7358,42.9408,M,M,M,260.00,13.00,30.38,M,M,2.00,M,3500.00,M,M,-SN BR
BUF,2018-01-02 04:15,-78.7358,42.9408,M,M,M,260.00,12.00,30.38,M,M,2.00,M,3700.00,M,M,-SN BR
BUF,2018-01-02 04:20,-78.7358,42.9408,M,M,M,260.00,11.00,30.38,M,M,2.00,M,3900.00,M,M,-SN BR
BUF,2018-01-02 04:25,-78.7358,42.9408,M,M,M,260.00,12.00,30.38,M,M,2.00,M,4100.00,M,M,-SN BR
BUF,2018-01-02 04:30,-78.7358,42.9408,M,M,M,260.00,11.00,30.38,M,M,2.00,M,4300.00,M,M,-SN BR
BUF,2018-01-02 04:35,-78.7358,42.9408,M,M,M,270.00,11.00,30.38,M,M,2.00,M,4300.00,M,M,-SN BR
BUF,2018-01-02 04:40,-78.7358,42.9408,M,M,M,260.00,12.00,30.38,M,M,2.00,M,4300.00,M,M,-SN BR
BUF,2018-01-02 04:42,-78.7358,42.9408,10.90,7.00,83.93,260.00,12.00,30.38,M,T,3.00,M,3500.00,4000.00,M,-SN BR
BUF,2018-01-02 04:45,-78.7358,42.9408,M,M,M,270.00,10.00,30.38,M,M,3.00,M,3500.00,3999.00,M,-SN BR
BUF,2018-01-02 04:50,-78.7358,42.9408,M,M,M,260.00,9.00,30.38,M,M,3.00,M,3500.00,3999.00,M,-SN BR
BUF,2018-01-02 04:54,-78.7358,42.9408,10.90,7.00,83.93,270.00,10.00,30.38,1030.30,T,3.00,M,3500.00,4000.00,M,-SN BR
BUF,2018-01-02 04:55,-78.7358,42.9408,M,M,M,260.00,11.00,30.38,M,M,6.00,M,4600.00,M,M,-SN BR
BUF,2018-01-02 05:00,-78.7358,42.9408,M,M,M,270.00,10.00,30.38,M,M,7.00,M,4600.00,M,M,-SN
BUF,2018-01-02 05:05,-78.7358,42.9408,M,M,M,270.00,12.00,30.37,M,M,7.00,M,4600.00,M,M,-SN
BUF,2018-01-02 05:10,-78.7358,42.9408,M,M,M,260.00,13.00,30.38,M,M,7.00,M,4600.00,6000.00,M,-SN
BUF,2018-01-02 05:15,-78.7358,42.9408,M,M,M,270.00,11.00,30.38,M,M,8.00,M,4600.00,6000.00,M,-SN
BUF,2018-01-02 05:20,-78.7358,42.9408,M,M,M,260.00,10.00,30.37,M,M,8.00,M,4600.00,6000.00,M,-SN
BUF,2018-01-02 05:25,-78.7358,42.9408,M,M,M,270.00,13.00,30.37,M,M,5.00,M,4700.00,6000.00,M,-SN BR
BUF,2018-01-02 05:30,-78.7358,42.9408,M,M,M,M,M,30.37,M,M,4.00,M,4700.00,6000.00,M,-SN BR
BUF,2018-01-02 05:35,-78.7358,42.9408,M,M,M,280.00,12.00,30.37,M,M,5.00,M,4500.00,6000.00,M,-SN BR
BUF,2018-01-02 05:40,-78.7358,42.9408,M,M,M,270.00,13.00,30.37,M,M,6.00,M,4500.00,5500.00,M,-SN BR
BUF,2018-01-02 05:45,-78.7358,42.9408,M,M,M,270.00,13.00,30.37,M,M,7.00,M,4500.00,5500.00,M,-SN
BUF,2018-01-02 05:50,-78.7358,42.9408,M,M,M,270.00,12.00,30.37,M,M,7.00,M,4500.00,5500.00,M,-SN
BUF,2018-01-02 05:54,-78.7358,42.9408,10.90,7.00,83.93,280.00,9.00,30.37,1029.90,T,8.00,17.00,4000.00,5000.00,M,-SN
BUF,2018-01-02 05:55,-78.7358,42.9408,M,M,M,280.00,9.00,30.37,M,M,8.00,M,4400.00,5000.00,M,-SN
BUF,2018-01-02 06:00,-78.7358,42.9408,M,M,M,270.00,10.00,30.36,M,M,9.00,M,4300.00,5000.00,M,-SN
BUF,2018-01-02 06:05,-78.7358,42.9408,M,M,M,270.00,9.00,30.36,M,M,9.00,M,4300.00,5000.00,M,-SN
BUF,2018-01-02 06:10,-78.7358,42.9408,M,M,M,270.00,9.00,30.36,M,M,9.00,M,3900.00,4800.00,M,-SN
BUF,2018-01-02 06:15,-78.7358,42.9408,M,M,M,270.00,9.00,30.36,M,M,9.00,M,3600.00,4600.00,M,-SN
BUF,2018-01-02 06:20,-78.7358,42.9408,M,M,M,270.00,11.00,30.36,M,M,9.00,M,3600.00,4600.00,M,-SN
BUF,2018-01-02 06:25,-78.7358,42.9408,M,M,M,270.00,11.00,30.36,M,M,9.00,M,3600.00,4400.00,M,-SN
BUF,2018-01-02 06:30,-78.7358,42.9408,M,M,M,270.00,9.00,30.36,M,M,9.00,M,3500.00,4200.00,M,-SN
BUF,2018-01-02 06:35,-78.7358,42.9408,M,M,M,270.00,8.00,30.35,M,M,9.00,M,3500.00,M,M,-SN
BUF,2018-01-02 06:40,-78.7358,42.9408,M,M,M,260.00,9.00,30.35,M,M,9.00,M,3500.00,M,M,-SN
BUF,2018-01-02 06:45,-78.7358,42.9408,M,M,M,260.00,11.00,30.35,M,M,9.00,M,3500.00,M,M,-SN
BUF,2018-01-02 06:50,-78.7358,42.9408,M,M,M,270.00,11.00,30.35,M,M,9.00,M,3399.00,M,M,-SN
BUF,2018-01-02 06:54,-78.7358,42.9408,12.00,7.00,79.93,270.00,10.00,30.35,1029.30,T,9.00,M,3400.00,M,M,-SN
BUF,2018-01-02 06:55,-78.7358,42.9408,M,M,M,270.00,10.00,30.35,M,M,9.00,M,3399.00,M,M,-SN
BUF,2018-01-02 07:00,-78.7358,42.9408,M,M,M,280.00,9.00,30.35,M,M,9.00,M,3399.00,M,M,-SN
BUF,2018-01-02 07:05,-78.7358,42.9408,M,M,M,270.00,11.00,30.35,M,M,9.00,M,3399.00,M,M,-SN
BUF,2018-01-02 07:10,-78.7358,42.9408,M,M,M,270.00,12.00,30.35,M,M,9.00,M,3500.00,M,M,-SN
BUF,2018-01-02 07:15,-78.7358,42.9408,M,M,M,260.00,10.00,30.35,M,M,9.00,M,3399.00,M,M,-SN
BUF,2018-01-02 07:20,-78.7358,42.9408,M,M,M,260.00,9.00,30.35,M,M,9.00,M,3399.00,M,M,-SN
BUF,2018-01-02 07:25,-78.7358,42.9408,M,M,M,260.00,13.00,30.35,M,M,9.00,M,3500.00,5000.00,M,-SN
BUF,2018-01-02 07:30,-78.7358,42.9408,M,M,M,260.00,13.00,30.35,M,M,9.00,M,3399.00,5500.00,M,-SN
BUF,2018-01-02 07:35,-78.7358,42.9408,M,M,M,260.00,9.00,30.35,M,M,9.00,M,3399.00,4300.00,5500.00,-SN
BUF,2018-01-02 07:40,-78.7358,42.9408,M,M,M,260.00,11.00,30.36,M,M,9.00,M,3399.00,4300.00,5500.00,-SN
BUF,2018-01-02 07:45,-78.7358,42.9408,M,M,M,260.00,12.00,30.36,M,M,9.00,M,3600.00,4300.00,5500.00,-SN
BUF,2018-01-02 07:50,-78.7358,42.9408,M,M,M,270.00,13.00,30.36,M,M,9.00,18.00,4300.00,5500.00,M,-SN
BUF,2018-01-02 07:54,-78.7358,42.9408,14.00,7.00,73.19,270.00,16.00,30.36,1029.60,T,9.00,20.00,4300.00,5500.00,M,-SN
BUF,2018-01-02 07:55,-78.7358,42.9408,M,M,M,260.00,15.00,30.36,M,M,9.00,20.00,4500.00,5500.00,M,-SN
BUF,2018-01-02 08:00,-78.7358,42.9408,M,M,M,270.00,13.00,30.36,M,M,8.00,M,4500.00,5500.00,M,-SN
BUF,2018-01-02 08:05,-78.7358,42.9408,M,M,M,260.00,17.00,30.36,M,M,6.00,M,4300.00,5500.00,M,-SN
BUF,2018-01-02 08:10,-78.7358,42.9408,M,M,M,270.00,16.00,30.36,M,M,4.00,M,4100.00,5500.00,M,-SN
BUF,2018-01-02 08:15,-78.7358,42.9408,M,M,M,270.00,16.00,30.35,M,M,3.00,M,3800.00,4500.00,M,-SN
BUF,2018-01-02 08:20,-78.7358,42.9408,M,M,M,270.00,14.00,30.36,M,M,4.00,M,3800.00,M,M,-SN
BUF,2018-01-02 08:25,-78.7358,42.9408,M,M,M,260.00,16.00,30.35,M,M,6.00,M,3800.00,M,M,-SN
BUF,2018-01-02 08:30,-78.7358,42.9408,M,M,M,260.00,14.00,30.35,M,M,7.00,M,3800.00,M,M,-SN
BUF,2018-01-02 08:35,-78.7358,42.9408,M,M,M,260.00,15.00,30.35,M,M,8.00,M,3800.00,M,M,-SN
BUF,2018-01-02 08:40,-78.7358,42.9408,M,M,M,260.00,13.00,30.34,M,M,9.00,M,3800.00,6000.00,M,-SN
BUF,2018-01-02 08:45,-78.7358,42.9408,M,M,M,270.00,11.00,30.35,M,M,9.00,16.00,3800.00,6000.00,M,-SN
BUF,2018-01-02 08:50,-78.7358,42.9408,M,M,M,260.00,15.00,30.35,M,M,9.00,M,3800.00,6000.00,M,-SN
BUF,2018-01-02 08:54,-78.7358,42.9408,14.00,7.00,73.19,270.00,14.00,30.35,1029.50,T,9.00,20.00,3800.00,6000.00,M,-SN
BUF,2018-01-02 08:55,-78.7358,42.9408,M,M,M,260.00,14.00,30.35,M,M,9.00,M,3800.00,6000.00,M,-SN
BUF,2018-01-02 09:00,-78.7358,42.9408,M,M,M,260.00,13.00,30.35,M,M,9.00,M,3800.00,6000.00,M,-SN
BUF,2018-01-02 09:05,-78.7358,42.9408,M,M,M,260.00,14.00,30.35,M,M,9.00,M,3600.00,6000.00,M,-SN
BUF,2018-01-02 09:10,-78.7358,42.9408,M,M,M,250.00,14.00,30.35,M,M,9.00,M,3600.00,5500.00,M,-SN
BUF,2018-01-02 09:15,-78.7358,42.9408,M,M,M,260.00,17.00,30.35,M,M,9.00,M,3600.00,4400.00,5500.00,-SN
BUF,2018-01-02 09:20,-78.7358,42.9408,M,M,M,260.00,16.00,30.35,M,M,9.00,M,3500.00,4400.00,5500.00,-SN
BUF,2018-01-02 09:25,-78.7358,42.9408,M,M,M,260.00,17.00,30.35,M,M,9.00,M,3500.00,4400.00,5000.00,-SN
BUF,2018-01-02 09:30,-78.7358,42.9408,M,M,M,260.00,15.00,30.35,M,M,9.00,M,3500.00,4400.00,5000.00,-SN
BUF,2018-01-02 09:35,-78.7358,42.9408,M,M,M,260.00,13.00,30.35,M,M,9.00,M,3300.00,4500.00,5000.00,-SN
BUF,2018-01-02 09:40,-78.7358,42.9408,M,M,M,260.00,15.00,30.35,M,M,9.00,M,4800.00,M,M,-SN
BUF,2018-01-02 09:45,-78.7358,42.9408,M,M,M,270.00,16.00,30.35,M,M,9.00,M,4800.00,M,M,-SN
BUF,2018-01-02 09:50,-78.7358,42.9408,M,M,M,270.00,15.00,30.35,M,M,9.00,M,4800.00,M,M,-SN
BUF,2018-01-02 09:54,-78.7358,42.9408,12.90,6.10,73.74,260.00,16.00,30.35,1029.30,T,9.00,23.00,4800.00,M,M,-SN
BUF,2018-01-02 09:55,-78.7358,42.9408,M,M,M,260.00,16.00,30.35,M,M,9.00,M,4800.00,M,M,-SN
BUF,2018-01-02 10:00,-78.7358,42.9408,M,M,M,260.00,15.00,30.34,M,M,7.00,M,5000.00,M,M,-SN
BUF,2018-01-02 10:05,-78.7358,42.9408,M,M,M,260.00,17.00,30.35,M,M,5.00,M,5000.00,M,M,-SN
BUF,2018-01-02 10:10,-78.7358,42.9408,M,M,M,260.00,17.00,30.35,M,M,5.00,M,5000.00,M,M,-SN
BUF,2018-01-02 10:15,-78.7358,42.9408,M,M,M,M,M,30.35,M,M,6.00,M,3999.00,5000.00,M,-SN
BUF,2018-01-02 10:20,-78.7358,42.9408,M,M,M,M,M,30.34,M,M,7.00,M,3800.00,5000.00,M,-SN
BUF,2018-01-02 10:25,-78.7358,42.9408,M,M,M,260.00,16.00,30.35,M,M,9.00,M,3800.00,5000.00,M,-SN
BUF,2018-01-02 10:30,-78.7358,42.9408,M,M,M,260.00,18.00,30.35,M,M,9.00,M,3800.00,5000.00,M,-SN
BUF,2018-01-02 10:35,-78.7358,42.9408,M,M,M,270.00,15.00,30.35,M,M,9.00,M,3800.00,5000.00,M,-SN
BUF,2018-01-02 10:40,-78.7358,42.9408,M,M,M,260.00,17.00,30.35,M,M,9.00,M,3800.00,M,M,-SN
BUF,2018-01-02 10:45,-78.7358,42.9408,M,M,M,260.00,15.00,30.35,M,M,9.00,M,3900.00,M,M,-SN
BUF,2018-01-02 10:50,-78.7358,42.9408,M,M,M,260.00,16.00,30.34,M,M,9.00,M,3900.00,M,M,-SN
BUF,2018-01-02 10:54,-78.7358,42.9408,12.90,7.00,76.82,270.00,14.00,30.34,1029.10,T,9.00,21.00,3900.00,M,M,-SN
BUF,2018-01-02 10:55,-78.7358,42.9408,M,M,M,270.00,13.00,30.34,M,M,9.00,18.00,4100.00,M,M,-SN
BUF,2018-01-02 11:00,-78.7358,42.9408,M,M,M,270.00,12.00,30.34,M,M,9.00,M,4100.00,M,M,-SN
BUF,2018-01-02 11:05,-78.7358,42.9408,M,M,M,270.00,14.00,30.35,M,M,9.00,M,4300.00,M,M,-SN
BUF,2018-01-02 11:10,-78.7358,42.9408,M,M,M,270.00,12.00,30.34,M,M,9.00,19.00,4300.00,M,M,-SN
BUF,2018-01-02 11:15,-78.7358,42.9408,M,M,M,270.00,12.00,30.34,M,M,9.00,M,4500.00,M,M,-SN
BUF,2018-01-02 11:20,-78.7358,42.9408,M,M,M,270.00,13.00,30.34,M,M,9.00,M,4500.00,M,M,-SN
BUF,2018-01-02 11:25,-78.7358,42.9408,M,M,M,260.00,13.00,30.34,M,M,9.00,M,4500.00,5000.00,M,-SN
BUF,2018-01-02 11:30,-78.7358,42.9408,M,M,M,270.00,13.00,30.33,M,M,9.00,M,4500.00,5000.00,M,-SN
BUF,2018-01-02 11:35,-78.7358,42.9408,M,M,M,270.00,14.00,30.33,M,M,9.00,M,4500.00,5000.00,M,-SN
BUF,2018-01-02 11:40,-78.7358,42.9408,M,M,M,260.00,14.00,30.33,M,M,9.00,M,4500.00,5000.00,M,-SN
BUF,2018-01-02 11:45,-78.7358,42.9408,M,M,M,270.00,11.00,30.33,M,M,9.00,M,4300.00,5000.00,M,-SN
BUF,2018-01-02 11:50,-78.7358,42.9408,M,M,M,270.00,13.00,30.33,M,M,9.00,M,4300.00,5000.00,M,-SN
BUF,2018-01-02 11:54,-78.7358,42.9408,14.00,7.00,73.19,260.00,12.00,30.33,1028.70,T,9.00,M,5000.00,M,M,-SN
BUF,2018-01-02 11:55,-78.7358,42.9408,M,M,M,260.00,12.00,30.33,M,M,9.00,M,5000.00,M,M,-SN
BUF,2018-01-02 12:00,-78.7358,42.9408,M,M,M,260.00,14.00,30.33,M,M,9.00,M,5000.00,M,M,-SN
BUF,2018-01-02 12:05,-78.7358,42.9408,M,M,M,260.00,13.00,30.33,M,M,9.00,M,5000.00,M,M,-SN
BUF,2018-01-02 12:10,-78.7358,42.9408,M,M,M,250.00,11.00,30.32,M,M,9.00,M,5000.00,M,M,-SN
BUF,2018-01-02 12:15,-78.7358,42.9408,M,M,M,260.00,14.00,30.32,M,M,9.00,M,5000.00,M,M,M
BUF,2018-01-02 12:20,-78.7358,42.9408,M,M,M,260.00,13.00,30.32,M,M,10.00,M,4900.00,M,M,M
BUF,2018-01-02 12:25,-78.7358,42.9408,M,M,M,260.00,13.00,30.32,M,M,10.00,M,4700.00,M,M,M
BUF,2018-01-02 12:30,-78.7358,42.9408,M,M,M,260.00,13.00,30.32,M,M,10.00,M,4700.00,M,M,M
BUF,2018-01-02 12:35,-78.7358,42.9408,M,M,M,260.00,14.00,30.32,M,M,10.00,M,4700.00,M,M,M
BUF,2018-01-02 12:40,-78.7358,42.9408,M,M,M,260.00,12.00,30.32,M,M,10.00,M,M,M,M,M
BUF,2018-01-02 12:45,-78.7358,42.9408,M,M,M,260.00,13.00,30.32,M,M,10.00,M,M,M,M,M
BUF,2018-01-02 12:50,-78.7358,42.9408,M,M,M,260.00,14.00,30.32,M,M,10.00,M,5000.00,M,M,M
BUF,2018-01-02 12:54,-78.7358,42.9408,16.00,10.00,76.77,260.00,14.00,30.32,1028.50,T,10.00,21.00,5000.00,15000.00,M,M
BUF,2018-01-02 12:55,-78.7358,42.9408,M,M,M,260.00,15.00,30.32,M,M,10.00,M,1600.00,M,M,M
BUF,2018-01-02 13:00,-78.7358,42.9408,M,M,M,280.00,13.00,30.32,M,M,10.00,M,1600.00,M,M,M
BUF,2018-01-02 13:05,-78.7358,42.9408,M,M,M,270.00,16.00,30.33,M,M,10.00,M,1600.00,M,M,M
BUF,2018-01-02 13:10,-78.7358,42.9408,M,M,M,270.00,16.00,30.33,M,M,9.00,M,1600.00,M,M,-SN
BUF,2018-01-02 13:15,-78.7358,42.9408,M,M,M,270.00,15.00,30.33,M,M,8.00,M,1600.00,12000.00,M,M
BUF,2018-01-02 13:20,-78.7358,42.9408,M,M,M,260.00,15.00,30.32,M,M,9.00,M,1600.00,12000.00,M,M
BUF,2018-01-02 13:25,-78.7358,42.9408,M,M,M,270.00,13.00,30.32,M,M,10.00,M,1600.00,12000.00,M,M
BUF,2018-01-02 13:26,-78.7358,42.9408,14.00,8.10,76.92,270.00,12.00,30.32,M,T,10.00,M,1600.00,5000.00,13000.00,-SN
BUF,2018-01-02 13:30,-78.7358,42.9408,M,M,M,270.00,12.00,30.32,M,M,10.00,M,1600.00,5000.00,M,-SN
BUF,2018-01-02 13:35,-78.7358,42.9408,M,M,M,270.00,13.00,30.32,M,M,9.00,M,1600.00,5000.00,M,-SN
BUF,2018-01-02 13:40,-78.7358,42.9408,M,M,M,260.00,14.00,30.32,M,M,9.00,M,1600.00,5000.00,M,-SN
BUF,2018-01-02 13:45,-78.7358,42.9408,M,M,M,270.00,11.00,30.32,M,M,9.00,M,1600.00,5000.00,M,-SN
BUF,2018-01-02 13:50,-78.7358,42.9408,M,M,M,260.00,12.00,30.32,M,M,8.00,M,1600.00,M,M,-SN
BUF,2018-01-02 13:54,-78.7358,42.9408,14.00,9.00,80.10,260.00,13.00,30.31,1028.10,T,8.00,M,1600.00,2300.00,M,-SN
BUF,2018-01-02 13:55,-78.7358,42.9408,M,M,M,260.00,13.00,30.31,M,M,8.00,M,1600.00,M,M,-SN
BUF,2018-01-02 14:00,-78.7358,42.9408,M,M,M,260.00,12.00,30.31,M,M,8.00,M,1900.00,M,M,-SN
BUF,2018-01-02 14:05,-78.7358,42.9408,M,M,M,260.00,14.00,30.31,M,M,8.00,M,1900.00,M,M,-SN
BUF,2018-01-02 14:10,-78.7358,42.9408,M,M,M,260.00,14.00,30.30,M,M,8.00,M,1900.00,M,M,-SN
BUF,2018-01-02 14:15,-78.7358,42.9408,M,M,M,260.00,15.00,30.30,M,M,7.00,M,1900.00,M,M,-SN
BUF,2018-01-02 14:20,-78.7358,42.9408,M,M,M,260.00,11.00,30.30,M,M,7.00,M,1900.00,M,M,-SN
BUF,2018-01-02 14:25,-78.7358,42.9408,M,M,M,260.00,13.00,30.30,M,M,8.00,M,1900.00,M,M,-SN
BUF,2018-01-02 14:30,-78.7358,42.9408,M,M,M,260.00,12.00,30.30,M,M,6.00,M,1900.00,M,M,-SN
BUF,2018-01-02 14:35,-78.7358,42.9408,M,M,M,250.00,12.00,30.30,M,M,4.00,17.00,1900.00,M,M,-SN
BUF,2018-01-02 14:40,-78.7358,42.9408,M,M,M,240.00,13.00,30.30,M,M,5.00,M,1900.00,M,M,-SN BR
BUF,2018-01-02 14:45,-78.7358,42.9408,M,M,M,250.00,12.00,30.30,M,M,6.00,M,2100.00,M,M,-SN BR
BUF,2018-01-02 14:50,-78.7358,42.9408,M,M,M,210.00,19.00,30.30,M,M,0.75,M,1200.00,2100.00,M,-SN
BUF,2018-01-02 14:51,-78.7358,42.9408,15.80,12.20,85.40,220.00,19.00,30.30,M,T,0.75,23.00,900.00,1900.00,M,-SN BLSN
BUF,2018-01-02 14:54,-78.7358,42.9408,16.00,12.00,83.91,220.00,16.00,30.30,1027.50,T,0.75,26.00,700.00,1100.00,1900.00,-SN BLSN
BUF,2018-01-02 14:55,-78.7358,42.9408,M,M,M,220.00,18.00,30.29,M,M,0.75,M,1200.00,1900.00,M,-SN
BUF,2018-01-02 15:00,-78.7358,42.9408,M,M,M,220.00,18.00,30.30,M,M,0.75,M,1200.00,1900.00,M,-SN
BUF,2018-01-02 15:05,-78.7358,42.9408,M,M,M,M,M,30.30,M,M,0.50,M,1200.00,1999.00,M,SN
BUF,2018-01-02 15:10,-78.7358,42.9408,M,M,M,M,M,30.30,M,M,0.25,M,1200.00,1999.00,M,+SN
BUF,2018-01-02 15:15,-78.7358,42.9408,M,M,M,M,M,30.29,M,M,0.50,M,1200.00,M,M,SN
BUF,2018-01-02 15:20,-78.7358,42.9408,M,M,M,M,M,30.29,M,M,0.50,M,1100.00,M,M,SN
BUF,2018-01-02 15:25,-78.7358,42.9408,M,M,M,M,M,30.29,M,M,0.50,M,1100.00,M,M,SN
BUF,2018-01-02 15:30,-78.7358,42.9408,M,M,M,210.00,19.00,30.29,M,M,0.25,M,1100.00,M,M,+SN
BUF,2018-01-02 15:35,-78.7358,42.9408,M,M,M,220.00,15.00,30.29,M,M,0.50,M,1100.00,M,M,SN
BUF,2018-01-02 15:40,-78.7358,42.9408,M,M,M,220.00,18.00,30.29,M,M,0.50,M,1100.00,M,M,SN
BUF,2018-01-02 15:45,-78.7358,42.9408,M,M,M,230.00,18.00,30.28,M,M,0.50,M,1100.00,M,M,SN
BUF,2018-01-02 15:50,-78.7358,42.9408,M,M,M,230.00,24.00,30.28,M,M,0.25,M,1100.00,1600.00,M,+SN
BUF,2018-01-02 15:54,-78.7358,42.9408,18.00,14.00,84.05,220.00,27.00,30.28,1026.80,T,0.25,33.00,800.00,1300.00,M,+SN BLSN
BUF,2018-01-02 15:55,-78.7358,42.9408,M,M,M,M,M,30.28,M,M,0.25,M,1300.00,M,M,+SN
BUF,2018-01-02 16:00,-78.7358,42.9408,M,M,M,230.00,22.00,30.28,M,M,0.25,M,1300.00,M,M,+SN
BUF,2018-01-02 16:05,-78.7358,42.9408,M,M,M,M,M,30.27,M,M,0.25,M,1300.00,M,M,+SN
BUF,2018-01-02 16:10,-78.7358,42.9408,M,M,M,M,M,30.27,M,M,0.25,M,1300.00,M,M,+SN
BUF,2018-01-02 16:15,-78.7358,42.9408,M,M,M,230.00,20.00,30.27,M,M,0.25,M,1300.00,M,M,+SN
BUF,2018-01-02 16:20,-78.7358,42.9408,M,M,M,M,M,30.27,M,M,0.25,M,1300.00,M,M,+SN
BUF,2018-01-02 16:25,-78.7358,42.9408,M,M,M,M,M,30.26,M,M,0.24,M,1200.00,M,M,+SN
BUF,2018-01-02 16:30,-78.7358,42.9408,M,M,M,M,M,30.26,M,M,0.25,M,800.00,1300.00,M,+SN
BUF,2018-01-02 16:35,-78.7358,42.9408,M,M,M,230.00,21.00,30.25,M,M,0.25,M,800.00,1300.00,M,+SN
BUF,2018-01-02 16:40,-78.7358,42.9408,M,M,M,M,M,30.25,M,M,0.25,M,800.00,1300.00,M,+SN
BUF,2018-01-02 16:45,-78.7358,42.9408,M,M,M,M,M,30.25,M,M,0.25,M,1300.00,M,M,+SN
BUF,2018-01-02 16:50,-78.7358,42.9408,M,M,M,M,M,30.25,M,M,0.25,M,1300.00,M,M,+SN
BUF,2018-01-02 16:54,-78.7358,42.9408,18.00,15.10,88.20,230.00,24.00,30.24,1025.50,T,0.25,34.00,700.00,1200.00,M,+SN BLSN
BUF,2018-01-02 16:55,-78.7358,42.9408,M,M,M,M,M,30.24,M,M,0.25,M,1200.00,M,M,+SN
BUF,2018-01-02 17:00,-78.7358,42.9408,M,M,M,M,M,30.24,M,M,0.25,M,1200.00,M,M,+SN
BUF,2018-01-02 17:05,-78.7358,42.9408,M,M,M,M,M,30.23,M,M,0.25,M,1200.00,M,M,+SN
BUF,2018-01-02 17:10,-78.7358,42.9408,M,M,M,M,M,30.23,M,M,0.25,32.00,1200.00,M,M,+SN
BUF,2018-01-02 17:15,-78.7358,42.9408,M,M,M,M,M,30.24,M,M,0.25,32.00,1200.00,M,M,+SN
BUF,2018-01-02 17:20,-78.7358,42.9408,M,M,M,M,M,30.23,M,M,0.24,M,1200.00,M,M,+SN
BUF,2018-01-02 17:24,-78.7358,42.9408,17.10,15.10,91.68,230.00,27.00,30.23,M,T,0.12,35.00,700.00,1200.00,M,+SN BLSN
BUF,2018-01-02 17:25,-78.7358,42.9408,M,M,M,M,M,30.22,M,M,0.13,M,700.00,1200.00,M,+SN
BUF,2018-01-02 17:30,-78.7358,42.9408,M,M,M,230.00,23.00,30.22,M,M,0.13,M,1200.00,M,M,+SN
BUF,2018-01-02 17:35,-78.7358,42.9408,M,M,M,230.00,22.00,30.22,M,M,0.13,M,1200.00,M,M,+SN
BUF,2018-01-02 17:40,-78.7358,42.9408,M,M,M,M,M,30.22,M,M,0.13,M,1200.00,M,M,+SN
BUF,2018-01-02 17:45,-78.7358,42.9408,M,M,M,M,M,30.22,M,M,0.13,M,1200.00,M,M,+SN
BUF,2018-01-02 17:50,-78.7358,42.9408,17.60,15.80,92.50,230.00,29.00,30.22,M,T,0.12,38.00,700.00,1200.00,M,+SN BLSN
BUF,2018-01-02 17:54,-78.7358,42.9408,17.10,14.00,87.38,230.00,27.00,30.22,1024.90,T,0.12,40.00,700.00,1200.00,M,+SN BLSN
BUF,2018-01-02 17:55,-78.7358,42.9408,M,M,M,230.00,23.00,30.22,M,M,0.13,M,1200.00,M,M,+SN
BUF,2018-01-02 18:00,-78.7358,42.9408,M,M,M,230.00,22.00,30.22,M,0.01,0.13,M,1200.00,M,M,+SN
BUF,2018-01-02 18:05,-78.7358,42.9408,M,M,M,230.00,21.00,30.21,M,0.01,0.13,M,1200.00,M,M,+SN
BUF,2018-01-02 18:10,-78.7358,42.9408,M,M,M,220.00,21.00,30.21,M,0.01,0.13,M,1200.00,M,M,+SN
BUF,2018-01-02 18:15,-78.7358,42.9408,M,M,M,M,M,30.21,M,0.01,0.13,27.00,1200.00,M,M,+SN
BUF,2018-01-02 18:20,-78.7358,42.9408,M,M,M,M,M,30.21,M,0.01,0.13,M,1200.00,M,M,+SN
BUF,2018-01-02 18:22,-78.7358,42.9408,17.60,15.80,92.50,230.00,25.00,30.21,M,0.00,0.12,36.00,700.00,1200.00,M,+SN BLSN
BUF,2018-01-02 18:25,-78.7358,42.9408,M,M,M,M,M,30.21,M,0.01,0.13,M,700.00,1200.00,M,+SN
BUF,2018-01-02 18:30,-78.7358,42.9408,M,M,M,M,M,30.21,M,0.01,0.13,M,700.00,1200.00,M,+SN
BUF,2018-01-02 18:32,-78.7358,42.9408,18.00,15.10,88.20,230.00,27.00,30.21,M,0.01,0.12,37.00,700.00,1100.00,M,+SN BLSN
BUF,2018-01-02 18:35,-78.7358,42.9408,M,M,M,M,M,30.21,M,0.01,0.13,M,700.00,1100.00,M,+SN
BUF,2018-01-02 18:40,-78.7358,42.9408,M,M,M,M,M,30.20,M,0.01,0.13,34.00,700.00,1100.00,M,+SN
BUF,2018-01-02 18:45,-78.7358,42.9408,M,M,M,230.00,21.00,30.20,M,0.01,0.13,27.00,700.00,1100.00,M,+SN
BUF,2018-01-02 18:50,-78.7358,42.9408,M,M,M,M,M,30.21,M,0.01,0.13,M,700.00,1100.00,M,+SN
BUF,2018-01-02 18:52,-78.7358,42.9408,17.60,15.80,92.50,230.00,22.00,30.20,M,0.01,0.12,35.00,900.00,M,M,+SN BLSN
BUF,2018-01-02 18:54,-78.7358,42.9408,17.10,15.10,91.68,230.00,24.00,30.20,1024.30,0.01,0.12,35.00,900.00,M,M,+SN BLSN
BUF,2018-01-02 18:55,-78.7358,42.9408,M,M,M,M,M,30.20,M,M,0.13,M,900.00,1200.00,M,+SN
BUF,2018-01-02 19:00,-78.7358,42.9408,M,M,M,M,M,30.20,M,M,0.13,M,800.00,1200.00,M,+SN
BUF,2018-01-02 19:05,-78.7358,42.9408,M,M,M,M,M,30.20,M,M,0.13,M,800.00,1200.00,M,+SN
BUF,2018-01-02 19:10,-78.7358,42.9408,M,M,M,M,M,30.20,M,M,0.13,M,800.00,M,M,+SN
BUF,2018-01-02 19:15,-78.7358,42.9408,M,M,M,M,M,30.19,M,M,0.13,32.00,800.00,1300.00,M,+SN
BUF,2018-01-02 19:20,-78.7358,42.9408,M,M,M,M,M,30.20,M,M,0.13,35.00,800.00,1400.00,M,+SN
BUF,2018-01-02 19:25,-78.7358,42.9408,M,M,M,M,M,30.19,M,0.01,0.13,M,800.00,1400.00,M,+SN
BUF,2018-01-02 19:30,-78.7358,42.9408,M,M,M,M,M,30.20,M,0.01,0.13,M,800.00,1500.00,M,+SN
BUF,2018-01-02 19:35,-78.7358,42.9408,M,M,M,M,M,30.20,M,0.01,0.13,32.00,999.00,1500.00,M,+SN
BUF,2018-01-02 19:40,-78.7358,42.9408,M,M,M,M,M,30.20,M,0.01,0.13,M,800.00,1699.00,M,+SN
BUF,2018-01-02 19:45,-78.7358,42.9408,M,M,M,M,M,30.20,M,0.01,0.13,31.00,900.00,1600.00,M,+SN
BUF,2018-01-02 19:50,-78.7358,42.9408,M,M,M,M,M,30.19,M,0.01,0.13,30.00,900.00,1600.00,M,+SN
BUF,2018-01-02 19:54,-78.7358,42.9408,17.10,14.00,87.38,230.00,22.00,30.20,1024.10,0.01,0.12,32.00,900.00,1400.00,M,+SN BLSN
BUF,2018-01-02 19:55,-78.7358,42.9408,M,M,M,230.00,20.00,30.20,M,M,0.13,M,900.00,1400.00,M,+SN
BUF,2018-01-02 20:00,-78.7358,42.9408,M,M,M,230.00,23.00,30.20,M,M,0.13,M,900.00,1500.00,M,+SN
BUF,2018-01-02 20:05,-78.7358,42.9408,M,M,M,M,M,30.20,M,M,0.13,M,900.00,1500.00,M,+SN
BUF,2018-01-02 20:10,-78.7358,42.9408,M,M,M,M,M,30.20,M,M,0.13,M,900.00,1400.00,M,+SN
BUF,2018-01-02 20:15,-78.7358,42.9408,M,M,M,M,M,30.20,M,M,0.13,28.00,900.00,1400.00,M,+SN
BUF,2018-01-02 20:20,-78.7358,42.9408,M,M,M,M,M,30.20,M,M,0.13,28.00,900.00,1400.00,M,+SN
BUF,2018-01-02 20:25,-78.7358,42.9408,M,M,M,M,M,30.20,M,0.01,0.13,M,900.00,1400.00,M,+SN
BUF,2018-01-02 20:27,-78.7358,42.9408,16.00,14.00,91.64,230.00,26.00,30.20,M,0.01,0.12,35.00,900.00,1400.00,M,+SN BLSN
BUF,2018-01-02 20:30,-78.7358,42.9408,M,M,M,M,M,30.20,M,0.01,0.13,30.00,900.00,1400.00,M,+SN
BUF,2018-01-02 20:35,-78.7358,42.9408,M,M,M,M,M,30.20,M,0.01,0.13,M,900.00,1400.00,M,+SN
BUF,2018-01-02 20:40,-78.7358,42.9408,M,M,M,230.00,21.00,30.20,M,0.01,0.13,28.00,900.00,1400.00,M,+SN
BUF,2018-01-02 20:45,-78.7358,42.9408,M,M,M,M,M,30.20,M,0.01,0.13,29.00,900.00,1400.00,M,+SN
BUF,2018-01-02 20:50,-78.7358,42.9408,M,M,M,M,M,30.20,M,0.01,0.13,M,900.00,1400.00,M,+SN
BUF,2018-01-02 20:54,-78.7358,42.9408,16.00,14.00,91.64,230.00,25.00,30.21,1024.30,0.01,0.12,36.00,900.00,1400.00,M,+SN BLSN
BUF,2018-01-02 20:55,-78.7358,42.9408,M,M,M,230.00,21.00,30.21,M,M,0.13,M,900.00,1400.00,M,+SN
BUF,2018-01-02 21:00,-78.7358,42.9408,M,M,M,M,M,30.20,M,M,0.13,M,900.00,1400.00,M,+SN
BUF,2018-01-02 21:05,-78.7358,42.9408,M,M,M,230.00,20.00,30.21,M,M,0.13,M,900.00,1400.00,M,+SN
BUF,2018-01-02 21:10,-78.7358,42.9408,M,M,M,220.00,22.00,30.21,M,M,0.13,M,900.00,1400.00,M,+SN
BUF,2018-01-02 21:15,-78.7358,42.9408,M,M,M,M,M,30.20,M,M,0.13,M,900.00,1400.00,M,+SN
BUF,2018-01-02 21:20,-78.7358,42.9408,M,M,M,M,M,30.20,M,M,0.13,30.00,900.00,1400.00,M,+SN
BUF,2018-01-02 21:23,-78.7358,42.9408,16.00,12.90,87.32,230.00,26.00,30.20,M,T,0.25,37.00,700.00,1200.00,M,+SN BLSN
BUF,2018-01-02 21:25,-78.7358,42.9408,M,M,M,M,M,30.20,M,M,0.25,M,700.00,1200.00,M,+SN
BUF,2018-01-02 21:30,-78.7358,42.9408,M,M,M,220.00,19.00,30.21,M,0.01,0.25,27.00,700.00,1200.00,M,+SN
BUF,2018-01-02 21:35,-78.7358,42.9408,M,M,M,M,M,30.20,M,0.01,0.25,30.00,700.00,1200.00,M,+SN
BUF,2018-01-02 21:40,-78.7358,42.9408,M,M,M,M,M,30.21,M,0.01,0.25,32.00,1300.00,M,M,+SN
BUF,2018-01-02 21:45,-78.7358,42.9408,M,M,M,M,M,30.20,M,0.01,0.25,30.00,1400.00,M,M,+SN
BUF,2018-01-02 21:50,-78.7358,42.9408,M,M,M,220.00,19.00,30.20,M,0.01,0.25,M,1400.00,M,M,+SN
BUF,2018-01-02 21:54,-78.7358,42.9408,16.00,12.90,87.32,220.00,19.00,30.20,1024.20,0.01,0.25,30.00,900.00,1400.00,M,+SN BLSN
BUF,2018-01-02 21:55,-78.7358,42.9408,M,M,M,M,M,30.20,M,M,0.50,25.00,1400.00,M,M,SN
BUF,2018-01-02 22:00,-78.7358,42.9408,M,M,M,M,M,30.20,M,M,0.50,M,1400.00,M,M,SN
BUF,2018-01-02 22:05,-78.7358,42.9408,M,M,M,M,M,30.20,M,0.01,0.50,M,1400.00,M,M,SN
BUF,2018-01-02 22:10,-78.7358,42.9408,M,M,M,M,M,30.20,M,0.01,0.75,M,1400.00,M,M,-SN
BUF,2018-01-02 22:15,-78.7358,42.9408,M,M,M,M,M,30.20,M,0.01,0.75,27.00,1400.00,M,M,-SN
BUF,2018-01-02 22:20,-78.7358,42.9408,M,M,M,M,M,30.19,M,0.01,0.75,M,1400.00,M,M,-SN
BUF,2018-01-02 22:25,-78.7358,42.9408,M,M,M,M,M,30.20,M,0.01,0.75,M,1400.00,M,M,-SN
BUF,2018-01-02 22:30,-78.7358,42.9408,M,M,M,210.00,21.00,30.19,M,0.01,0.75,28.00,1400.00,M,M,-SN
BUF,2018-01-02 22:33,-78.7358,42.9408,15.10,10.00,79.84,220.00,20.00,30.19,M,0.01,1.00,31.00,1600.00,M,M,-SN BLSN
BUF,2018-01-02 22:35,-78.7358,42.9408,M,M,M,M,M,30.19,M,0.01,1.00,35.00,1600.00,M,M,-SN
BUF,2018-01-02 22:40,-78.7358,42.9408,M,M,M,M,M,30.19,M,0.01,1.00,30.00,1600.00,M,M,-SN
BUF,2018-01-02 22:45,-78.7358,42.9408,M,M,M,210.00,19.00,30.19,M,0.01,1.00,M,1600.00,M,M,-SN
BUF,2018-01-02 22:50,-78.7358,42.9408,M,M,M,M,M,30.19,M,0.01,1.75,M,1900.00,M,M,-SN
BUF,2018-01-02 22:54,-78.7358,42.9408,16.00,9.00,73.41,210.00,21.00,30.19,1023.90,0.01,2.00,29.00,1700.00,M,M,-SN BLSN
BUF,2018-01-02 22:55,-78.7358,42.9408,M,M,M,M,M,30.19,M,M,3.00,27.00,1900.00,M,M,-SN
BUF,2018-01-02 23:00,-78.7358,42.9408,M,M,M,M,M,30.19,M,M,5.00,M,1900.00,M,M,-SN
BUF,2018-01-02 23:05,-78.7358,42.9408,M,M,M,M,M,30.19,M,M,5.00,M,1900.00,M,M,-SN
BUF,2018-01-02 23:10,-78.7358,42.9408,M,M,M,210.00,19.00,30.19,M,M,5.00,M,1900.00,M,M,-SN
BUF,2018-01-02 23:15,-78.7358,42.9408,M,M,M,220.00,20.00,30.19,M,M,5.00,M,1900.00,M,M,-SN
BUF,2018-01-02 23:20,-78.7358,42.9408,M,M,M,220.00,19.00,30.19,M,M,3.00,M,1900.00,M,M,-SN
BUF,2018-01-02 23:25,-78.7358,42.9408,M,M,M,220.00,16.00,30.19,M,M,5.00,21.00,1900.00,M,M,-SN
BUF,2018-01-02 23:30,-78.7358,42.9408,M,M,M,210.00,19.00,30.20,M,M,5.00,M,1900.00,M,M,-SN
BUF,2018-01-02 23:35,-78.7358,42.9408,M,M,M,210.00,19.00,30.20,M,M,5.00,M,1900.00,M,M,-SN
BUF,2018-01-02 23:40,-78.7358,42.9408,M,M,M,210.00,15.00,30.20,M,M,7.00,M,2100.00,M,M,-SN
BUF,2018-01-02 23:45,-78.7358,42.9408,M,M,M,220.00,15.00,30.20,M,M,8.00,M,2100.00,M,M,-SN
BUF,2018-01-02 23:50,-78.7358,42.9408,M,M,M,220.00,14.00,30.20,M,M,9.00,19.00,2100.00,M,M,-SN
BUF,2018-01-02 23:54,-78.7358,42.9408,16.00,6.10,64.39,210.00,17.00,30.20,1024.20,T,8.00,25.00,2100.00,M,M,-SN
BUF,2018-01-02 23:55,-78.7358,42.9408,M,M,M,210.00,16.00,30.20,M,M,9.00,M,2100.00,M,M,M
BUF,2018-01-03 00:00,-78.7358,42.9408,M,M,M,220.00,17.00,30.20,M,M,7.00,M,2100.00,M,M,-SN
BUF,2018-01-03 00:05,-78.7358,42.9408,M,M,M,210.00,19.00,30.20,M,M,7.00,M,2100.00,M,M,-SN
BUF,2018-01-03 00:10,-78.7358,42.9408,M,M,M,M,M,30.20,M,M,8.00,M,2200.00,M,M,-SN
BUF,2018-01-03 00:15,-78.7358,42.9408,M,M,M,220.00,18.00,30.20,M,M,7.00,M,2200.00,M,M,-SN
BUF,2018-01-03 00:20,-78.7358,42.9408,M,M,M,210.00,18.00,30.19,M,M,8.00,M,2200.00,M,M,M
BUF,2018-01-03 00:25,-78.7358,42.9408,M,M,M,210.00,16.00,30.20,M,M,8.00,M,2200.00,M,M,M
BUF,2018-01-03 00:30,-78.7358,42.9408,M,M,M,220.00,20.00,30.20,M,M,9.00,M,2200.00,M,M,M
BUF,2018-01-03 00:35,-78.7358,42.9408,M,M,M,210.00,17.00,30.19,M,M,9.00,M,1999.00,M,M,M
BUF,2018-01-03 00:40,-78.7358,42.9408,M,M,M,210.00,17.00,30.19,M,M,10.00,M,1999.00,M,M,M
BUF,2018-01-03 00:45,-78.7358,42.9408,M,M,M,210.00,18.00,30.18,M,M,10.00,M,1999.00,M,M,M
BUF,2018-01-03 00:50,-78.7358,42.9408,M,M,M,210.00,20.00,30.19,M,M,10.00,M,1999.00,M,M,M
BUF,2018-01-03 00:54,-78.7358,42.9408,15.10,6.10,66.96,210.00,17.00,30.19,1023.70,T,9.00,24.00,2000.00,M,M,M
BUF,2018-01-03 00:55,-78.7358,42.9408,M,M,M,210.00,17.00,30.19,M,M,9.00,M,1999.00,2600.00,M,M
BUF,2018-01-03 01:00,-78.7358,42.9408,M,M,M,220.00,19.00,30.19,M,M,8.00,M,1999.00,2600.00,M,M
BUF,2018-01-03 01:05,-78.7358,42.9408,M,M,M,210.00,16.00,30.19,M,M,9.00,M,1999.00,M,M,M
BUF,2018-01-03 01:10,-78.7358,42.9408,M,M,M,210.00,17.00,30.19,M,M,10.00,M,1999.00,M,M,M
BUF,2018-01-03 01:15,-78.7358,42.9408,M,M,M,210.00,15.00,30.19,M,M,10.00,M,2100.00,M,M,M
BUF,2018-01-03 01:20,-78.7358,42.9408,M,M,M,210.00,19.00,30.19,M,M,9.00,M,2100.00,M,M,M
BUF,2018-01-03 01:25,-78.7358,42.9408,M,M,M,210.00,15.00,30.19,M,M,8.00,M,2100.00,M,M,M
BUF,2018-01-03 01:30,-78.7358,42.9408,M,M,M,210.00,17.00,30.18,M,M,10.00,M,2100.00,M,M,M
BUF,2018-01-03 01:35,-78.7358,42.9408,M,M,M,M,M,30.18,M,M,9.00,M,2100.00,M,M,M
BUF,2018-01-03 01:40,-78.7358,42.9408,M,M,M,M,M,30.18,M,M,9.00,M,1900.00,M,M,M
BUF,2018-01-03 01:45,-78.7358,42.9408,M,M,M,M,M,30.18,M,M,9.00,M,1900.00,M,M,M
BUF,2018-01-03 01:50,-78.7358,42.9408,M,M,M,210.00,21.00,30.17,M,M,8.00,M,1900.00,M,M,M
BUF,2018-01-03 01:54,-78.7358,42.9408,15.10,5.00,63.68,210.00,20.00,30.17,1023.30,T,7.00,26.00,1900.00,M,M,-SN
BUF,2018-01-03 01:55,-78.7358,42.9408,M,M,M,210.00,18.00,30.17,M,M,6.00,M,1900.00,M,M,-SN
BUF,2018-01-03 02:00,-78.7358,42.9408,M,M,M,M,M,30.17,M,M,6.00,M,1900.00,M,M,-SN
BUF,2018-01-03 02:05,-78.7358,42.9408,M,M,M,210.00,17.00,30.17,M,M,6.00,M,1900.00,M,M,-SN
BUF,2018-01-03 02:10,-78.7358,42.9408,M,M,M,210.00,20.00,30.17,M,M,5.00,M,1900.00,M,M,-SN
BUF,2018-01-03 02:15,-78.7358,42.9408,M,M,M,M,M,30.17,M,M,6.00,M,1900.00,M,M,-SN
BUF,2018-01-03 02:20,-78.7358,42.9408,M,M,M,210.00,18.00,30.17,M,M,7.00,M,1900.00,M,M,-SN
BUF,2018-01-03 02:25,-78.7358,42.9408,M,M,M,210.00,17.00,30.17,M,M,8.00,M,1900.00,M,M,-SN
BUF,2018-01-03 02:30,-78.7358,42.9408,M,M,M,210.00,18.00,30.17,M,M,8.00,M,1900.00,M,M,-SN
BUF,2018-01-03 02:35,-78.7358,42.9408,M,M,M,M,M,30.17,M,M,8.00,M,1900.00,M,M,-SN
BUF,2018-01-03 02:40,-78.7358,42.9408,M,M,M,M,M,30.17,M,M,8.00,M,1900.00,M,M,-SN
BUF,2018-01-03 02:45,-78.7358,42.9408,M,M,M,M,M,30.16,M,M,7.00,M,1900.00,M,M,-SN
BUF,2018-01-03 02:50,-78.7358,42.9408,M,M,M,M,M,30.16,M,M,6.00,M,1900.00,M,M,-SN
BUF,2018-01-03 02:54,-78.7358,42.9408,14.00,5.00,66.82,210.00,23.00,30.16,1022.90,T,5.00,M,2000.00,M,M,-SN
BUF,2018-01-03 02:55,-78.7358,42.9408,M,M,M,M,M,30.16,M,M,5.00,M,1999.00,M,M,-SN
BUF,2018-01-03 03:00,-78.7358,42.9408,M,M,M,M,M,30.17,M,M,4.00,M,1999.00,M,M,-SN
BUF,2018-01-03 03:05,-78.7358,42.9408,M,M,M,M,M,30.17,M,M,5.00,M,1999.00,M,M,-SN
BUF,2018-01-03 03:10,-78.7358,42.9408,M,M,M,M,M,30.17,M,M,6.00,M,1999.00,M,M,-SN
BUF,2018-01-03 03:15,-78.7358,42.9408,M,M,M,M,M,30.17,M,M,6.00,M,1999.00,M,M,-SN
BUF,2018-01-03 03:20,-78.7358,42.9408,M,M,M,200.00,19.00,30.17,M,M,6.00,M,1999.00,M,M,-SN
BUF,2018-01-03 03:25,-78.7358,42.9408,M,M,M,200.00,18.00,30.17,M,M,7.00,M,2100.00,M,M,-SN
BUF,2018-01-03 03:30,-78.7358,42.9408,M,M,M,210.00,21.00,30.17,M,M,6.00,M,2100.00,M,M,-SN
BUF,2018-01-03 03:35,-78.7358,42.9408,M,M,M,M,M,30.16,M,M,4.00,M,2100.00,M,M,-SN
BUF,2018-01-03 03:40,-78.7358,42.9408,M,M,M,M,M,30.16,M,M,4.00,M,1999.00,M,M,-SN
BUF,2018-01-03 03:45,-78.7358,42.9408,M,M,M,M,M,30.17,M,M,4.00,M,1999.00,M,M,-SN
BUF,2018-01-03 03:50,-78.7358,42.9408,M,M,M,200.00,18.00,30.17,M,M,4.00,M,2100.00,M,M,-SN
BUF,2018-01-03 03:54,-78.7358,42.9408,14.00,3.90,63.53,210.00,21.00,30.17,1023.10,T,6.00,27.00,2100.00,M,M,-SN
BUF,2018-01-03 03:55,-78.7358,42.9408,M,M,M,M,M,30.17,M,M,6.00,M,2100.00,M,M,-SN
BUF,2018-01-03 04:00,-78.7358,42.9408,M,M,M,M,M,30.17,M,M,5.00,M,2100.00,M,M,-SN
BUF,2018-01-03 04:05,-78.7358,42.9408,M,M,M,210.00,20.00,30.17,M,M,5.00,M,2100.00,M,M,-SN
BUF,2018-01-03 04:10,-78.7358,42.9408,M,M,M,M,M,30.17,M,M,5.00,M,2100.00,M,M,-SN
BUF,2018-01-03 04:15,-78.7358,42.9408,M,M,M,M,M,30.17,M,M,6.00,M,2100.00,M,M,-SN
BUF,2018-01-03 04:20,-78.7358,42.9408,M,M,M,M,M,30.17,M,M,6.00,M,2100.00,M,M,-SN
BUF,2018-01-03 04:25,-78.7358,42.9408,M,M,M,210.00,19.00,30.17,M,M,6.00,M,2100.00,M,M,-SN
BUF,2018-01-03 04:30,-78.7358,42.9408,M,M,M,200.00,19.00,30.17,M,M,8.00,M,1999.00,M,M,-SN
BUF,2018-01-03 04:35,-78.7358,42.9408,M,M,M,M,M,30.17,M,M,7.00,M,1999.00,M,M,-SN
BUF,2018-01-03 04:40,-78.7358,42.9408,M,M,M,M,M,30.17,M,M,5.00,M,1999.00,M,M,-SN
BUF,2018-01-03 04:45,-78.7358,42.9408,M,M,M,200.00,20.00,30.17,M,M,6.00,M,1999.00,M,M,-SN
BUF,2018-01-03 04:50,-78.7358,42.9408,M,M,M,210.00,21.00,30.17,M,M,8.00,M,1999.00,M,M,-SN
BUF,2018-01-03 04:54,-78.7358,42.9408,12.90,3.00,63.96,210.00,20.00,30.17,1023.00,T,8.00,25.00,2000.00,M,M,-SN
BUF,2018-01-03 04:55,-78.7358,42.9408,M,M,M,M,M,30.17,M,M,8.00,M,1999.00,M,M,-SN
BUF,2018-01-03 05:00,-78.7358,42.9408,M,M,M,M,M,30.17,M,M,8.00,M,1999.00,M,M,-SN
BUF,2018-01-03 05:05,-78.7358,42.9408,M,M,M,200.00,19.00,30.16,M,M,9.00,M,1999.00,M,M,-SN
BUF,2018-01-03 05:10,-78.7358,42.9408,M,M,M,210.00,19.00,30.16,M,M,9.00,M,1999.00,M,M,-SN
BUF,2018-01-03 05:15,-78.7358,42.9408,M,M,M,210.00,18.00,30.16,M,M,9.00,M,1999.00,M,M,-SN
BUF,2018-01-03 05:20,-78.7358,42.9408,M,M,M,210.00,19.00,30.16,M,M,9.00,M,1999.00,M,M,-SN
BUF,2018-01-03 05:25,-78.7358,42.9408,M,M,M,210.00,17.00,30.15,M,M,9.00,M,1999.00,M,M,-SN
BUF,2018-01-03 05:30,-78.7358,42.9408,M,M,M,210.00,19.00,30.15,M,M,9.00,M,1999.00,M,M,-SN
BUF,2018-01-03 05:35,-78.7358,42.9408,M,M,M,M,M,30.15,M,M,9.00,M,1999.00,M,M,-SN
BUF,2018-01-03 05:40,-78.7358,42.9408,M,M,M,M,M,30.15,M,M,8.00,M,1999.00,M,M,-SN
BUF,2018-01-03 05:45,-78.7358,42.9408,M,M,M,M,M,30.15,M,M,7.00,M,1999.00,M,M,-SN
BUF,2018-01-03 05:50,-78.7358,42.9408,M,M,M,210.00,21.00,30.15,M,M,7.00,M,1999.00,M,M,-SN
BUF,2018-01-03 05:54,-78.7358,42.9408,12.00,1.90,63.25,220.00,21.00,30.15,1022.30,T,7.00,31.00,2100.00,M,M,-SN
BUF,2018-01-03 05:55,-78.7358,42.9408,M,M,M,M,M,30.15,M,M,7.00,M,2100.00,M,M,-SN
BUF,2018-01-03 06:00,-78.7358,42.9408,M,M,M,M,M,30.15,M,M,5.00,M,2100.00,M,M,-SN
BUF,2018-01-03 06:05,-78.7358,42.9408,M,M,M,M,M,30.15,M,M,5.00,M,2100.00,M,M,-SN
BUF,2018-01-03 06:10,-78.7358,42.9408,M,M,M,M,M,30.14,M,M,7.00,M,2100.00,M,M,-SN
BUF,2018-01-03 06:15,-78.7358,42.9408,M,M,M,210.00,19.00,30.14,M,M,7.00,M,1999.00,M,M,-SN
BUF,2018-01-03 06:20,-78.7358,42.9408,M,M,M,M,M,30.14,M,M,7.00,M,1999.00,M,M,-SN
BUF,2018-01-03 06:25,-78.7358,42.9408,M,M,M,210.00,20.00,30.14,M,M,6.00,M,1999.00,M,M,-SN
BUF,2018-01-03 06:30,-78.7358,42.9408,M,M,M,210.00,19.00,30.14,M,M,6.00,M,1999.00,M,M,-SN
BUF,2018-01-03 06:35,-78.7358,42.9408,M,M,M,210.00,19.00,30.14,M,M,7.00,M,1900.00,M,M,-SN
BUF,2018-01-03 06:40,-78.7358,42.9408,M,M,M,M,M,30.14,M,M,8.00,M,1900.00,M,M,-SN
BUF,2018-01-03 06:45,-78.7358,42.9408,M,M,M,M,M,30.14,M,M,7.00,M,1900.00,M,M,-SN
BUF,2018-01-03 06:50,-78.7358,42.9408,M,M,M,210.00,21.00,30.14,M,M,6.00,M,1900.00,M,M,-SN
BUF,2018-01-03 06:54,-78.7358,42.9408,10.90,1.90,66.41,210.00,21.00,30.14,1022.30,T,7.00,M,1900.00,M,M,-SN
BUF,2018-01-03 06:55,-78.7358,42.9408,M,M,M,M,M,30.14,M,M,7.00,M,1900.00,M,M,-SN
BUF,2018-01-03 07:00,-78.7358,42.9408,M,M,M,M,M,30.15,M,M,7.00,M,1900.00,M,M,-SN
BUF,2018-01-03 07:05,-78.7358,42.9408,M,M,M,M,M,30.15,M,M,8.00,M,1999.00,M,M,-SN
BUF,2018-01-03 07:10,-78.7358,42.9408,M,M,M,210.00,19.00,30.15,M,M,9.00,M,1999.00,M,M,-SN
BUF,2018-01-03 07:15,-78.7358,42.9408,M,M,M,210.00,18.00,30.15,M,M,10.00,M,1999.00,M,M,M
BUF,2018-01-03 07:20,-78.7358,42.9408,M,M,M,210.00,18.00,30.15,M,M,10.00,M,1999.00,M,M,M
BUF,2018-01-03 07:25,-78.7358,42.9408,M,M,M,M,M,30.15,M,M,10.00,M,1999.00,M,M,M
BUF,2018-01-03 07:30,-78.7358,42.9408,M,M,M,210.00,20.00,30.16,M,M,10.00,M,1999.00,M,M,M
BUF,2018-01-03 07:35,-78.7358,42.9408,M,M,M,M,M,30.16,M,M,10.00,M,1999.00,M,M,M
BUF,2018-01-03 07:40,-78.7358,42.9408,M,M,M,M,M,30.16,M,M,10.00,M,1999.00,M,M,M
BUF,2018-01-03 07:45,-78.7358,42.9408,M,M,M,M,M,30.15,M,M,10.00,M,1999.00,M,M,M
BUF,2018-01-03 07:50,-78.7358,42.9408,M,M,M,200.00,19.00,30.15,M,M,10.00,M,1999.00,M,M,M
BUF,2018-01-03 07:54,-78.7358,42.9408,10.90,0.00,60.77,200.00,20.00,30.15,1022.50,T,10.00,M,1900.00,M,M,M
BUF,2018-01-03 07:55,-78.7358,42.9408,M,M,M,M,M,30.15,M,M,10.00,M,1900.00,M,M,M
BUF,2018-01-03 08:00,-78.7358,42.9408,M,M,M,M,M,30.15,M,M,10.00,M,1900.00,M,M,M
BUF,2018-01-03 08:05,-78.7358,42.9408,M,M,M,210.00,17.00,30.15,M,M,10.00,M,1900.00,M,M,M
BUF,2018-01-03 08:10,-78.7358,42.9408,M,M,M,M,M,30.15,M,M,10.00,M,1900.00,M,M,M
BUF,2018-01-03 08:15,-78.7358,42.9408,M,M,M,M,M,30.15,M,M,10.00,M,1999.00,M,M,M
BUF,2018-01-03 08:20,-78.7358,42.9408,M,M,M,M,M,30.15,M,M,10.00,M,1999.00,M,M,M
BUF,2018-01-03 08:25,-78.7358,42.9408,M,M,M,M,M,30.15,M,M,10.00,M,1999.00,M,M,M
BUF,2018-01-03 08:30,-78.7358,42.9408,M,M,M,200.00,18.00,30.15,M,M,10.00,M,1999.00,M,M,M
BUF,2018-01-03 08:35,-78.7358,42.9408,M,M,M,M,M,30.15,M,M,10.00,M,1999.00,M,M,M
BUF,2018-01-03 08:40,-78.7358,42.9408,M,M,M,200.00,18.00,30.15,M,M,10.00,M,1999.00,M,M,M
BUF,2018-01-03 08:45,-78.7358,42.9408,M,M,M,M,M,30.14,M,M,9.00,M,2100.00,M,M,M
BUF,2018-01-03 08:50,-78.7358,42.9408,M,M,M,210.00,21.00,30.14,M,M,9.00,M,2100.00,M,M,M
BUF,2018-01-03 08:54,-78.7358,42.9408,10.00,-0.90,60.64,210.00,21.00,30.14,1022.10,0.00,10.00,27.00,2100.00,M,M,M
BUF,2018-01-03 08:55,-78.7358,42.9408,M,M,M,M,M,30.14,M,M,10.00,M,2100.00,M,M,M
BUF,2018-01-03 09:00,-78.7358,42.9408,M,M,M,M,M,30.13,M,M,9.00,M,2100.00,M,M,M
BUF,2018-01-03 09:05,-78.7358,42.9408,M,M,M,M,M,30.13,M,M,9.00,M,2100.00,M,M,M
BUF,2018-01-03 09:10,-78.7358,42.9408,M,M,M,M,M,30.13,M,M,8.00,M,2100.00,M,M,M
BUF,2018-01-03 09:15,-78.7358,42.9408,M,M,M,M,M,30.13,M,M,9.00,M,2100.00,M,M,M
BUF,2018-01-03 09:20,-78.7358,42.9408,M,M,M,M,M,30.13,M,M,9.00,M,2100.00,M,M,M
BUF,2018-01-03 09:25,-78.7358,42.9408,M,M,M,M,M,30.13,M,M,9.00,M,2100.00,M,M,M
BUF,2018-01-03 09:30,-78.7358,42.9408,M,M,M,200.00,21.00,30.13,M,M,10.00,M,2100.00,M,M,M
BUF,2018-01-03 09:35,-78.7358,42.9408,M,M,M,M,M,30.12,M,M,10.00,M,2100.00,M,M,M
BUF,2018-01-03 09:40,-78.7358,42.9408,M,M,M,M,M,30.12,M,M,10.00,M,2100.00,M,M,M
BUF,2018-01-03 09:45,-78.7358,42.9408,M,M,M,M,M,30.12,M,M,10.00,M,2100.00,M,M,M
BUF,2018-01-03 09:50,-78.7358,42.9408,M,M,M,200.00,20.00,30.12,M,M,10.00,M,2100.00,M,M,M
BUF,2018-01-03 09:54,-78.7358,42.9408,9.00,-2.00,60.21,210.00,20.00,30.12,1021.50,0.00,10.00,29.00,2100.00,M,M,M
BUF,2018-01-03 09:55,-78.7358,42.9408,M,M,M,M,M,30.12,M,M,10.00,M,2100.00,M,M,M
BUF,2018-01-03 10:00,-78.7358,42.9408,M,M,M,M,M,30.12,M,M,10.00,M,2100.00,M,M,M
BUF,2018-01-03 10:05,-78.7358,42.9408,M,M,M,M,M,30.12,M,M,10.00,M,2100.00,M,M,M
BUF,2018-01-03 10:10,-78.7358,42.9408,M,M,M,M,M,30.12,M,M,10.00,M,1999.00,M,M,M
BUF,2018-01-03 10:15,-78.7358,42.9408,M,M,M,M,M,30.12,M,M,10.00,M,1999.00,M,M,M
BUF,2018-01-03 10:20,-78.7358,42.9408,M,M,M,M,M,30.12,M,M,10.00,M,1999.00,M,M,M
BUF,2018-01-03 10:25,-78.7358,42.9408,M,M,M,M,M,30.12,M,M,10.00,M,2100.00,M,M,M
BUF,2018-01-03 10:30,-78.7358,42.9408,M,M,M,M,M,30.12,M,M,10.00,M,2100.00,M,M,M
BUF,2018-01-03 10:35,-78.7358,42.9408,M,M,M,M,M,30.12,M,M,10.00,M,2100.00,M,M,M
BUF,2018-01-03 10:40,-78.7358,42.9408,M,M,M,M,M,30.12,M,M,10.00,M,2100.00,M,M,M
BUF,2018-01-03 10:45,-78.7358,42.9408,M,M,M,M,M,30.12,M,M,10.00,M,2100.00,M,M,M
BUF,2018-01-03 10:50,-78.7358,42.9408,M,M,M,M,M,30.12,M,M,10.00,M,2100.00,M,M,M
BUF,2018-01-03 10:54,-78.7358,42.9408,8.10,-2.90,60.07,210.00,17.00,30.12,1021.60,0.00,10.00,26.00,2100.00,M,M,M
BUF,2018-01-03 10:55,-78.7358,42.9408,M,M,M,M,M,30.12,M,M,10.00,M,2100.00,M,M,M
BUF,2018-01-03 11:00,-78.7358,42.9408,M,M,M,M,M,30.12,M,M,10.00,M,2100.00,M,M,M
BUF,2018-01-03 11:05,-78.7358,42.9408,M,M,M,200.00,16.00,30.12,M,M,10.00,M,2100.00,M,M,M
BUF,2018-01-03 11:10,-78.7358,42.9408,M,M,M,200.00,17.00,30.12,M,M,10.00,M,2100.00,6500.00,M,M
BUF,2018-01-03 11:15,-78.7358,42.9408,M,M,M,M,M,30.12,M,M,10.00,M,2200.00,6500.00,M,M
BUF,2018-01-03 11:20,-78.7358,42.9408,M,M,M,200.00,16.00,30.12,M,M,10.00,M,2200.00,6500.00,M,M
BUF,2018-01-03 11:25,-78.7358,42.9408,M,M,M,200.00,16.00,30.12,M,M,10.00,M,2200.00,6500.00,M,M
BUF,2018-01-03 11:30,-78.7358,42.9408,M,M,M,200.00,17.00,30.12,M,M,10.00,M,2200.00,6500.00,M,M
BUF,2018-01-03 11:35,-78.7358,42.9408,M,M,M,200.00,17.00,30.12,M,M,10.00,M,2200.00,6500.00,M,M
BUF,2018-01-03 11:40,-78.7358,42.9408,M,M,M,M,M,30.12,M,M,10.00,M,2200.00,M,M,M
BUF,2018-01-03 11:45,-78.7358,42.9408,M,M,M,200.00,16.00,30.12,M,M,10.00,M,2200.00,M,M,M
BUF,2018-01-03 11:50,-78.7358,42.9408,M,M,M,M,M,30.12,M,M,10.00,M,2200.00,M,M,M
BUF,2018-01-03 11:54,-78.7358,42.9408,8.10,-2.90,60.07,200.00,15.00,30.12,1021.50,0.00,10.00,M,2200.00,M,M,M
BUF,2018-01-03 11:55,-78.7358,42.9408,M,M,M,M,M,30.12,M,M,10.00,M,2200.00,M,M,M
BUF,2018-01-03 12:00,-78.7358,42.9408,M,M,M,M,M,30.12,M,M,10.00,M,2200.00,M,M,M
BUF,2018-01-03 12:05,-78.7358,42.9408,M,M,M,M,M,30.12,M,M,10.00,M,2200.00,M,M,M
BUF,2018-01-03 12:10,-78.7358,42.9408,M,M,M,190.00,16.00,30.12,M,M,10.00,M,2200.00,M,M,M
BUF,2018-01-03 12:15,-78.7358,42.9408,M,M,M,190.00,15.00,30.12,M,M,10.00,M,2200.00,M,M,M
BUF,2018-01-03 12:20,-78.7358,42.9408,M,M,M,M,M,30.12,M,M,10.00,M,2200.00,M,M,M
BUF,2018-01-03 12:25,-78.7358,42.9408,M,M,M,190.00,16.00,30.12,M,M,10.00,M,2300.00,M,M,M
BUF,2018-01-03 12:30,-78.7358,42.9408,M,M,M,190.00,14.00,30.12,M,M,10.00,M,2300.00,M,M,M
BUF,2018-01-03 12:35,-78.7358,42.9408,M,M,M,190.00,14.00,30.12,M,M,10.00,M,2300.00,M,M,M
BUF,2018-01-03 12:40,-78.7358,42.9408,M,M,M,200.00,14.00,30.13,M,M,10.00,M,2300.00,M,M,M
BUF,2018-01-03 12:45,-78.7358,42.9408,M,M,M,190.00,15.00,30.13,M,M,10.00,M,2300.00,M,M,M
BUF,2018-01-03 12:50,-78.7358,42.9408,M,M,M,190.00,15.00,30.12,M,M,10.00,M,2300.00,M,M,M
BUF,2018-01-03 12:54,-78.7358,42.9408,8.10,-2.00,62.70,190.00,16.00,30.12,1021.50,0.00,10.00,M,2400.00,15000.00,25000.00,M
BUF,2018-01-03 12:55,-78.7358,42.9408,M,M,M,190.00,17.00,30.12,M,M,10.00,M,2400.00,M,M,M
BUF,2018-01-03 13:00,-78.7358,42.9408,M,M,M,190.00,15.00,30.12,M,M,10.00,M,2400.00,M,M,M
BUF,2018-01-03 13:05,-78.7358,42.9408,M,M,M,190.00,16.00,30.12,M,M,10.00,M,2400.00,M,M,M
BUF,2018-01-03 13:06,-78.7358,42.9408,8.10,-2.00,62.70,190.00,17.00,30.12,M,0.00,10.00,M,2400.00,15000.00,25000.00,M
BUF,2018-01-03 13:10,-78.7358,42.9408,M,M,M,190.00,17.00,30.11,M,M,10.00,M,2400.00,M,M,M
BUF,2018-01-03 13:15,-78.7358,42.9408,M,M,M,190.00,16.00,30.11,M,M,10.00,M,2400.00,M,M,M
BUF,2018-01-03 13:20,-78.7358,42.9408,M,M,M,190.00,16.00,30.11,M,M,10.00,M,2400.00,6500.00,M,M
BUF,2018-01-03 13:25,-78.7358,42.9408,M,M,M,190.00,17.00,30.11,M,M,10.00,M,2400.00,6500.00,M,M
BUF,2018-01-03 13:30,-78.7358,42.9408,M,M,M,190.00,18.00,30.11,M,M,10.00,M,2400.00,6500.00,M,M
BUF,2018-01-03 13:35,-78.7358,42.9408,M,M,M,200.00,16.00,30.11,M,M,10.00,M,2400.00,6500.00,M,M
BUF,2018-01-03 13:40,-78.7358,42.9408,M,M,M,200.00,15.00,30.11,M,M,10.00,M,2400.00,6500.00,M,M
BUF,2018-01-03 13:45,-78.7358,42.9408,M,M,M,190.00,15.00,30.11,M,M,10.00,M,2400.00,6500.00,M,M
BUF,2018-01-03 13:50,-78.7358,42.9408,M,M,M,M,M,30.11,M,M,10.00,M,6500.00,M,M,M
BUF,2018-01-03 13:54,-78.7358,42.9408,10.00,0.00,63.26,200.00,17.00,30.11,1021.10,0.00,10.00,M,2400.00,6500.00,25000.00,M
BUF,2018-01-03 13:55,-78.7358,42.9408,M,M,M,M,M,30.11,M,M,10.00,M,6500.00,M,M,M
BUF,2018-01-03 14:00,-78.7358,42.9408,M,M,M,M,M,30.11,M,M,10.00,M,6500.00,M,M,M
BUF,2018-01-03 14:05,-78.7358,42.9408,M,M,M,200.00,14.00,30.11,M,M,10.00,M,6500.00,M,M,M
BUF,2018-01-03 14:10,-78.7358,42.9408,M,M,M,M,M,30.11,M,M,10.00,M,6500.00,M,M,M
BUF,2018-01-03 14:15,-78.7358,42.9408,M,M,M,200.00,18.00,30.10,M,M,10.00,M,6500.00,M,M,M
BUF,2018-01-03 14:20,-78.7358,42.9408,M,M,M,M,M,30.10,M,M,10.00,M,6500.00,M,M,M
BUF,2018-01-03 14:25,-78.7358,42.9408,M,M,M,M,M,30.10,M,M,10.00,M,6500.00,M,M,M
BUF,2018-01-03 14:30,-78.7358,42.9408,M,M,M,M,M,30.10,M,M,10.00,M,7000.00,M,M,M
BUF,2018-01-03 14:35,-78.7358,42.9408,M,M,M,210.00,16.00,30.10,M,M,10.00,M,7000.00,M,M,M
BUF,2018-01-03 14:40,-78.7358,42.9408,M,M,M,M,M,30.10,M,M,10.00,M,7000.00,M,M,M
BUF,2018-01-03 14:45,-78.7358,42.9408,M,M,M,200.00,18.00,30.10,M,M,10.00,M,7000.00,M,M,M
BUF,2018-01-03 14:50,-78.7358,42.9408,M,M,M,200.00,18.00,30.10,M,M,10.00,M,7000.00,M,M,M
BUF,2018-01-03 14:54,-78.7358,42.9408,12.90,1.00,58.29,210.00,17.00,30.10,1020.80,0.00,10.00,24.00,2600.00,6500.00,25000.00,M
BUF,2018-01-03 14:55,-78.7358,42.9408,M,M,M,200.00,16.00,30.10,M,M,10.00,M,7000.00,M,M,M
BUF,2018-01-03 15:00,-78.7358,42.9408,M,M,M,M,M,30.10,M,M,10.00,M,7000.00,M,M,M
BUF,2018-01-03 15:05,-78.7358,42.9408,M,M,M,M,M,30.10,M,M,10.00,M,7500.00,M,M,M
BUF,2018-01-03 15:10,-78.7358,42.9408,M,M,M,M,M,30.10,M,M,10.00,M,7500.00,M,M,M
BUF,2018-01-03 15:15,-78.7358,42.9408,M,M,M,M,M,30.09,M,M,10.00,M,7999.00,M,M,M
BUF,2018-01-03 15:20,-78.7358,42.9408,M,M,M,200.00,15.00,30.09,M,M,10.00,M,7999.00,M,M,M
BUF,2018-01-03 15:25,-78.7358,42.9408,M,M,M,M,M,30.09,M,M,10.00,M,7999.00,M,M,M
BUF,2018-01-03 15:30,-78.7358,42.9408,M,M,M,200.00,21.00,30.08,M,M,10.00,M,7999.00,M,M,-SN
BUF,2018-01-03 15:35,-78.7358,42.9408,M,M,M,210.00,18.00,30.08,M,M,10.00,M,7999.00,M,M,M
BUF,2018-01-03 15:40,-78.7358,42.9408,M,M,M,M,M,30.08,M,M,10.00,M,7999.00,M,M,M
BUF,2018-01-03 15:45,-78.7358,42.9408,M,M,M,200.00,17.00,30.08,M,M,10.00,M,7999.00,M,M,M
BUF,2018-01-03 15:50,-78.7358,42.9408,M,M,M,200.00,16.00,30.08,M,M,10.00,M,7999.00,M,M,M
BUF,2018-01-03 15:54,-78.7358,42.9408,14.00,1.00,55.54,210.00,18.00,30.07,1020.00,0.00,10.00,23.00,2800.00,7500.00,26000.00,M
BUF,2018-01-03 15:55,-78.7358,42.9408,M,M,M,200.00,16.00,30.07,M,M,10.00,M,7999.00,M,M,M
BUF,2018-01-03 16:00,-78.7358,42.9408,M,M,M,210.00,17.00,30.07,M,M,10.00,M,8500.00,M,M,M
BUF,2018-01-03 16:05,-78.7358,42.9408,M,M,M,210.00,16.00,30.07,M,M,10.00,M,8500.00,M,M,M
BUF,2018-01-03 16:10,-78.7358,42.9408,M,M,M,210.00,17.00,30.06,M,M,10.00,M,8500.00,M,M,M
BUF,2018-01-03 16:15,-78.7358,42.9408,M,M,M,M,M,30.06,M,M,10.00,M,8500.00,M,M,M
BUF,2018-01-03 16:20,-78.7358,42.9408,M,M,M,210.00,15.00,30.06,M,M,10.00,M,8500.00,M,M,M
BUF,2018-01-03 16:25,-78.7358,42.9408,M,M,M,M,M,30.06,M,M,10.00,M,8500.00,M,M,M
BUF,2018-01-03 16:30,-78.7358,42.9408,M,M,M,M,M,30.05,M,M,10.00,M,9000.00,M,M,M
BUF,2018-01-03 16:35,-78.7358,42.9408,M,M,M,M,M,30.05,M,M,10.00,M,9000.00,M,M,M
BUF,2018-01-03 16:40,-78.7358,42.9408,M,M,M,M,M,30.04,M,M,10.00,M,9000.00,M,M,M
BUF,2018-01-03 16:45,-78.7358,42.9408,M,M,M,210.00,17.00,30.04,M,M,10.00,M,9000.00,M,M,M
BUF,2018-01-03 16:50,-78.7358,42.9408,M,M,M,210.00,18.00,30.04,M,M,10.00,M,9000.00,M,M,M
BUF,2018-01-03 16:54,-78.7358,42.9408,16.00,1.00,50.90,210.00,20.00,30.04,1018.60,0.00,10.00,25.00,3100.00,8500.00,14000.00,M
BUF,2018-01-03 16:55,-78.7358,42.9408,M,M,M,210.00,19.00,30.04,M,M,10.00,M,M,M,M,M
BUF,2018-01-03 17:00,-78.7358,42.9408,M,M,M,M,M,30.03,M,M,10.00,M,M,M,M,M
BUF,2018-01-03 17:05,-78.7358,42.9408,M,M,M,210.00,18.00,30.03,M,M,10.00,M,M,M,M,M
BUF,2018-01-03 17:10,-78.7358,42.9408,M,M,M,200.00,19.00,30.03,M,M,10.00,M,M,M,M,M
BUF,2018-01-03 17:15,-78.7358,42.9408,M,M,M,200.00,18.00,30.03,M,M,10.00,M,M,M,M,M
BUF,2018-01-03 17:20,-78.7358,42.9408,M,M,M,210.00,16.00,30.02,M,M,10.00,M,M,M,M,M
BUF,2018-01-03 17:25,-78.7358,42.9408,M,M,M,M,M,30.02,M,M,10.00,M,M,M,M,M
BUF,2018-01-03 17:30,-78.7358,42.9408,M,M,M,200.00,18.00,30.01,M,M,10.00,M,M,M,M,M
BUF,2018-01-03 17:35,-78.7358,42.9408,M,M,M,M,M,30.01,M,M,10.00,M,M,M,M,M
BUF,2018-01-03 17:40,-78.7358,42.9408,M,M,M,M,M,30.01,M,M,10.00,M,M,M,M,M
BUF,2018-01-03 17:45,-78.7358,42.9408,M,M,M,210.00,17.00,30.01,M,M,10.00,M,M,M,M,-SN
BUF,2018-01-03 17:50,-78.7358,42.9408,M,M,M,200.00,16.00,30.00,M,M,10.00,M,3300.00,8500.00,M,M
BUF,2018-01-03 17:54,-78.7358,42.9408,18.00,1.90,48.68,200.00,17.00,30.00,1017.30,0.00,10.00,M,3300.00,8500.00,15000.00,M
BUF,2018-01-03 17:55,-78.7358,42.9408,M,M,M,M,M,30.00,M,M,10.00,M,M,M,M,M
BUF,2018-01-03 18:00,-78.7358,42.9408,M,M,M,200.00,15.00,30.00,M,M,10.00,M,M,M,M,M
BUF,2018-01-03 18:05,-78.7358,42.9408,M,M,M,210.00,15.00,29.99,M,M,10.00,20.00,M,M,M,M
BUF,2018-01-03 18:10,-78.7358,42.9408,M,M,M,210.00,13.00,29.99,M,M,10.00,M,M,M,M,M
BUF,2018-01-03 18:15,-78.7358,42.9408,M,M,M,210.00,17.00,29.99,M,M,10.00,M,9000.00,M,M,M
BUF,2018-01-03 18:20,-78.7358,42.9408,M,M,M,190.00,16.00,29.99,M,M,10.00,M,9000.00,M,M,M
BUF,2018-01-03 18:25,-78.7358,42.9408,M,M,M,210.00,14.00,29.99,M,M,10.00,M,5000.00,7000.00,8500.00,M
BUF,2018-01-03 18:30,-78.7358,42.9408,M,M,M,220.00,13.00,29.99,M,M,10.00,M,5000.00,6000.00,7000.00,M
BUF,2018-01-03 18:35,-78.7358,42.9408,M,M,M,210.00,16.00,29.99,M,M,10.00,M,6000.00,7000.00,9000.00,M
BUF,2018-01-03 18:40,-78.7358,42.9408,M,M,M,210.00,15.00,29.98,M,M,10.00,M,6000.00,7000.00,9000.00,M
BUF,2018-01-03 18:45,-78.7358,42.9408,M,M,M,210.00,14.00,29.98,M,M,10.00,M,5500.00,7000.00,M,M
BUF,2018-01-03 18:50,-78.7358,42.9408,M,M,M,210.00,14.00,29.98,M,M,10.00,M,6000.00,M,M,M
BUF,2018-01-03 18:54,-78.7358,42.9408,19.00,3.00,49.07,210.00,14.00,29.98,1016.60,0.00,10.00,M,5500.00,7500.00,15000.00,M
BUF,2018-01-03 18:55,-78.7358,42.9408,M,M,M,210.00,15.00,29.98,M,M,10.00,M,5500.00,7000.00,M,M
BUF,2018-01-03 19:00,-78.7358,42.9408,M,M,M,210.00,15.00,29.98,M,M,10.00,M,5000.00,M,M,M
BUF,2018-01-03 19:05,-78.7358,42.9408,M,M,M,200.00,13.00,29.97,M,M,10.00,M,5500.00,M,M,M
BUF,2018-01-03 19:10,-78.7358,42.9408,M,M,M,210.00,11.00,29.97,M,M,10.00,M,5500.00,M,M,M
BUF,2018-01-03 19:15,-78.7358,42.9408,M,M,M,200.00,13.00,29.97,M,M,10.00,M,5500.00,M,M,M
BUF,2018-01-03 19:20,-78.7358,42.9408,M,M,M,200.00,12.00,29.97,M,M,10.00,M,5000.00,M,M,M
BUF,2018-01-03 19:25,-78.7358,42.9408,M,M,M,200.00,13.00,29.96,M,M,10.00,M,5000.00,M,M,M
BUF,2018-01-03 19:30,-78.7358,42.9408,M,M,M,210.00,14.00,29.96,M,M,10.00,M,5000.00,M,M,M
BUF,2018-01-03 19:35,-78.7358,42.9408,M,M,M,210.00,10.00,29.96,M,M,10.00,M,5000.00,M,M,M
BUF,2018-01-03 19:40,-78.7358,42.9408,M,M,M,210.00,13.00,29.96,M,M,10.00,M,5000.00,M,M,M
BUF,2018-01-03 19:45,-78.7358,42.9408,M,M,M,230.00,13.00,29.96,M,M,10.00,18.00,5000.00,6000.00,M,M
BUF,2018-01-03 19:50,-78.7358,42.9408,M,M,M,230.00,15.00,29.96,M,M,10.00,20.00,4800.00,6000.00,M,M
BUF,2018-01-03 19:54,-78.7358,42.9408,21.90,3.90,45.22,220.00,18.00,29.96,1016.00,0.00,10.00,23.00,5500.00,7500.00,15000.00,M
BUF,2018-01-03 19:55,-78.7358,42.9408,M,M,M,230.00,18.00,29.96,M,M,10.00,M,5000.00,6000.00,M,M
BUF,2018-01-03 20:00,-78.7358,42.9408,M,M,M,230.00,15.00,29.96,M,M,10.00,M,4800.00,6000.00,M,-SN
BUF,2018-01-03 20:05,-78.7358,42.9408,M,M,M,230.00,13.00,29.96,M,M,9.00,M,5000.00,6000.00,M,M
BUF,2018-01-03 20:10,-78.7358,42.9408,M,M,M,230.00,17.00,29.96,M,M,10.00,M,6000.00,M,M,M
BUF,2018-01-03 20:15,-78.7358,42.9408,M,M,M,230.00,15.00,29.95,M,M,10.00,M,5000.00,6000.00,M,M
BUF,2018-01-03 20:20,-78.7358,42.9408,M,M,M,240.00,15.00,29.95,M,M,10.00,M,4500.00,5500.00,M,M
BUF,2018-01-03 20:25,-78.7358,42.9408,M,M,M,230.00,14.00,29.95,M,M,10.00,M,4500.00,6000.00,M,M
BUF,2018-01-03 20:30,-78.7358,42.9408,M,M,M,240.00,13.00,29.95,M,M,10.00,M,5000.00,6000.00,M,M
BUF,2018-01-03 20:35,-78.7358,42.9408,M,M,M,230.00,13.00,29.95,M,M,10.00,M,4700.00,6000.00,M,M
BUF,2018-01-03 20:40,-78.7358,42.9408,M,M,M,220.00,13.00,29.95,M,M,10.00,M,4900.00,M,M,M
BUF,2018-01-03 20:45,-78.7358,42.9408,M,M,M,230.00,12.00,29.95,M,M,10.00,M,5000.00,7000.00,M,M
BUF,2018-01-03 20:50,-78.7358,42.9408,M,M,M,230.00,13.00,29.95,M,M,10.00,M,5000.00,7000.00,M,M
BUF,2018-01-03 20:54,-78.7358,42.9408,21.90,5.00,47.56,240.00,15.00,29.95,1015.60,0.00,10.00,24.00,5000.00,7000.00,14000.00,M
BUF,2018-01-03 20:55,-78.7358,42.9408,M,M,M,230.00,14.00,29.95,M,M,10.00,19.00,5000.00,M,M,M
BUF,2018-01-03 21:00,-78.7358,42.9408,M,M,M,230.00,15.00,29.95,M,M,10.00,20.00,5000.00,M,M,M
BUF,2018-01-03 21:05,-78.7358,42.9408,M,M,M,M,M,29.95,M,M,10.00,M,5000.00,M,M,M
BUF,2018-01-03 21:10,-78.7358,42.9408,M,M,M,230.00,12.00,29.95,M,M,10.00,M,5000.00,M,M,M
BUF,2018-01-03 21:15,-78.7358,42.9408,M,M,M,220.00,10.00,29.95,M,M,10.00,15.00,4800.00,M,M,M
BUF,2018-01-03 21:20,-78.7358,42.9408,M,M,M,220.00,14.00,29.95,M,M,10.00,M,4800.00,5500.00,M,M
BUF,2018-01-03 21:25,-78.7358,42.9408,M,M,M,220.00,13.00,29.95,M,M,10.00,M,4800.00,5500.00,M,M
BUF,2018-01-03 21:30,-78.7358,42.9408,M,M,M,M,M,29.95,M,M,10.00,M,4700.00,5500.00,M,M
BUF,2018-01-03 21:35,-78.7358,42.9408,M,M,M,230.00,12.00,29.95,M,M,10.00,M,4700.00,5500.00,M,M
BUF,2018-01-03 21:40,-78.7358,42.9408,M,M,M,230.00,15.00,29.95,M,M,10.00,M,4500.00,5500.00,M,M
BUF,2018-01-03 21:45,-78.7358,42.9408,M,M,M,220.00,12.00,29.95,M,M,10.00,M,4500.00,M,M,M
BUF,2018-01-03 21:50,-78.7358,42.9408,M,M,M,220.00,13.00,29.95,M,M,10.00,M,4500.00,7999.00,M,M
BUF,2018-01-03 21:54,-78.7358,42.9408,21.00,7.00,54.12,230.00,12.00,29.95,1015.80,0.00,10.00,M,4500.00,8000.00,28000.00,M
BUF,2018-01-03 21:55,-78.7358,42.9408,M,M,M,220.00,10.00,29.95,M,M,10.00,M,4700.00,M,M,M
BUF,2018-01-03 22:00,-78.7358,42.9408,M,M,M,220.00,14.00,29.96,M,M,10.00,M,4700.00,M,M,M
BUF,2018-01-03 22:05,-78.7358,42.9408,M,M,M,220.00,13.00,29.96,M,M,10.00,M,4500.00,M,M,M
BUF,2018-01-03 22:10,-78.7358,42.9408,M,M,M,220.00,11.00,29.96,M,M,10.00,18.00,4500.00,M,M,M
BUF,2018-01-03 22:15,-78.7358,42.9408,M,M,M,220.00,11.00,29.96,M,M,10.00,M,4600.00,M,M,M
BUF,2018-01-03 22:20,-78.7358,42.9408,M,M,M,220.00,13.00,29.96,M,M,10.00,M,4600.00,M,M,M
BUF,2018-01-03 22:25,-78.7358,42.9408,M,M,M,220.00,13.00,29.96,M,M,10.00,M,4600.00,M,M,M
BUF,2018-01-03 22:30,-78.7358,42.9408,M,M,M,220.00,14.00,29.97,M,M,10.00,M,4500.00,M,M,M
BUF,2018-01-03 22:35,-78.7358,42.9408,M,M,M,210.00,12.00,29.97,M,M,10.00,M,4500.00,M,M,M
BUF,2018-01-03 22:40,-78.7358,42.9408,M,M,M,210.00,14.00,29.97,M,M,10.00,M,4500.00,M,M,M
BUF,2018-01-03 22:45,-78.7358,42.9408,M,M,M,M,M,29.97,M,M,10.00,M,4700.00,7000.00,M,M
BUF,2018-01-03 22:50,-78.7358,42.9408,M,M,M,210.00,11.00,29.97,M,M,10.00,M,4900.00,7000.00,M,M
BUF,2018-01-03 22:54,-78.7358,42.9408,21.90,8.10,54.75,220.00,14.00,29.97,1016.30,0.00,10.00,21.00,4900.00,7000.00,M,M
BUF,2018-01-03 22:55,-78.7358,42.9408,M,M,M,220.00,15.00,29.97,M,M,10.00,M,5500.00,7000.00,M,M
BUF,2018-01-03 23:00,-78.7358,42.9408,M,M,M,210.00,12.00,29.97,M,M,10.00,M,5500.00,7000.00,M,M
BUF,2018-01-03 23:05,-78.7358,42.9408,M,M,M,210.00,15.00,29.97,M,M,10.00,M,6500.00,M,M,M
BUF,2018-01-03 23:10,-78.7358,42.9408,M,M,M,220.00,11.00,29.98,M,M,10.00,M,5500.00,7000.00,M,M
BUF,2018-01-03 23:15,-78.7358,42.9408,M,M,M,M,M,29.98,M,M,10.00,M,5000.00,7000.00,M,-SN
BUF,2018-01-03 23:20,-78.7358,42.9408,M,M,M,M,M,29.98,M,M,9.00,M,4800.00,7000.00,M,-SN
BUF,2018-01-03 23:25,-78.7358,42.9408,M,M,M,220.00,14.00,29.98,M,M,9.00,M,4800.00,7000.00,M,M
BUF,2018-01-03 23:30,-78.7358,42.9408,M,M,M,220.00,12.00,29.98,M,M,9.00,M,5000.00,M,M,M
BUF,2018-01-03 23:35,-78.7358,42.9408,M,M,M,230.00,12.00,29.98,M,M,10.00,M,5000.00,M,M,-SN
BUF,2018-01-03 23:40,-78.7358,42.9408,M,M,M,230.00,14.00,29.98,M,M,9.00,M,5000.00,M,M,-SN
BUF,2018-01-03 23:45,-78.7358,42.9408,M,M,M,230.00,13.00,29.98,M,M,9.00,18.00,5000.00,M,M,-SN
BUF,2018-01-03 23:50,-78.7358,42.9408,M,M,M,230.00,19.00,29.98,M,M,9.00,M,5500.00,M,M,M
BUF,2018-01-03 23:54,-78.7358,42.9408,23.00,8.10,52.27,220.00,19.00,29.98,1016.50,T,9.00,26.00,5500.00,M,M,-SN
BUF,2018-01-03 23:55,-78.7358,42.9408,M,M,M,M,M,29.98,M,M,9.00,M,5500.00,M,M,-SN
DKK,2018-01-01 00:00,-79.2720,42.4933,M,M,M,M,M,30.40,M,M,10.00,M,2800.00,3600.00,5000.00,M
DKK,2018-01-01 00:05,-79.2720,42.4933,M,M,M,330.00,9.00,30.40,M,M,10.00,M,2800.00,3399.00,5000.00,M
DKK,2018-01-01 00:10,-79.2720,42.4933,M,M,M,330.00,9.00,30.40,M,M,10.00,M,2800.00,3399.00,5000.00,M
DKK,2018-01-01 00:13,-79.2720,42.4933,10.90,1.90,66.41,330.00,9.00,30.40,M,0.00,10.00,M,2600.00,3800.00,5000.00,M
DKK,2018-01-01 00:15,-79.2720,42.4933,M,M,M,330.00,9.00,30.40,M,M,10.00,M,2600.00,3200.00,5000.00,M
DKK,2018-01-01 00:20,-79.2720,42.4933,M,M,M,320.00,9.00,30.40,M,M,10.00,M,2600.00,3399.00,5000.00,M
DKK,2018-01-01 00:25,-79.2720,42.4933,M,M,M,320.00,11.00,30.40,M,M,10.00,M,2700.00,3399.00,4900.00,M
DKK,2018-01-01 00:28,-79.2720,42.4933,10.90,1.90,66.41,320.00,9.00,30.40,M,0.00,10.00,M,2900.00,4300.00,4900.00,M
DKK,2018-01-01 00:30,-79.2720,42.4933,M,M,M,320.00,7.00,30.40,M,M,10.00,M,2900.00,3399.00,4900.00,M
DKK,2018-01-01 00:35,-79.2720,42.4933,M,M,M,320.00,8.00,30.40,M,M,10.00,M,2900.00,3399.00,4700.00,M
DKK,2018-01-01 00:40,-79.2720,42.4933,M,M,M,330.00,10.00,30.40,M,M,10.00,15.00,2800.00,3600.00,4700.00,M
DKK,2018-01-01 00:45,-79.2720,42.4933,M,M,M,320.00,11.00,30.40,M,M,10.00,M,2800.00,3600.00,M,M
DKK,2018-01-01 00:50,-79.2720,42.4933,M,M,M,330.00,10.00,30.40,M,M,10.00,M,3300.00,M,M,M
DKK,2018-01-01 00:53,-79.2720,42.4933,10.90,1.90,66.41,330.00,9.00,30.40,1031.10,0.00,10.00,M,3000.00,3500.00,M,M
DKK,2018-01-01 00:55,-79.2720,42.4933,M,M,M,310.00,10.00,30.40,M,M,10.00,M,3000.00,3500.00,M,M
DKK,2018-01-01 01:00,-79.2720,42.4933,M,M,M,320.00,11.00,30.40,M,M,10.00,M,2700.00,3500.00,M,M
DKK,2018-01-01 01:05,-79.2720,42.4933,M,M,M,330.00,8.00,30.40,M,M,10.00,M,2900.00,3500.00,M,M
DKK,2018-01-01 01:07,-79.2720,42.4933,10.90,1.90,66.41,330.00,9.00,30.40,M,0.00,10.00,M,2900.00,3500.00,M,M
DKK,2018-01-01 01:10,-79.2720,42.4933,M,M,M,320.00,9.00,30.40,M,M,10.00,M,2900.00,3600.00,M,M
DKK,2018-01-01 01:15,-79.2720,42.4933,M,M,M,320.00,9.00,30.40,M,M,10.00,14.00,2900.00,3600.00,M,M
DKK,2018-01-01 01:20,-79.2720,42.4933,M,M,M,320.00,9.00,30.40,M,M,10.00,14.00,2900.00,3500.00,M,M
DKK,2018-01-01 01:25,-79.2720,42.4933,M,M,M,320.00,12.00,30.40,M,M,10.00,M,3000.00,3600.00,M,M
DKK,2018-01-01 01:29,-79.2720,42.4933,10.90,1.00,63.69,320.00,6.00,30.40,M,0.00,10.00,M,3000.00,3600.00,M,M
DKK,2018-01-01 01:30,-79.2720,42.4933,M,M,M,320.00,6.00,30.40,M,M,10.00,M,3200.00,M,M,M
DKK,2018-01-01 01:35,-79.2720,42.4933,M,M,M,330.00,10.00,30.40,M,M,10.00,M,2700.00,3300.00,M,M
DKK,2018-01-01 01:40,-79.2720,42.4933,M,M,M,330.00,8.00,30.40,M,M,10.00,M,3200.00,M,M,M
DKK,2018-01-01 01:45,-79.2720,42.4933,M,M,M,330.00,11.00,30.40,M,M,10.00,M,3200.00,M,M,M
DKK,2018-01-01 01:50,-79.2720,42.4933,M,M,M,330.00,12.00,30.40,M,M,10.00,M,3200.00,M,M,M
DKK,2018-01-01 01:53,-79.2720,42.4933,10.90,1.00,63.69,320.00,12.00,30.40,1031.00,0.00,10.00,M,3200.00,M,M,M
DKK,2018-01-01 01:55,-79.2720,42.4933,M,M,M,330.00,10.00,30.40,M,M,10.00,M,3200.00,M,M,M
DKK,2018-01-01 02:00,-79.2720,42.4933,M,M,M,310.00,10.00,30.40,M,M,10.00,M,3200.00,3999.00,M,M
DKK,2018-01-01 02:05,-79.2720,42.4933,M,M,M,310.00,10.00,30.40,M,M,10.00,M,2900.00,3600.00,M,M
DKK,2018-01-01 02:10,-79.2720,42.4933,M,M,M,320.00,10.00,30.40,M,M,10.00,M,3200.00,M,M,M
DKK,2018-01-01 02:15,-79.2720,42.4933,M,M,M,320.00,12.00,30.40,M,M,10.00,M,3200.00,M,M,M
DKK,2018-01-01 02:20,-79.2720,42.4933,M,M,M,320.00,11.00,30.40,M,M,10.00,M,3200.00,M,M,M
DKK,2018-01-01 02:25,-79.2720,42.4933,M,M,M,320.00,10.00,30.40,M,M,10.00,M,3000.00,3800.00,M,M
DKK,2018-01-01 02:30,-79.2720,42.4933,M,M,M,330.00,9.00,30.40,M,M,10.00,M,2700.00,3300.00,4100.00,M
DKK,2018-01-01 02:35,-79.2720,42.4933,M,M,M,320.00,9.00,30.40,M,M,10.00,M,2900.00,3700.00,M,M
DKK,2018-01-01 02:37,-79.2720,42.4933,10.90,1.90,66.41,330.00,11.00,30.40,M,0.00,10.00,16.00,2900.00,3700.00,M,M
DKK,2018-01-01 02:40,-79.2720,42.4933,M,M,M,330.00,12.00,30.40,M,M,10.00,M,2900.00,3700.00,M,M
DKK,2018-01-01 02:45,-79.2720,42.4933,M,M,M,320.00,9.00,30.40,M,M,10.00,M,2900.00,3700.00,M,M
DKK,2018-01-01 02:50,-79.2720,42.4933,M,M,M,330.00,10.00,30.40,M,M,10.00,M,2900.00,3600.00,M,M
DKK,2018-01-01 02:53,-79.2720,42.4933,10.90,1.90,66.41,320.00,10.00,30.40,1031.10,0.00,10.00,M,2900.00,3600.00,M,M
DKK,2018-01-01 02:55,-79.2720,42.4933,M,M,M,310.00,8.00,30.40,M,M,10.00,M,2900.00,3600.00,M,M
DKK,2018-01-01 03:00,-79.2720,42.4933,M,M,M,310.00,8.00,30.40,M,M,10.00,M,2700.00,3300.00,M,M
DKK,2018-01-01 03:05,-79.2720,42.4933,M,M,M,310.00,8.00,30.40,M,M,10.00,M,2700.00,3700.00,M,M
DKK,2018-01-01 03:10,-79.2720,42.4933,M,M,M,310.00,10.00,30.40,M,M,10.00,M,2900.00,3700.00,M,M
DKK,2018-01-01 03:15,-79.2720,42.4933,M,M,M,310.00,7.00,30.40,M,M,10.00,M,2900.00,3500.00,M,M
DKK,2018-01-01 03:20,-79.2720,42.4933,M,M,M,320.00,9.00,30.40,M,M,10.00,M,2900.00,3500.00,M,M
DKK,2018-01-01 03:25,-79.2720,42.4933,M,M,M,330.00,12.00,30.40,M,M,10.00,M,2900.00,3500.00,M,M
DKK,2018-01-01 03:30,-79.2720,42.4933,M,M,M,320.00,13.00,30.41,M,M,10.00,18.00,2900.00,3600.00,M,M
DKK,2018-01-01 03:35,-79.2720,42.4933,M,M,M,330.00,13.00,30.40,M,M,10.00,M,3000.00,3600.00,M,M
DKK,2018-01-01 03:40,-79.2720,42.4933,M,M,M,340.00,11.00,30.41,M,M,10.00,M,3000.00,3600.00,M,M
DKK,2018-01-01 03:45,-79.2720,42.4933,M,M,M,320.00,10.00,30.41,M,M,10.00,M,3000.00,3600.00,M,M
DKK,2018-01-01 03:50,-79.2720,42.4933,M,M,M,320.00,9.00,30.40,M,M,10.00,M,3000.00,3600.00,M,M
DKK,2018-01-01 03:53,-79.2720,42.4933,10.90,1.00,63.69,330.00,8.00,30.41,1031.30,0.00,10.00,M,3000.00,3600.00,M,M
DKK,2018-01-01 03:55,-79.2720,42.4933,M,M,M,320.00,9.00,30.41,M,M,10.00,M,3000.00,3600.00,M,M
DKK,2018-01-01 04:00,-79.2720,42.4933,M,M,M,330.00,8.00,30.41,M,M,10.00,M,3000.00,3700.00,M,M
DKK,2018-01-01 04:05,-79.2720,42.4933,M,M,M,320.00,8.00,30.41,M,M,10.00,M,3000.00,M,M,M
DKK,2018-01-01 04:10,-79.2720,42.4933,M,M,M,330.00,11.00,30.41,M,M,10.00,M,3000.00,M,M,M
DKK,2018-01-01 04:15,-79.2720,42.4933,M,M,M,320.00,13.00,30.41,M,M,10.00,M,3000.00,M,M,M
DKK,2018-01-01 04:20,-79.2720,42.4933,M,M,M,330.00,10.00,30.41,M,M,10.00,M,3000.00,M,M,M
DKK,2018-01-01 04:25,-79.2720,42.4933,M,M,M,330.00,9.00,30.41,M,M,10.00,M,3000.00,M,M,M
DKK,2018-01-01 04:30,-79.2720,42.4933,M,M,M,330.00,11.00,30.41,M,M,10.00,M,3100.00,M,M,M
DKK,2018-01-01 04:35,-79.2720,42.4933,M,M,M,330.00,11.00,30.41,M,M,10.00,M,3100.00,3600.00,M,M
DKK,2018-01-01 04:40,-79.2720,42.4933,M,M,M,330.00,9.00,30.41,M,M,10.00,M,3300.00,M,M,M
DKK,2018-01-01 04:45,-79.2720,42.4933,M,M,M,340.00,11.00,30.41,M,M,10.00,M,3100.00,M,M,M
DKK,2018-01-01 04:50,-79.2720,42.4933,M,M,M,330.00,10.00,30.41,M,M,10.00,M,3200.00,3800.00,M,M
DKK,2018-01-01 04:53,-79.2720,42.4933,10.90,1.00,63.69,340.00,11.00,30.41,1031.40,0.00,10.00,M,3000.00,3600.00,M,M
DKK,2018-01-01 04:55,-79.2720,42.4933,M,M,M,330.00,10.00,30.41,M,M,10.00,M,3000.00,3800.00,M,M
DKK,2018-01-01 05:00,-79.2720,42.4933,M,M,M,330.00,13.00,30.41,M,M,10.00,M,3000.00,3600.00,M,M
DKK,2018-01-01 05:05,-79.2720,42.4933,M,M,M,340.00,10.00,30.41,M,M,10.00,M,3000.00,3700.00,M,M
DKK,2018-01-01 05:10,-79.2720,42.4933,M,M,M,330.00,10.00,30.41,M,M,10.00,M,2900.00,3600.00,M,M
DKK,2018-01-01 05:15,-79.2720,42.4933,M,M,M,340.00,9.00,30.41,M,M,10.00,M,2900.00,3600.00,M,M
DKK,2018-01-01 05:16,-79.2720,42.4933,10.00,1.00,66.29,330.00,8.00,30.41,M,0.00,10.00,M,2900.00,3600.00,M,M
DKK,2018-01-01 05:20,-79.2720,42.4933,M,M,M,330.00,8.00,30.41,M,M,10.00,M,3100.00,3900.00,M,M
DKK,2018-01-01 05:24,-79.2720,42.4933,10.90,1.00,63.69,340.00,8.00,30.41,M,0.00,10.00,M,2700.00,3400.00,4000.00,M
DKK,2018-01-01 05:25,-79.2720,42.4933,M,M,M,330.00,7.00,30.41,M,M,10.00,M,2900.00,3700.00,M,M
DKK,2018-01-01 05:30,-79.2720,42.4933,M,M,M,350.00,8.00,30.41,M,M,10.00,M,3000.00,3700.00,M,M
DKK,2018-01-01 05:35,-79.2720,42.4933,M,M,M,340.00,10.00,30.41,M,M,10.00,M,3000.00,3800.00,M,M
DKK,2018-01-01 05:40,-79.2720,42.4933,M,M,M,310.00,9.00,30.41,M,M,10.00,M,2700.00,3399.00,M,M
DKK,2018-01-01 05:45,-79.2720,42.4933,M,M,M,330.00,8.00,30.41,M,M,10.00,M,3399.00,M,M,M
DKK,2018-01-01 05:50,-79.2720,42.4933,M,M,M,330.00,10.00,30.41,M,M,10.00,M,2800.00,3600.00,M,M
DKK,2018-01-01 05:53,-79.2720,42.4933,10.00,1.00,66.29,330.00,10.00,30.41,1031.30,0.00,10.00,M,2800.00,3400.00,M,M
DKK,2018-01-01 05:55,-79.2720,42.4933,M,M,M,330.00,8.00,30.41,M,M,10.00,M,2800.00,3399.00,M,M
DKK,2018-01-01 06:00,-79.2720,42.4933,M,M,M,330.00,7.00,30.41,M,M,10.00,M,3000.00,3700.00,M,M
DKK,2018-01-01 06:05,-79.2720,42.4933,M,M,M,330.00,8.00,30.41,M,M,10.00,M,2800.00,3500.00,M,M
DKK,2018-01-01 06:10,-79.2720,42.4933,M,M,M,320.00,10.00,30.41,M,M,10.00,M,2800.00,3500.00,M,M
DKK,2018-01-01 06:15,-79.2720,42.4933,M,M,M,330.00,7.00,30.41,M,M,10.00,M,2800.00,M,M,M
DKK,2018-01-01 06:20,-79.2720,42.4933,M,M,M,320.00,10.00,30.41,M,M,10.00,M,3000.00,6500.00,M,M
DKK,2018-01-01 06:25,-79.2720,42.4933,M,M,M,330.00,7.00,30.41,M,M,10.00,M,3000.00,6500.00,M,M
DKK,2018-01-01 06:30,-79.2720,42.4933,M,M,M,330.00,7.00,30.41,M,M,10.00,M,3000.00,7000.00,M,M
DKK,2018-01-01 06:35,-79.2720,42.4933,M,M,M,340.00,11.00,30.41,M,M,10.00,M,3000.00,7000.00,M,M
DKK,2018-01-01 06:40,-79.2720,42.4933,M,M,M,340.00,8.00,30.41,M,M,10.00,M,3000.00,7000.00,M,M
DKK,2018-01-01 06:45,-79.2720,42.4933,M,M,M,340.00,9.00,30.41,M,M,10.00,M,3000.00,7000.00,M,M
DKK,2018-01-01 06:50,-79.2720,42.4933,M,M,M,320.00,8.00,30.41,M,M,10.00,M,2800.00,7000.00,M,M
DKK,2018-01-01 06:53,-79.2720,42.4933,10.00,0.00,63.26,340.00,8.00,30.41,1031.40,0.00,10.00,M,2800.00,7000.00,M,M
DKK,2018-01-01 06:55,-79.2720,42.4933,M,M,M,340.00,7.00,30.41,M,M,10.00,M,2800.00,7000.00,M,M
DKK,2018-01-01 07:00,-79.2720,42.4933,M,M,M,330.00,8.00,30.41,M,M,10.00,M,2800.00,7000.00,M,M
DKK,2018-01-01 07:05,-79.2720,42.4933,M,M,M,340.00,7.00,30.41,M,M,10.00,M,3000.00,7000.00,M,M
DKK,2018-01-01 07:10,-79.2720,42.4933,M,M,M,340.00,8.00,30.41,M,M,10.00,M,2800.00,3300.00,7500.00,M
DKK,2018-01-01 07:15,-79.2720,42.4933,M,M,M,330.00,8.00,30.41,M,M,10.00,M,2800.00,7500.00,M,M
DKK,2018-01-01 07:20,-79.2720,42.4933,M,M,M,330.00,7.00,30.41,M,M,10.00,M,2800.00,7500.00,M,M
DKK,2018-01-01 07:25,-79.2720,42.4933,M,M,M,330.00,7.00,30.41,M,M,10.00,M,2700.00,7500.00,M,M
DKK,2018-01-01 07:30,-79.2720,42.4933,M,M,M,310.00,8.00,30.41,M,M,10.00,M,2700.00,7500.00,M,M
DKK,2018-01-01 07:35,-79.2720,42.4933,M,M,M,310.00,7.00,30.41,M,M,10.00,M,2700.00,7500.00,M,M
DKK,2018-01-01 07:40,-79.2720,42.4933,M,M,M,330.00,5.00,30.41,M,M,10.00,M,7000.00,M,M,M
DKK,2018-01-01 07:45,-79.2720,42.4933,M,M,M,320.00,7.00,30.41,M,M,10.00,M,7000.00,M,M,M
DKK,2018-01-01 07:50,-79.2720,42.4933,M,M,M,310.00,5.00,30.41,M,M,10.00,M,7500.00,M,M,M
DKK,2018-01-01 07:53,-79.2720,42.4933,10.90,0.00,60.77,310.00,6.00,30.41,1031.20,0.00,10.00,M,7500.00,M,M,M
DKK,2018-01-01 07:55,-79.2720,42.4933,M,M,M,320.00,7.00,30.41,M,M,10.00,M,7000.00,M,M,M
DKK,2018-01-01 08:00,-79.2720,42.4933,M,M,M,330.00,8.00,30.41,M,M,10.00,M,3100.00,7000.00,M,M
DKK,2018-01-01 08:05,-79.2720,42.4933,M,M,M,310.00,6.00,30.41,M,M,10.00,M,3300.00,7000.00,M,M
DKK,2018-01-01 08:10,-79.2720,42.4933,M,M,M,320.00,7.00,30.41,M,M,10.00,M,3300.00,7000.00,M,M
DKK,2018-01-01 08:15,-79.2720,42.4933,M,M,M,320.00,8.00,30.41,M,M,10.00,M,3100.00,7000.00,M,M
DKK,2018-01-01 08:20,-79.2720,42.4933,M,M,M,310.00,8.00,30.41,M,M,10.00,M,3300.00,7000.00,M,M
DKK,2018-01-01 08:25,-79.2720,42.4933,M,M,M,330.00,8.00,30.40,M,M,10.00,M,3300.00,7000.00,M,M
DKK,2018-01-01 08:30,-79.2720,42.4933,M,M,M,330.00,5.00,30.40,M,M,10.00,M,3100.00,7000.00,M,M
DKK,2018-01-01 08:35,-79.2720,42.4933,M,M,M,320.00,6.00,30.40,M,M,10.00,M,3100.00,7000.00,M,M
DKK,2018-01-01 08:40,-79.2720,42.4933,M,M,M,310.00,6.00,30.40,M,M,10.00,M,3200.00,7000.00,M,M
DKK,2018-01-01 08:45,-79.2720,42.4933,M,M,M,320.00,6.00,30.40,M,M,10.00,M,3200.00,7000.00,M,M
DKK,2018-01-01 08:50,-79.2720,42.4933,M,M,M,330.00,7.00,30.40,M,M,10.00,M,3200.00,7000.00,M,M
DKK,2018-01-01 08:53,-79.2720,42.4933,10.90,0.00,60.77,320.00,7.00,30.40,1030.90,0.00,10.00,M,3200.00,7000.00,M,M
DKK,2018-01-01 08:55,-79.2720,42.4933,M,M,M,330.00,6.00,30.40,M,M,10.00,M,3200.00,7000.00,M,M
DKK,2018-01-01 09:00,-79.2720,42.4933,M,M,M,310.00,8.00,30.40,M,M,10.00,M,3200.00,7000.00,M,M
DKK,2018-01-01 09:05,-79.2720,42.4933,M,M,M,320.00,7.00,30.40,M,M,10.00,M,3200.00,7000.00,M,M
DKK,2018-01-01 09:10,-79.2720,42.4933,M,M,M,330.00,6.00,30.40,M,M,10.00,M,3200.00,7000.00,M,M
DKK,2018-01-01 09:15,-79.2720,42.4933,M,M,M,320.00,6.00,30.40,M,M,10.00,M,3000.00,6500.00,M,M
DKK,2018-01-01 09:20,-79.2720,42.4933,M,M,M,310.00,6.00,30.40,M,M,10.00,M,3000.00,5500.00,7000.00,M
DKK,2018-01-01 09:25,-79.2720,42.4933,M,M,M,330.00,8.00,30.40,M,M,10.00,M,3000.00,5500.00,7000.00,M
DKK,2018-01-01 09:30,-79.2720,42.4933,M,M,M,340.00,5.00,30.40,M,M,10.00,M,3000.00,4200.00,7000.00,M
DKK,2018-01-01 09:35,-79.2720,42.4933,M,M,M,330.00,6.00,30.40,M,M,10.00,M,3100.00,5000.00,7000.00,M
DKK,2018-01-01 09:40,-79.2720,42.4933,M,M,M,340.00,5.00,30.39,M,M,10.00,M,3100.00,5000.00,7000.00,M
DKK,2018-01-01 09:45,-79.2720,42.4933,M,M,M,80.00,5.00,30.40,M,M,10.00,M,3100.00,5000.00,7000.00,M
DKK,2018-01-01 09:50,-79.2720,42.4933,M,M,M,80.00,6.00,30.39,M,M,10.00,M,3100.00,3700.00,7000.00,M
DKK,2018-01-01 09:53,-79.2720,42.4933,8.10,-0.90,66.04,90.00,7.00,30.39,1030.70,0.00,10.00,M,3100.00,3900.00,7000.00,M
DKK,2018-01-01 09:55,-79.2720,42.4933,M,M,M,100.00,8.00,30.39,M,M,10.00,M,3100.00,3900.00,7000.00,M
DKK,2018-01-01 10:00,-79.2720,42.4933,M,M,M,100.00,8.00,30.39,M,M,10.00,M,3100.00,3800.00,7000.00,M
DKK,2018-01-01 10:05,-79.2720,42.4933,M,M,M,M,M,30.39,M,M,10.00,M,3100.00,3999.00,7000.00,M
DKK,2018-01-01 10:10,-79.2720,42.4933,M,M,M,110.00,7.00,30.39,M,M,10.00,M,3000.00,3600.00,M,M
DKK,2018-01-01 10:15,-79.2720,42.4933,M,M,M,130.00,7.00,30.39,M,M,10.00,M,2800.00,3600.00,M,M
DKK,2018-01-01 10:20,-79.2720,42.4933,M,M,M,140.00,6.00,30.39,M,M,8.00,M,2800.00,3399.00,M,-SN
DKK,2018-01-01 10:21,-79.2720,42.4933,8.10,0.00,68.89,150.00,6.00,30.39,M,T,7.00,M,2800.00,3400.00,M,-SN
DKK,2018-01-01 10:25,-79.2720,42.4933,M,M,M,130.00,7.00,30.39,M,M,5.00,M,2600.00,3100.00,M,-SN
DKK,2018-01-01 10:30,-79.2720,42.4933,M,M,M,130.00,7.00,30.39,M,M,4.00,M,2800.00,M,M,-SN
DKK,2018-01-01 10:35,-79.2720,42.4933,M,M,M,160.00,7.00,30.39,M,M,5.00,M,2800.00,M,M,-SN
DKK,2018-01-01 10:40,-79.2720,42.4933,M,M,M,150.00,5.00,30.39,M,M,2.50,M,2600.00,M,M,-SN
DKK,2018-01-01 10:45,-79.2720,42.4933,M,M,M,140.00,5.00,30.39,M,M,2.00,M,2400.00,M,M,-SN
DKK,2018-01-01 10:46,-79.2720,42.4933,8.10,3.00,79.23,140.00,6.00,30.39,M,T,2.00,M,2400.00,M,M,-SN
DKK,2018-01-01 10:50,-79.2720,42.4933,M,M,M,130.00,6.00,30.39,M,M,2.00,M,2400.00,3100.00,M,-SN
DKK,2018-01-01 10:53,-79.2720,42.4933,8.10,3.90,82.58,120.00,6.00,30.39,1030.60,T,2.50,M,2700.00,M,M,-SN BR
DKK,2018-01-01 10:55,-79.2720,42.4933,M,M,M,120.00,6.00,30.39,M,M,3.00,M,2500.00,3000.00,M,-SN BR
DKK,2018-01-01 11:00,-79.2720,42.4933,M,M,M,120.00,6.00,30.39,M,M,4.00,M,2500.00,3200.00,M,-SN BR
DKK,2018-01-01 11:01,-79.2720,42.4933,8.10,3.90,82.58,120.00,6.00,30.39,M,T,5.00,M,2500.00,3200.00,M,-SN BR
DKK,2018-01-01 11:05,-79.2720,42.4933,M,M,M,130.00,7.00,30.39,M,M,5.00,M,2500.00,3200.00,M,-SN BR
DKK,2018-01-01 11:10,-79.2720,42.4933,M,M,M,M,M,30.39,M,M,3.50,M,2500.00,3399.00,M,-SN BR
DKK,2018-01-01 11:15,-79.2720,42.4933,M,M,M,130.00,6.00,30.38,M,M,3.00,M,2500.00,3399.00,M,-SN BR
DKK,2018-01-01 11:20,-79.2720,42.4933,M,M,M,90.00,5.00,30.38,M,M,4.00,M,2700.00,3399.00,M,-SN BR
DKK,2018-01-01 11:25,-79.2720,42.4933,M,M,M,100.00,5.00,30.38,M,M,4.00,M,2700.00,3300.00,M,-SN BR
DKK,2018-01-01 11:30,-79.2720,42.4933,M,M,M,90.00,5.00,30.38,M,M,4.00,M,2700.00,3500.00,M,-SN
DKK,2018-01-01 11:35,-79.2720,42.4933,M,M,M,0.00,0.00,30.38,M,M,5.00,M,2700.00,3500.00,4900.00,-SN BR
DKK,2018-01-01 11:37,-79.2720,42.4933,9.00,5.00,83.41,0.00,0.00,30.38,M,T,6.00,M,2700.00,3500.00,4900.00,-SN BR
DKK,2018-01-01 11:40,-79.2720,42.4933,M,M,M,0.00,0.00,30.38,M,M,7.00,M,2700.00,3500.00,4900.00,-SN
DKK,2018-01-01 11:45,-79.2720,42.4933,M,M,M,300.00,4.00,30.38,M,M,9.00,M,2700.00,3500.00,4700.00,-SN
DKK,2018-01-01 11:50,-79.2720,42.4933,M,M,M,300.00,8.00,30.38,M,M,9.00,M,2900.00,3600.00,5000.00,M
DKK,2018-01-01 11:53,-79.2720,42.4933,12.90,1.90,60.78,280.00,12.00,30.38,1030.30,T,10.00,20.00,3300.00,4000.00,5500.00,M
DKK,2018-01-01 11:55,-79.2720,42.4933,M,M,M,280.00,10.00,30.38,M,M,10.00,M,3300.00,4200.00,5000.00,M
DKK,2018-01-01 12:00,-79.2720,42.4933,M,M,M,290.00,10.00,30.38,M,M,10.00,M,3500.00,4700.00,M,M
DKK,2018-01-01 12:05,-79.2720,42.4933,M,M,M,300.00,13.00,30.38,M,M,10.00,M,3500.00,4400.00,M,M
DKK,2018-01-01 12:10,-79.2720,42.4933,M,M,M,280.00,13.00,30.38,M,M,10.00,M,3600.00,4500.00,M,M
DKK,2018-01-01 12:15,-79.2720,42.4933,M,M,M,M,M,30.38,M,M,10.00,M,3999.00,5000.00,M,M
DKK,2018-01-01 12:20,-79.2720,42.4933,M,M,M,M,M,30.38,M,M,10.00,20.00,3999.00,5000.00,M,M
DKK,2018-01-01 12:25,-79.2720,42.4933,M,M,M,290.00,13.00,30.38,M,M,10.00,M,4100.00,M,M,M
DKK,2018-01-01 12:30,-79.2720,42.4933,M,M,M,M,M,30.38,M,M,10.00,M,4100.00,5000.00,M,M
DKK,2018-01-01 12:35,-79.2720,42.4933,M,M,M,290.00,12.00,30.38,M,M,10.00,M,4100.00,5000.00,M,M
DKK,2018-01-01 12:40,-79.2720,42.4933,M,M,M,290.00,11.00,30.38,M,M,10.00,M,4100.00,5000.00,M,M
DKK,2018-01-01 12:45,-79.2720,42.4933,M,M,M,290.00,11.00,30.38,M,M,10.00,16.00,4200.00,5000.00,M,M
DKK,2018-01-01 12:50,-79.2720,42.4933,M,M,M,M,M,30.38,M,M,10.00,M,4200.00,5000.00,M,M
DKK,2018-01-01 12:53,-79.2720,42.4933,14.00,-0.90,50.80,280.00,15.00,30.38,1030.10,0.00,10.00,24.00,4500.00,M,M,M
DKK,2018-01-01 12:55,-79.2720,42.4933,M,M,M,M,M,30.38,M,M,10.00,M,4200.00,5000.00,M,M
DKK,2018-01-01 13:00,-79.2720,42.4933,M,M,M,290.00,13.00,30.38,M,M,10.00,M,4200.00,5000.00,M,M
DKK,2018-01-01 13:05,-79.2720,42.4933,M,M,M,280.00,10.00,30.38,M,M,10.00,M,3900.00,4800.00,M,M
DKK,2018-01-01 13:10,-79.2720,42.4933,M,M,M,280.00,13.00,30.37,M,M,10.00,M,3600.00,4600.00,6000.00,M
DKK,2018-01-01 13:15,-79.2720,42.4933,M,M,M,290.00,12.00,30.37,M,M,10.00,M,3399.00,4600.00,6500.00,M
DKK,2018-01-01 13:20,-79.2720,42.4933,M,M,M,280.00,14.00,30.37,M,M,10.00,M,3399.00,4200.00,6500.00,M
DKK,2018-01-01 13:25,-79.2720,42.4933,M,M,M,290.00,10.00,30.37,M,M,10.00,M,3600.00,4300.00,5000.00,M
DKK,2018-01-01 13:30,-79.2720,42.4933,M,M,M,290.00,18.00,30.37,M,M,10.00,M,3600.00,4500.00,5000.00,M
DKK,2018-01-01 13:35,-79.2720,42.4933,M,M,M,M,M,30.37,M,M,10.00,M,3200.00,4200.00,6000.00,M
DKK,2018-01-01 13:40,-79.2720,42.4933,M,M,M,M,M,30.37,M,M,10.00,M,3399.00,4200.00,6000.00,M
DKK,2018-01-01 13:45,-79.2720,42.4933,M,M,M,270.00,14.00,30.37,M,M,10.00,20.00,3399.00,4500.00,6000.00,M
DKK,2018-01-01 13:50,-79.2720,42.4933,M,M,M,280.00,15.00,30.37,M,M,10.00,M,3500.00,4500.00,6000.00,M
DKK,2018-01-01 13:53,-79.2720,42.4933,14.00,1.90,57.91,280.00,14.00,30.37,1030.00,0.00,10.00,24.00,3300.00,4300.00,6000.00,M
DKK,2018-01-01 13:55,-79.2720,42.4933,M,M,M,M,M,30.37,M,M,10.00,M,3600.00,4500.00,6000.00,M
DKK,2018-01-01 14:00,-79.2720,42.4933,M,M,M,M,M,30.37,M,M,10.00,M,3600.00,4500.00,6000.00,M
DKK,2018-01-01 14:05,-79.2720,42.4933,M,M,M,M,M,30.37,M,M,6.00,M,3600.00,4800.00,6000.00,HZ
DKK,2018-01-01 14:10,-79.2720,42.4933,M,M,M,M,M,30.37,M,M,5.00,M,3600.00,4600.00,5500.00,HZ
DKK,2018-01-01 14:15,-79.2720,42.4933,M,M,M,M,M,30.37,M,M,8.00,M,3399.00,4100.00,5500.00,M
DKK,2018-01-01 14:20,-79.2720,42.4933,M,M,M,280.00,17.00,30.37,M,M,4.00,M,1600.00,3700.00,5500.00,HZ
DKK,2018-01-01 14:22,-79.2720,42.4933,12.90,1.00,58.29,290.00,18.00,30.37,M,T,1.75,27.00,500.00,3500.00,5500.00,-SN
DKK,2018-01-01 14:25,-79.2720,42.4933,M,M,M,280.00,17.00,30.37,M,M,1.00,M,499.00,4200.00,5500.00,-SN
DKK,2018-01-01 14:30,-79.2720,42.4933,M,M,M,M,M,30.37,M,M,1.00,M,499.00,3600.00,5500.00,-SN
DKK,2018-01-01 14:31,-79.2720,42.4933,12.90,1.00,58.29,280.00,19.00,30.38,M,T,1.00,31.00,700.00,3600.00,5500.00,-SN
DKK,2018-01-01 14:35,-79.2720,42.4933,M,M,M,270.00,16.00,30.38,M,M,1.75,M,900.00,3600.00,M,-SN
DKK,2018-01-01 14:38,-79.2720,42.4933,12.90,1.00,58.29,280.00,18.00,30.38,M,T,1.75,31.00,900.00,3600.00,M,-SN
DKK,2018-01-01 14:40,-79.2720,42.4933,M,M,M,280.00,18.00,30.38,M,M,2.50,26.00,900.00,3600.00,M,-SN
DKK,2018-01-01 14:41,-79.2720,42.4933,12.90,1.00,58.29,280.00,17.00,30.38,M,T,3.00,27.00,100.00,3600.00,M,-SN
DKK,2018-01-01 14:44,-79.2720,42.4933,12.90,1.00,58.29,290.00,22.00,30.38,M,T,1.50,30.00,100.00,3600.00,M,-SN
DKK,2018-01-01 14:45,-79.2720,42.4933,M,M,M,280.00,19.00,30.38,M,M,1.50,M,100.00,3600.00,M,-SN
DKK,2018-01-01 14:50,-79.2720,42.4933,M,M,M,280.00,19.00,30.38,M,M,1.50,M,100.00,3700.00,M,-SN
DKK,2018-01-01 14:53,-79.2720,42.4933,14.00,1.00,55.54,290.00,18.00,30.38,1030.20,T,2.00,28.00,100.00,3700.00,M,-SN
DKK,2018-01-01 14:55,-79.2720,42.4933,M,M,M,270.00,19.00,30.38,M,M,2.50,M,100.00,3700.00,4700.00,-SN
DKK,2018-01-01 15:00,-79.2720,42.4933,M,M,M,270.00,17.00,30.38,M,M,2.50,M,100.00,3700.00,4900.00,-SN
DKK,2018-01-01 15:05,-79.2720,42.4933,M,M,M,M,M,30.38,M,M,3.00,M,100.00,4900.00,5500.00,HZ
DKK,2018-01-01 15:10,-79.2720,42.4933,12.90,0.00,55.62,290.00,16.00,30.38,M,T,6.00,25.00,1300.00,4900.00,5500.00,HZ
DKK,2018-01-01 15:15,-79.2720,42.4933,M,M,M,280.00,17.00,30.38,M,M,9.00,M,2400.00,3999.00,5000.00,M
DKK,2018-01-01 15:20,-79.2720,42.4933,M,M,M,280.00,15.00,30.38,M,M,9.00,M,3800.00,4700.00,5500.00,M
DKK,2018-01-01 15:25,-79.2720,42.4933,M,M,M,290.00,19.00,30.38,M,M,9.00,M,3600.00,4900.00,5500.00,M
DKK,2018-01-01 15:30,-79.2720,42.4933,M,M,M,280.00,16.00,30.38,M,M,8.00,23.00,3600.00,4900.00,M,M
DKK,2018-01-01 15:35,-79.2720,42.4933,M,M,M,280.00,16.00,30.38,M,M,9.00,24.00,3399.00,4600.00,M,M
DKK,2018-01-01 15:40,-79.2720,42.4933,M,M,M,280.00,18.00,30.38,M,M,6.00,28.00,3200.00,3999.00,4800.00,HZ
DKK,2018-01-01 15:45,-79.2720,42.4933,M,M,M,270.00,15.00,30.38,M,M,5.00,M,3300.00,4100.00,5000.00,HZ
DKK,2018-01-01 15:50,-79.2720,42.4933,M,M,M,270.00,14.00,30.38,M,M,6.00,20.00,3300.00,4100.00,4800.00,HZ
DKK,2018-01-01 15:53,-79.2720,42.4933,14.00,3.90,63.53,260.00,16.00,30.38,1030.10,T,7.00,25.00,3100.00,3500.00,4500.00,M
DKK,2018-01-01 15:55,-79.2720,42.4933,M,M,M,260.00,14.00,30.38,M,M,8.00,19.00,3100.00,4100.00,4800.00,M
DKK,2018-01-01 16:00,-79.2720,42.4933,M,M,M,280.00,15.00,30.38,M,M,5.00,M,3200.00,4200.00,4900.00,-SN
DKK,2018-01-01 16:05,-79.2720,42.4933,M,M,M,270.00,20.00,30.38,M,M,4.00,M,3200.00,4100.00,M,-SN
DKK,2018-01-01 16:10,-79.2720,42.4933,M,M,M,280.00,17.00,30.37,M,M,3.00,M,3000.00,4100.00,M,-SN
DKK,2018-01-01 16:15,-79.2720,42.4933,M,M,M,280.00,17.00,30.37,M,M,3.50,M,3300.00,4400.00,M,-SN
DKK,2018-01-01 16:20,-79.2720,42.4933,M,M,M,280.00,17.00,30.37,M,M,5.00,M,3300.00,4600.00,M,HZ
DKK,2018-01-01 16:25,-79.2720,42.4933,M,M,M,280.00,17.00,30.37,M,M,5.00,M,3399.00,4800.00,M,HZ
DKK,2018-01-01 16:30,-79.2720,42.4933,M,M,M,280.00,18.00,30.37,M,M,5.00,M,3399.00,4800.00,M,HZ
DKK,2018-01-01 16:35,-79.2720,42.4933,M,M,M,280.00,16.00,30.37,M,M,6.00,23.00,3399.00,4100.00,5000.00,HZ
DKK,2018-01-01 16:40,-79.2720,42.4933,M,M,M,290.00,17.00,30.37,M,M,7.00,23.00,3399.00,5000.00,M,M
DKK,2018-01-01 16:45,-79.2720,42.4933,M,M,M,270.00,17.00,30.36,M,M,8.00,M,3600.00,5000.00,M,M
DKK,2018-01-01 16:50,-79.2720,42.4933,M,M,M,290.00,15.00,30.36,M,M,9.00,M,3600.00,4700.00,5500.00,M
DKK,2018-01-01 16:53,-79.2720,42.4933,14.00,1.00,55.54,280.00,15.00,30.36,1029.60,T,10.00,25.00,3400.00,4700.00,5500.00,M
DKK,2018-01-01 16:55,-79.2720,42.4933,M,M,M,290.00,18.00,30.36,M,M,9.00,M,3399.00,4700.00,M,M
DKK,2018-01-01 17:00,-79.2720,42.4933,M,M,M,280.00,15.00,30.36,M,M,9.00,M,3600.00,4600.00,M,M
DKK,2018-01-01 17:05,-79.2720,42.4933,M,M,M,280.00,13.00,30.36,M,M,10.00,18.00,3999.00,M,M,M
DKK,2018-01-01 17:10,-79.2720,42.4933,M,M,M,270.00,16.00,30.36,M,M,10.00,M,3900.00,M,M,M
DKK,2018-01-01 17:15,-79.2720,42.4933,M,M,M,280.00,15.00,30.36,M,M,10.00,M,3600.00,4300.00,M,M
DKK,2018-01-01 17:20,-79.2720,42.4933,M,M,M,280.00,18.00,30.36,M,M,8.00,M,3600.00,4400.00,M,M
DKK,2018-01-01 17:25,-79.2720,42.4933,M,M,M,280.00,14.00,30.36,M,M,7.00,M,3800.00,M,M,M
DKK,2018-01-01 17:30,-79.2720,42.4933,M,M,M,270.00,16.00,30.35,M,M,8.00,25.00,3000.00,3999.00,M,M
DKK,2018-01-01 17:35,-79.2720,42.4933,M,M,M,270.00,13.00,30.35,M,M,9.00,20.00,3500.00,4300.00,M,M
DKK,2018-01-01 17:40,-79.2720,42.4933,M,M,M,270.00,20.00,30.35,M,M,8.00,M,3100.00,3999.00,5000.00,M
DKK,2018-01-01 17:45,-79.2720,42.4933,M,M,M,270.00,14.00,30.35,M,M,8.00,M,3100.00,3999.00,M,M
DKK,2018-01-01 17:50,-79.2720,42.4933,M,M,M,280.00,13.00,30.35,M,M,9.00,19.00,3100.00,3999.00,M,M
DKK,2018-01-01 17:53,-79.2720,42.4933,12.90,3.00,63.96,270.00,16.00,30.35,1029.30,0.00,9.00,25.00,3100.00,4300.00,M,M
DKK,2018-01-01 17:55,-79.2720,42.4933,M,M,M,280.00,14.00,30.35,M,M,9.00,M,3100.00,4300.00,M,M
DKK,2018-01-01 18:00,-79.2720,42.4933,M,M,M,280.00,14.00,30.35,M,M,9.00,M,3100.00,3800.00,4900.00,M
DKK,2018-01-01 18:05,-79.2720,42.4933,M,M,M,270.00,14.00,30.35,M,M,10.00,20.00,3100.00,3800.00,4700.00,M
DKK,2018-01-01 18:10,-79.2720,42.4933,M,M,M,270.00,14.00,30.35,M,M,10.00,20.00,3300.00,M,M,M
DKK,2018-01-01 18:15,-79.2720,42.4933,M,M,M,280.00,14.00,30.35,M,M,10.00,M,3000.00,3700.00,4500.00,M
DKK,2018-01-01 18:20,-79.2720,42.4933,M,M,M,290.00,16.00,30.35,M,M,10.00,M,2900.00,3600.00,4600.00,M
DKK,2018-01-01 18:25,-79.2720,42.4933,M,M,M,280.00,15.00,30.35,M,M,10.00,M,3300.00,4300.00,M,M
DKK,2018-01-01 18:30,-79.2720,42.4933,M,M,M,280.00,15.00,30.35,M,M,10.00,23.00,3000.00,3900.00,M,M
DKK,2018-01-01 18:35,-79.2720,42.4933,M,M,M,270.00,16.00,30.35,M,M,10.00,M,3399.00,4300.00,M,M
DKK,2018-01-01 18:40,-79.2720,42.4933,M,M,M,260.00,14.00,30.35,M,M,10.00,M,3000.00,3700.00,4300.00,M
DKK,2018-01-01 18:45,-79.2720,42.4933,M,M,M,270.00,11.00,30.34,M,M,10.00,M,3200.00,4100.00,M,M
DKK,2018-01-01 18:50,-79.2720,42.4933,M,M,M,270.00,12.00,30.34,M,M,10.00,17.00,2900.00,3600.00,M,M
DKK,2018-01-01 18:53,-79.2720,42.4933,12.90,3.90,66.67,260.00,11.00,30.34,1028.90,0.00,10.00,20.00,2900.00,3600.00,4400.00,M
DKK,2018-01-01 18:55,-79.2720,42.4933,M,M,M,260.00,14.00,30.34,M,M,10.00,M,2900.00,3600.00,M,M
DKK,2018-01-01 19:00,-79.2720,42.4933,M,M,M,270.00,12.00,30.34,M,M,10.00,17.00,2900.00,3600.00,4400.00,M
DKK,2018-01-01 19:05,-79.2720,42.4933,M,M,M,270.00,15.00,30.34,M,M,10.00,M,2900.00,3600.00,M,M
DKK,2018-01-01 19:09,-79.2720,42.4933,14.00,3.00,60.94,280.00,11.00,30.34,M,0.00,10.00,22.00,2900.00,3800.00,M,M
DKK,2018-01-01 19:10,-79.2720,42.4933,M,M,M,280.00,15.00,30.34,M,M,10.00,21.00,2900.00,3600.00,M,M
DKK,2018-01-01 19:15,-79.2720,42.4933,M,M,M,280.00,11.00,30.34,M,M,10.00,M,2900.00,3800.00,M,M
DKK,2018-01-01 19:20,-79.2720,42.4933,M,M,M,280.00,12.00,30.34,M,M,10.00,17.00,2900.00,3600.00,4400.00,M
DKK,2018-01-01 19:25,-79.2720,42.4933,M,M,M,280.00,13.00,30.34,M,M,10.00,M,2900.00,3999.00,4800.00,M
DKK,2018-01-01 19:30,-79.2720,42.4933,M,M,M,280.00,15.00,30.34,M,M,10.00,23.00,2900.00,3600.00,4400.00,M
DKK,2018-01-01 19:35,-79.2720,42.4933,M,M,M,270.00,12.00,30.34,M,M,10.00,M,2800.00,3999.00,M,M
DKK,2018-01-01 19:40,-79.2720,42.4933,M,M,M,270.00,13.00,30.35,M,M,10.00,18.00,2600.00,3200.00,4100.00,M
DKK,2018-01-01 19:45,-79.2720,42.4933,M,M,M,270.00,12.00,30.35,M,M,10.00,18.00,2800.00,3900.00,M,M
DKK,2018-01-01 19:50,-79.2720,42.4933,M,M,M,280.00,14.00,30.35,M,M,10.00,M,2600.00,3399.00,4200.00,M
DKK,2018-01-01 19:53,-79.2720,42.4933,14.00,3.90,63.53,270.00,13.00,30.34,1029.00,0.00,10.00,22.00,3300.00,4100.00,M,M
DKK,2018-01-01 19:55,-79.2720,42.4933,M,M,M,280.00,13.00,30.34,M,M,10.00,M,2800.00,3700.00,M,M
DKK,2018-01-01 20:00,-79.2720,42.4933,M,M,M,270.00,16.00,30.34,M,M,10.00,21.00,2800.00,3700.00,M,M
DKK,2018-01-01 20:05,-79.2720,42.4933,M,M,M,280.00,17.00,30.34,M,M,10.00,M,2800.00,3399.00,4100.00,M
DKK,2018-01-01 20:10,-79.2720,42.4933,M,M,M,270.00,16.00,30.35,M,M,9.00,M,2800.00,3399.00,4100.00,M
DKK,2018-01-01 20:15,-79.2720,42.4933,M,M,M,270.00,15.00,30.35,M,M,9.00,M,2800.00,3700.00,M,M
DKK,2018-01-01 20:20,-79.2720,42.4933,M,M,M,270.00,15.00,30.35,M,M,9.00,M,2800.00,3700.00,M,M
DKK,2018-01-01 20:25,-79.2720,42.4933,M,M,M,270.00,14.00,30.35,M,M,10.00,M,2800.00,3700.00,M,M
DKK,2018-01-01 20:30,-79.2720,42.4933,M,M,M,260.00,14.00,30.35,M,M,10.00,M,3700.00,M,M,M
DKK,2018-01-01 20:35,-79.2720,42.4933,M,M,M,260.00,11.00,30.35,M,M,10.00,M,3700.00,M,M,M
DKK,2018-01-01 20:40,-79.2720,42.4933,M,M,M,270.00,17.00,30.35,M,M,10.00,M,3000.00,3700.00,M,M
DKK,2018-01-01 20:45,-79.2720,42.4933,M,M,M,270.00,13.00,30.35,M,M,10.00,M,2800.00,3700.00,M,M
DKK,2018-01-01 20:50,-79.2720,42.4933,M,M,M,270.00,14.00,30.36,M,M,10.00,19.00,2800.00,3600.00,M,M
DKK,2018-01-01 20:53,-79.2720,42.4933,14.00,3.90,63.53,260.00,18.00,30.36,1029.40,0.00,9.00,25.00,3000.00,3900.00,M,M
DKK,2018-01-01 20:55,-79.2720,42.4933,M,M,M,260.00,13.00,30.36,M,M,9.00,M,3300.00,4100.00,M,M
DKK,2018-01-01 21:00,-79.2720,42.4933,M,M,M,250.00,13.00,30.35,M,M,9.00,M,3300.00,M,M,M
DKK,2018-01-01 21:05,-79.2720,42.4933,M,M,M,250.00,14.00,30.36,M,M,10.00,24.00,3300.00,4200.00,M,M
DKK,2018-01-01 21:10,-79.2720,42.4933,M,M,M,260.00,15.00,30.36,M,M,10.00,M,3300.00,4300.00,M,M
DKK,2018-01-01 21:15,-79.2720,42.4933,M,M,M,260.00,14.00,30.36,M,M,10.00,M,3300.00,M,M,M
DKK,2018-01-01 21:20,-79.2720,42.4933,M,M,M,260.00,17.00,30.36,M,M,10.00,M,3000.00,3600.00,M,M
DKK,2018-01-01 21:25,-79.2720,42.4933,M,M,M,270.00,13.00,30.36,M,M,10.00,20.00,3200.00,4100.00,M,M
DKK,2018-01-01 21:30,-79.2720,42.4933,M,M,M,270.00,14.00,30.36,M,M,10.00,19.00,3399.00,M,M,M
DKK,2018-01-01 21:35,-79.2720,42.4933,M,M,M,280.00,16.00,30.36,M,M,9.00,M,3399.00,4100.00,M,M
DKK,2018-01-01 21:40,-79.2720,42.4933,M,M,M,270.00,9.00,30.36,M,M,9.00,M,3399.00,4100.00,M,M
DKK,2018-01-01 21:45,-79.2720,42.4933,M,M,M,280.00,15.00,30.36,M,M,10.00,M,3200.00,4100.00,M,M
DKK,2018-01-01 21:50,-79.2720,42.4933,M,M,M,280.00,11.00,30.36,M,M,10.00,M,3399.00,4400.00,M,M
DKK,2018-01-01 21:53,-79.2720,42.4933,15.10,3.90,60.54,270.00,13.00,30.36,1029.60,0.00,10.00,23.00,3200.00,4100.00,M,M
DKK,2018-01-01 21:55,-79.2720,42.4933,M,M,M,270.00,14.00,30.36,M,M,10.00,M,3200.00,4100.00,M,M
DKK,2018-01-01 22:00,-79.2720,42.4933,M,M,M,270.00,15.00,30.36,M,M,10.00,M,3200.00,4100.00,M,M
DKK,2018-01-01 22:05,-79.2720,42.4933,M,M,M,270.00,13.00,30.36,M,M,10.00,18.00,3300.00,4100.00,M,M
DKK,2018-01-01 22:10,-79.2720,42.4933,M,M,M,280.00,13.00,30.37,M,M,10.00,M,3500.00,M,M,M
DKK,2018-01-01 22:15,-79.2720,42.4933,M,M,M,280.00,13.00,30.37,M,M,10.00,M,3500.00,4500.00,M,M
DKK,2018-01-01 22:20,-79.2720,42.4933,M,M,M,280.00,18.00,30.37,M,M,10.00,M,3500.00,4500.00,M,M
DKK,2018-01-01 22:25,-79.2720,42.4933,M,M,M,270.00,17.00,30.37,M,M,9.00,M,3500.00,M,M,M
DKK,2018-01-01 22:30,-79.2720,42.4933,M,M,M,270.00,15.00,30.37,M,M,9.00,20.00,3500.00,M,M,M
DKK,2018-01-01 22:35,-79.2720,42.4933,M,M,M,270.00,11.00,30.37,M,M,10.00,20.00,3500.00,4600.00,M,M
DKK,2018-01-01 22:40,-79.2720,42.4933,M,M,M,270.00,14.00,30.37,M,M,9.00,20.00,3500.00,M,M,M
DKK,2018-01-01 22:45,-79.2720,42.4933,M,M,M,280.00,16.00,30.38,M,M,9.00,M,3700.00,4400.00,M,M
DKK,2018-01-01 22:50,-79.2720,42.4933,M,M,M,270.00,12.00,30.38,M,M,10.00,M,3700.00,4400.00,M,M
DKK,2018-01-01 22:53,-79.2720,42.4933,15.10,3.90,60.54,270.00,15.00,30.38,1030.10,0.00,10.00,24.00,3500.00,4400.00,M,M
DKK,2018-01-01 22:55,-79.2720,42.4933,M,M,M,270.00,14.00,30.38,M,M,10.00,M,3500.00,M,M,M
DKK,2018-01-01 23:00,-79.2720,42.4933,M,M,M,280.00,16.00,30.38,M,M,10.00,21.00,3300.00,4100.00,M,M
DKK,2018-01-01 23:05,-79.2720,42.4933,M,M,M,280.00,17.00,30.38,M,M,9.00,M,3300.00,4100.00,M,M
DKK,2018-01-01 23:10,-79.2720,42.4933,M,M,M,280.00,16.00,30.38,M,M,9.00,M,3300.00,4100.00,M,M
DKK,2018-01-01 23:15,-79.2720,42.4933,M,M,M,280.00,13.00,30.38,M,M,10.00,M,3300.00,M,M,M
DKK,2018-01-01 23:20,-79.2720,42.4933,M,M,M,270.00,17.00,30.39,M,M,10.00,M,3300.00,M,M,M
DKK,2018-01-01 23:25,-79.2720,42.4933,M,M,M,270.00,14.00,30.39,M,M,10.00,M,3000.00,3600.00,M,M
DKK,2018-01-01 23:30,-79.2720,42.4933,M,M,M,280.00,14.00,30.39,M,M,10.00,19.00,3000.00,3600.00,M,M
DKK,2018-01-01 23:35,-79.2720,42.4933,M,M,M,280.00,11.00,30.39,M,M,10.00,17.00,3000.00,3600.00,M,M
DKK,2018-01-01 23:40,-79.2720,42.4933,M,M,M,280.00,18.00,30.39,M,M,10.00,M,3000.00,M,M,M
DKK,2018-01-01 23:45,-79.2720,42.4933,M,M,M,270.00,14.00,30.39,M,M,10.00,19.00,2700.00,3300.00,M,M
DKK,2018-01-01 23:50,-79.2720,42.4933,15.80,6.80,67.05,270.00,13.00,30.39,M,0.00,10.00,28.00,2700.00,3300.00,M,M
DKK,2018-01-01 23:53,-79.2720,42.4933,15.10,6.10,66.96,280.00,17.00,30.39,1030.60,0.00,9.00,29.00,2500.00,3100.00,M,M
DKK,2018-01-01 23:55,-79.2720,42.4933,M,M,M,270.00,16.00,30.39,M,M,10.00,M,2500.00,3100.00,M,M
DKK,2018-01-02 00:00,-79.2720,42.4933,M,M,M,280.00,17.00,30.39,M,M,10.00,M,2500.00,3100.00,M,M
DKK,2018-01-02 00:05,-79.2720,42.4933,M,M,M,270.00,17.00,30.39,M,M,10.00,M,2500.00,3100.00,M,M
DKK,2018-01-02 00:10,-79.2720,42.4933,M,M,M,280.00,15.00,30.40,M,M,10.00,M,2600.00,M,M,M
DKK,2018-01-02 00:15,-79.2720,42.4933,M,M,M,280.00,18.00,30.40,M,M,10.00,M,2600.00,3300.00,M,M
DKK,2018-01-02 00:20,-79.2720,42.4933,M,M,M,280.00,17.00,30.40,M,M,10.00,M,2600.00,3500.00,M,M
DKK,2018-01-02 00:25,-79.2720,42.4933,M,M,M,270.00,18.00,30.40,M,M,10.00,M,2600.00,3300.00,4300.00,M
DKK,2018-01-02 00:30,-79.2720,42.4933,M,M,M,270.00,16.00,30.40,M,M,10.00,M,2600.00,3000.00,3999.00,M
DKK,2018-01-02 00:35,-79.2720,42.4933,M,M,M,280.00,17.00,30.40,M,M,9.00,22.00,2800.00,3500.00,M,M
DKK,2018-01-02 00:40,-79.2720,42.4933,M,M,M,270.00,15.00,30.40,M,M,9.00,M,2500.00,3000.00,4400.00,M
DKK,2018-01-02 00:45,-79.2720,42.4933,M,M,M,270.00,15.00,30.40,M,M,10.00,21.00,2600.00,3100.00,4200.00,M
DKK,2018-01-02 00:50,-79.2720,42.4933,M,M,M,270.00,16.00,30.40,M,M,9.00,21.00,2600.00,3100.00,4200.00,M
DKK,2018-01-02 00:53,-79.2720,42.4933,16.00,7.00,67.08,270.00,17.00,30.40,1030.80,0.00,9.00,26.00,2600.00,3100.00,4100.00,M
DKK,2018-01-02 00:55,-79.2720,42.4933,M,M,M,280.00,15.00,30.40,M,M,9.00,M,2800.00,3300.00,4100.00,M
DKK,2018-01-02 01:00,-79.2720,42.4933,16.00,7.00,67.08,270.00,12.00,30.40,M,0.00,9.00,26.00,2800.00,3300.00,M,M
DKK,2018-01-02 01:05,-79.2720,42.4933,M,M,M,270.00,14.00,30.40,M,M,10.00,M,2600.00,3100.00,4500.00,M
DKK,2018-01-02 01:10,-79.2720,42.4933,M,M,M,270.00,17.00,30.40,M,M,10.00,M,2600.00,3500.00,M,M
DKK,2018-01-02 01:15,-79.2720,42.4933,M,M,M,270.00,18.00,30.40,M,M,10.00,25.00,2600.00,3200.00,6000.00,M
DKK,2018-01-02 01:20,-79.2720,42.4933,M,M,M,270.00,13.00,30.40,M,M,10.00,M,2600.00,3399.00,M,M
DKK,2018-01-02 01:25,-79.2720,42.4933,M,M,M,260.00,14.00,30.40,M,M,10.00,M,2500.00,3399.00,M,M
DKK,2018-01-02 01:30,-79.2720,42.4933,M,M,M,280.00,15.00,30.40,M,M,10.00,20.00,2300.00,2700.00,3399.00,M
DKK,2018-01-02 01:35,-79.2720,42.4933,M,M,M,280.00,11.00,30.40,M,M,10.00,16.00,2500.00,3200.00,M,M
DKK,2018-01-02 01:40,-79.2720,42.4933,M,M,M,280.00,15.00,30.40,M,M,10.00,M,2300.00,2900.00,3600.00,M
DKK,2018-01-02 01:45,-79.2720,42.4933,M,M,M,280.00,16.00,30.40,M,M,10.00,21.00,2500.00,2900.00,3600.00,M
DKK,2018-01-02 01:50,-79.2720,42.4933,M,M,M,280.00,15.00,30.40,M,M,10.00,M,2500.00,3399.00,M,M
DKK,2018-01-02 01:53,-79.2720,42.4933,16.00,8.10,70.50,280.00,15.00,30.41,1031.00,0.00,10.00,26.00,2500.00,2900.00,M,M
DKK,2018-01-02 01:55,-79.2720,42.4933,M,M,M,270.00,14.00,30.41,M,M,10.00,M,2500.00,3500.00,M,M
DKK,2018-01-02 02:00,-79.2720,42.4933,M,M,M,270.00,14.00,30.41,M,M,10.00,M,2500.00,3500.00,M,M
DKK,2018-01-02 02:05,-79.2720,42.4933,M,M,M,270.00,18.00,30.41,M,M,9.00,M,2200.00,2700.00,3500.00,M
DKK,2018-01-02 02:10,-79.2720,42.4933,M,M,M,270.00,14.00,30.41,M,M,9.00,20.00,2500.00,3399.00,M,M
DKK,2018-01-02 02:15,-79.2720,42.4933,M,M,M,280.00,15.00,30.41,M,M,10.00,M,2500.00,3399.00,4500.00,M
DKK,2018-01-02 02:20,-79.2720,42.4933,M,M,M,280.00,16.00,30.41,M,M,10.00,M,2500.00,3300.00,4300.00,M
DKK,2018-01-02 02:25,-79.2720,42.4933,M,M,M,270.00,15.00,30.41,M,M,10.00,20.00,2400.00,2900.00,4500.00,M
DKK,2018-01-02 02:30,-79.2720,42.4933,M,M,M,280.00,17.00,30.41,M,M,10.00,M,2400.00,3300.00,4300.00,M
DKK,2018-01-02 02:35,-79.2720,42.4933,M,M,M,270.00,17.00,30.41,M,M,10.00,M,2600.00,3399.00,4200.00,M
DKK,2018-01-02 02:40,-79.2720,42.4933,M,M,M,280.00,15.00,30.41,M,M,10.00,M,2500.00,3300.00,4200.00,M
DKK,2018-01-02 02:45,-79.2720,42.4933,M,M,M,260.00,15.00,30.40,M,M,10.00,23.00,2600.00,3399.00,4200.00,M
DKK,2018-01-02 02:50,-79.2720,42.4933,M,M,M,270.00,18.00,30.41,M,M,10.00,M,2400.00,3399.00,M,M
DKK,2018-01-02 02:53,-79.2720,42.4933,16.00,8.10,70.50,270.00,16.00,30.41,1031.10,0.00,10.00,25.00,2600.00,3400.00,4100.00,M
DKK,2018-01-02 02:55,-79.2720,42.4933,M,M,M,270.00,16.00,30.41,M,M,10.00,M,2600.00,3399.00,4100.00,M
DKK,2018-01-02 03:00,-79.2720,42.4933,M,M,M,270.00,15.00,30.41,M,M,10.00,M,2300.00,2800.00,3999.00,M
DKK,2018-01-02 03:05,-79.2720,42.4933,M,M,M,280.00,19.00,30.41,M,M,10.00,M,2600.00,3600.00,M,M
DKK,2018-01-02 03:10,-79.2720,42.4933,M,M,M,280.00,15.00,30.41,M,M,10.00,M,2600.00,3600.00,M,M
DKK,2018-01-02 03:15,-79.2720,42.4933,M,M,M,270.00,16.00,30.41,M,M,10.00,M,2600.00,3000.00,3600.00,M
DKK,2018-01-02 03:20,-79.2720,42.4933,M,M,M,260.00,13.00,30.41,M,M,10.00,M,2400.00,2900.00,3600.00,M
DKK,2018-01-02 03:25,-79.2720,42.4933,M,M,M,280.00,12.00,30.41,M,M,10.00,M,2400.00,3200.00,4900.00,M
DKK,2018-01-02 03:30,-79.2720,42.4933,M,M,M,270.00,11.00,30.41,M,M,10.00,18.00,2600.00,3700.00,M,M
DKK,2018-01-02 03:35,-79.2720,42.4933,M,M,M,270.00,13.00,30.41,M,M,10.00,M,2600.00,3600.00,4300.00,M
DKK,2018-01-02 03:40,-79.2720,42.4933,M,M,M,280.00,14.00,30.41,M,M,10.00,M,2700.00,3300.00,4300.00,M
DKK,2018-01-02 03:45,-79.2720,42.4933,M,M,M,280.00,11.00,30.41,M,M,10.00,17.00,2700.00,3300.00,4300.00,M
DKK,2018-01-02 03:50,-79.2720,42.4933,M,M,M,270.00,15.00,30.41,M,M,10.00,20.00,2700.00,3999.00,M,M
DKK,2018-01-02 03:53,-79.2720,42.4933,17.10,8.10,67.22,270.00,14.00,30.41,1031.20,0.00,10.00,24.00,2700.00,3300.00,4200.00,M
DKK,2018-01-02 03:55,-79.2720,42.4933,M,M,M,270.00,16.00,30.41,M,M,10.00,M,2700.00,3300.00,4200.00,M
DKK,2018-01-02 04:00,-79.2720,42.4933,M,M,M,270.00,15.00,30.41,M,M,10.00,M,2700.00,3300.00,4200.00,M
DKK,2018-01-02 04:05,-79.2720,42.4933,M,M,M,260.00,15.00,30.41,M,M,10.00,M,2700.00,3300.00,4100.00,M
DKK,2018-01-02 04:10,-79.2720,42.4933,M,M,M,270.00,16.00,30.41,M,M,10.00,M,2700.00,3800.00,M,M
DKK,2018-01-02 04:15,-79.2720,42.4933,M,M,M,270.00,13.00,30.41,M,M,10.00,18.00,2700.00,3700.00,M,M
DKK,2018-01-02 04:20,-79.2720,42.4933,M,M,M,290.00,13.00,30.41,M,M,10.00,M,2500.00,3200.00,3999.00,M
DKK,2018-01-02 04:25,-79.2720,42.4933,M,M,M,290.00,16.00,30.41,M,M,10.00,M,2700.00,3300.00,5000.00,M
DKK,2018-01-02 04:30,-79.2720,42.4933,M,M,M,280.00,16.00,30.41,M,M,10.00,M,2500.00,3000.00,5000.00,M
DKK,2018-01-02 04:35,-79.2720,42.4933,M,M,M,270.00,12.00,30.41,M,M,10.00,19.00,2700.00,3300.00,M,M
DKK,2018-01-02 04:40,-79.2720,42.4933,M,M,M,280.00,13.00,30.41,M,M,10.00,M,2600.00,3000.00,3700.00,M
DKK,2018-01-02 04:45,-79.2720,42.4933,M,M,M,280.00,17.00,30.41,M,M,10.00,22.00,2600.00,3300.00,5000.00,M
DKK,2018-01-02 04:50,-79.2720,42.4933,M,M,M,270.00,17.00,30.41,M,M,9.00,22.00,2600.00,3399.00,5000.00,M
DKK,2018-01-02 04:53,-79.2720,42.4933,17.10,8.10,67.22,270.00,13.00,30.40,1031.00,0.00,9.00,23.00,2600.00,3400.00,5000.00,M
DKK,2018-01-02 04:55,-79.2720,42.4933,M,M,M,270.00,16.00,30.40,M,M,9.00,21.00,2600.00,3100.00,3800.00,M
DKK,2018-01-02 05:00,-79.2720,42.4933,M,M,M,270.00,14.00,30.40,M,M,10.00,M,2900.00,3600.00,4800.00,M
DKK,2018-01-02 05:05,-79.2720,42.4933,M,M,M,270.00,14.00,30.40,M,M,10.00,M,2700.00,3399.00,4800.00,M
DKK,2018-01-02 05:10,-79.2720,42.4933,M,M,M,280.00,14.00,30.40,M,M,10.00,M,2700.00,3300.00,M,M
DKK,2018-01-02 05:14,-79.2720,42.4933,17.10,8.10,67.22,280.00,13.00,30.40,M,0.00,10.00,23.00,2700.00,3300.00,M,M
DKK,2018-01-02 05:15,-79.2720,42.4933,M,M,M,280.00,13.00,30.40,M,M,10.00,M,2700.00,3300.00,M,M
DKK,2018-01-02 05:20,-79.2720,42.4933,M,M,M,280.00,14.00,30.40,M,M,10.00,M,2700.00,3300.00,4300.00,M
DKK,2018-01-02 05:25,-79.2720,42.4933,M,M,M,270.00,14.00,30.40,M,M,10.00,M,2600.00,3300.00,4700.00,M
DKK,2018-01-02 05:30,-79.2720,42.4933,M,M,M,280.00,13.00,30.40,M,M,10.00,M,2600.00,3399.00,4600.00,M
DKK,2018-01-02 05:35,-79.2720,42.4933,M,M,M,280.00,17.00,30.40,M,M,10.00,23.00,2600.00,3399.00,4800.00,M
DKK,2018-01-02 05:37,-79.2720,42.4933,17.10,9.00,69.99,280.00,15.00,30.40,M,0.00,10.00,23.00,2600.00,3200.00,4800.00,M
DKK,2018-01-02 05:40,-79.2720,42.4933,M,M,M,280.00,16.00,30.40,M,M,10.00,M,2600.00,3000.00,4400.00,M
DKK,2018-01-02 05:45,-79.2720,42.4933,M,M,M,270.00,11.00,30.39,M,M,10.00,M,2600.00,3300.00,4400.00,M
DKK,2018-01-02 05:50,-79.2720,42.4933,M,M,M,270.00,14.00,30.40,M,M,10.00,22.00,2600.00,3100.00,4500.00,M
DKK,2018-01-02 05:53,-79.2720,42.4933,17.10,9.00,69.99,270.00,14.00,30.39,1030.60,0.00,10.00,25.00,2400.00,3100.00,5500.00,M
DKK,2018-01-02 05:55,-79.2720,42.4933,M,M,M,M,M,30.39,M,M,10.00,20.00,2400.00,3100.00,3700.00,M
DKK,2018-01-02 06:00,-79.2720,42.4933,M,M,M,260.00,12.00,30.39,M,M,10.00,20.00,2600.00,3300.00,M,M
DKK,2018-01-02 06:02,-79.2720,42.4933,17.10,9.00,69.99,270.00,16.00,30.39,M,0.00,10.00,24.00,2600.00,3300.00,M,M
DKK,2018-01-02 06:05,-79.2720,42.4933,M,M,M,260.00,12.00,30.39,M,M,10.00,M,2600.00,3300.00,M,M
DKK,2018-01-02 06:10,-79.2720,42.4933,M,M,M,260.00,14.00,30.39,M,M,10.00,M,2600.00,3200.00,4100.00,M
DKK,2018-01-02 06:15,-79.2720,42.4933,M,M,M,260.00,14.00,30.39,M,M,10.00,M,2400.00,3000.00,4100.00,M
DKK,2018-01-02 06:18,-79.2720,42.4933,17.10,9.00,69.99,260.00,14.00,30.39,M,0.00,10.00,21.00,2400.00,3200.00,4200.00,M
DKK,2018-01-02 06:20,-79.2720,42.4933,M,M,M,260.00,15.00,30.39,M,M,10.00,20.00,2700.00,3399.00,4200.00,M
DKK,2018-01-02 06:25,-79.2720,42.4933,M,M,M,270.00,15.00,30.39,M,M,10.00,M,2500.00,2900.00,4200.00,M
DKK,2018-01-02 06:30,-79.2720,42.4933,M,M,M,270.00,17.00,30.39,M,M,10.00,M,2500.00,2900.00,4200.00,M
DKK,2018-01-02 06:35,-79.2720,42.4933,M,M,M,260.00,13.00,30.39,M,M,10.00,M,2300.00,4300.00,5500.00,M
DKK,2018-01-02 06:40,-79.2720,42.4933,M,M,M,270.00,16.00,30.39,M,M,10.00,21.00,2100.00,4500.00,6000.00,M
DKK,2018-01-02 06:45,-79.2720,42.4933,M,M,M,270.00,11.00,30.39,M,M,10.00,M,2300.00,3700.00,6000.00,M
DKK,2018-01-02 06:50,-79.2720,42.4933,M,M,M,270.00,14.00,30.39,M,M,10.00,M,2300.00,3500.00,5500.00,M
DKK,2018-01-02 06:53,-79.2720,42.4933,18.00,10.00,70.41,260.00,13.00,30.39,1030.40,0.00,10.00,24.00,2500.00,5500.00,M,M
DKK,2018-01-02 06:55,-79.2720,42.4933,M,M,M,270.00,14.00,30.39,M,M,10.00,19.00,2500.00,5500.00,M,M
DKK,2018-01-02 07:00,-79.2720,42.4933,M,M,M,270.00,16.00,30.39,M,M,10.00,24.00,2500.00,5500.00,M,M
DKK,2018-01-02 07:05,-79.2720,42.4933,M,M,M,270.00,16.00,30.39,M,M,10.00,M,2500.00,5500.00,M,M
DKK,2018-01-02 07:10,-79.2720,42.4933,M,M,M,270.00,13.00,30.39,M,M,10.00,18.00,2400.00,5500.00,M,M
DKK,2018-01-02 07:15,-79.2720,42.4933,M,M,M,270.00,15.00,30.39,M,M,10.00,20.00,2400.00,6000.00,M,M
DKK,2018-01-02 07:20,-79.2720,42.4933,M,M,M,260.00,13.00,30.39,M,M,10.00,20.00,2200.00,6000.00,M,M
DKK,2018-01-02 07:25,-79.2720,42.4933,M,M,M,260.00,13.00,30.39,M,M,10.00,M,2200.00,6000.00,M,M
DKK,2018-01-02 07:30,-79.2720,42.4933,M,M,M,270.00,13.00,30.39,M,M,10.00,M,2200.00,6000.00,M,M
DKK,2018-01-02 07:35,-79.2720,42.4933,M,M,M,260.00,12.00,30.39,M,M,10.00,M,2400.00,6000.00,M,M
DKK,2018-01-02 07:40,-79.2720,42.4933,M,M,M,260.00,12.00,30.39,M,M,10.00,M,2200.00,6000.00,M,M
DKK,2018-01-02 07:45,-79.2720,42.4933,M,M,M,270.00,17.00,30.39,M,M,10.00,M,2200.00,3300.00,6000.00,M
DKK,2018-01-02 07:50,-79.2720,42.4933,M,M,M,270.00,12.00,30.39,M,M,10.00,M,2400.00,2800.00,6000.00,M
DKK,2018-01-02 07:53,-79.2720,42.4933,19.00,10.00,67.46,270.00,14.00,30.39,1030.40,0.00,10.00,24.00,2400.00,3000.00,6000.00,M
DKK,2018-01-02 07:55,-79.2720,42.4933,M,M,M,280.00,13.00,30.39,M,M,10.00,19.00,2400.00,3000.00,6000.00,M
DKK,2018-01-02 08:00,-79.2720,42.4933,M,M,M,280.00,13.00,30.39,M,M,10.00,M,2200.00,2900.00,6000.00,M
DKK,2018-01-02 08:05,-79.2720,42.4933,M,M,M,270.00,14.00,30.39,M,M,10.00,20.00,2300.00,3700.00,6000.00,M
DKK,2018-01-02 08:10,-79.2720,42.4933,M,M,M,290.00,12.00,30.39,M,M,10.00,19.00,2500.00,3700.00,6000.00,M
DKK,2018-01-02 08:15,-79.2720,42.4933,M,M,M,280.00,11.00,30.39,M,M,10.00,M,2300.00,2900.00,6000.00,M
DKK,2018-01-02 08:20,-79.2720,42.4933,M,M,M,280.00,17.00,30.39,M,M,10.00,M,1999.00,3100.00,6000.00,M
DKK,2018-01-02 08:25,-79.2720,42.4933,M,M,M,280.00,14.00,30.39,M,M,10.00,M,1999.00,2700.00,6000.00,M
DKK,2018-01-02 08:28,-79.2720,42.4933,19.00,12.00,73.73,270.00,14.00,30.39,M,0.00,10.00,26.00,2400.00,3200.00,4000.00,M
DKK,2018-01-02 08:30,-79.2720,42.4933,M,M,M,270.00,17.00,30.39,M,M,10.00,M,2100.00,3200.00,6000.00,M
DKK,2018-01-02 08:35,-79.2720,42.4933,M,M,M,260.00,12.00,30.39,M,M,10.00,M,2200.00,2900.00,3500.00,M
DKK,2018-01-02 08:40,-79.2720,42.4933,M,M,M,260.00,14.00,30.39,M,M,10.00,19.00,2200.00,2900.00,3500.00,M
DKK,2018-01-02 08:45,-79.2720,42.4933,M,M,M,270.00,13.00,30.39,M,M,10.00,18.00,2200.00,2900.00,M,M
DKK,2018-01-02 08:50,-79.2720,42.4933,M,M,M,280.00,15.00,30.39,M,M,10.00,M,1800.00,2300.00,2900.00,M
DKK,2018-01-02 08:53,-79.2720,42.4933,19.00,12.00,73.73,270.00,11.00,30.39,1030.40,0.00,10.00,22.00,1800.00,2700.00,M,M
DKK,2018-01-02 08:55,-79.2720,42.4933,M,M,M,280.00,16.00,30.39,M,M,10.00,M,1800.00,2700.00,M,M
DKK,2018-01-02 09:00,-79.2720,42.4933,M,M,M,280.00,17.00,30.39,M,M,10.00,22.00,1900.00,2700.00,M,M
DKK,2018-01-02 09:05,-79.2720,42.4933,M,M,M,280.00,16.00,30.39,M,M,10.00,22.00,2200.00,2600.00,3100.00,M
DKK,2018-01-02 09:10,-79.2720,42.4933,M,M,M,270.00,14.00,30.39,M,M,10.00,M,1900.00,2600.00,3300.00,M
DKK,2018-01-02 09:15,-79.2720,42.4933,M,M,M,270.00,12.00,30.39,M,M,10.00,M,1900.00,2600.00,3300.00,M
DKK,2018-01-02 09:20,-79.2720,42.4933,M,M,M,260.00,14.00,30.39,M,M,10.00,M,1900.00,2600.00,3300.00,M
DKK,2018-01-02 09:25,-79.2720,42.4933,M,M,M,260.00,12.00,30.39,M,M,10.00,M,1900.00,2600.00,3300.00,M
DKK,2018-01-02 09:30,-79.2720,42.4933,M,M,M,260.00,14.00,30.39,M,M,10.00,19.00,1900.00,2600.00,3300.00,M
DKK,2018-01-02 09:35,-79.2720,42.4933,M,M,M,260.00,13.00,30.39,M,M,10.00,20.00,1900.00,2600.00,M,M
DKK,2018-01-02 09:40,-79.2720,42.4933,M,M,M,260.00,14.00,30.38,M,M,10.00,23.00,1900.00,2500.00,M,M
DKK,2018-01-02 09:45,-79.2720,42.4933,M,M,M,260.00,14.00,30.38,M,M,10.00,M,1900.00,2500.00,M,M
DKK,2018-01-02 09:50,-79.2720,42.4933,M,M,M,260.00,10.00,30.38,M,M,10.00,15.00,2500.00,M,M,M
DKK,2018-01-02 09:53,-79.2720,42.4933,19.00,10.90,70.22,270.00,11.00,30.38,1030.20,0.00,10.00,21.00,2500.00,M,M,M
DKK,2018-01-02 09:55,-79.2720,42.4933,M,M,M,270.00,16.00,30.39,M,M,10.00,M,2500.00,3200.00,M,M
DKK,2018-01-02 10:00,-79.2720,42.4933,M,M,M,260.00,12.00,30.39,M,M,10.00,17.00,2700.00,3200.00,M,M
DKK,2018-01-02 10:05,-79.2720,42.4933,M,M,M,260.00,15.00,30.39,M,M,10.00,22.00,2700.00,3300.00,M,M
DKK,2018-01-02 10:10,-79.2720,42.4933,M,M,M,250.00,14.00,30.39,M,M,10.00,M,2700.00,3500.00,M,M
DKK,2018-01-02 10:15,-79.2720,42.4933,M,M,M,260.00,12.00,30.39,M,M,10.00,M,1900.00,2400.00,3200.00,M
DKK,2018-01-02 10:20,-79.2720,42.4933,M,M,M,270.00,15.00,30.39,M,M,10.00,20.00,1699.00,2500.00,3000.00,M
DKK,2018-01-02 10:25,-79.2720,42.4933,M,M,M,270.00,14.00,30.39,M,M,10.00,M,1800.00,2500.00,3200.00,M
DKK,2018-01-02 10:30,-79.2720,42.4933,M,M,M,280.00,16.00,30.39,M,M,10.00,M,1800.00,2800.00,M,M
DKK,2018-01-02 10:35,-79.2720,42.4933,M,M,M,290.00,15.00,30.39,M,M,10.00,22.00,1600.00,2100.00,2800.00,M
DKK,2018-01-02 10:40,-79.2720,42.4933,M,M,M,270.00,14.00,30.39,M,M,10.00,M,1900.00,2700.00,M,M
DKK,2018-01-02 10:45,-79.2720,42.4933,M,M,M,270.00,16.00,30.39,M,M,10.00,M,1900.00,2700.00,M,M
DKK,2018-01-02 10:50,-79.2720,42.4933,M,M,M,280.00,15.00,30.38,M,M,10.00,M,1900.00,2600.00,M,M
DKK,2018-01-02 10:53,-79.2720,42.4933,18.00,12.00,76.97,270.00,16.00,30.38,1030.20,0.00,10.00,26.00,1900.00,2600.00,M,M
DKK,2018-01-02 10:55,-79.2720,42.4933,M,M,M,270.00,15.00,30.38,M,M,10.00,M,1900.00,2600.00,M,M
DKK,2018-01-02 11:00,-79.2720,42.4933,M,M,M,270.00,14.00,30.38,M,M,10.00,M,1900.00,2400.00,M,M
DKK,2018-01-02 11:05,-79.2720,42.4933,M,M,M,260.00,14.00,30.38,M,M,10.00,20.00,1699.00,2100.00,2600.00,M
DKK,2018-01-02 11:10,-79.2720,42.4933,M,M,M,270.00,14.00,30.38,M,M,10.00,19.00,1900.00,M,M,M
DKK,2018-01-02 11:15,-79.2720,42.4933,M,M,M,260.00,12.00,30.39,M,M,10.00,M,1900.00,2400.00,M,M
DKK,2018-01-02 11:20,-79.2720,42.4933,M,M,M,230.00,16.00,30.39,M,M,8.00,M,1600.00,2200.00,M,-SN
DKK,2018-01-02 11:25,-79.2720,42.4933,M,M,M,230.00,13.00,30.39,M,M,5.00,18.00,1600.00,M,M,-SN
DKK,2018-01-02 11:30,-79.2720,42.4933,M,M,M,230.00,14.00,30.39,M,M,4.00,M,1600.00,1999.00,M,-SN
DKK,2018-01-02 11:35,-79.2720,42.4933,M,M,M,220.00,13.00,30.39,M,M,3.00,M,1400.00,M,M,-SN
DKK,2018-01-02 11:37,-79.2720,42.4933,15.10,10.90,83.11,230.00,16.00,30.39,M,T,2.50,20.00,1400.00,M,M,-SN BR
DKK,2018-01-02 11:40,-79.2720,42.4933,M,M,M,230.00,14.00,30.39,M,M,2.50,M,1400.00,M,M,-SN BR
DKK,2018-01-02 11:45,-79.2720,42.4933,M,M,M,220.00,16.00,30.38,M,M,2.00,M,1400.00,M,M,-SN
DKK,2018-01-02 11:50,-79.2720,42.4933,M,M,M,220.00,13.00,30.39,M,M,1.75,18.00,1400.00,M,M,-SN
DKK,2018-01-02 11:53,-79.2720,42.4933,15.10,10.00,79.84,230.00,14.00,30.39,1030.40,T,1.75,22.00,1400.00,M,M,-SN
DKK,2018-01-02 11:55,-79.2720,42.4933,M,M,M,220.00,15.00,30.39,M,M,1.75,M,1400.00,M,M,-SN
DKK,2018-01-02 12:00,-79.2720,42.4933,M,M,M,220.00,14.00,30.39,M,M,2.00,M,1400.00,M,M,-SN
DKK,2018-01-02 12:02,-79.2720,42.4933,15.10,10.00,79.84,230.00,12.00,30.39,M,T,2.00,24.00,1500.00,M,M,-SN
DKK,2018-01-02 12:05,-79.2720,42.4933,M,M,M,220.00,13.00,30.39,M,M,2.00,M,1500.00,M,M,-SN
DKK,2018-01-02 12:10,-79.2720,42.4933,M,M,M,230.00,12.00,30.39,M,M,2.50,M,1500.00,M,M,-SN
DKK,2018-01-02 12:15,-79.2720,42.4933,M,M,M,220.00,13.00,30.38,M,M,2.50,M,1500.00,M,M,-SN
DKK,2018-01-02 12:20,-79.2720,42.4933,M,M,M,230.00,15.00,30.38,M,M,2.50,M,1600.00,M,M,-SN
DKK,2018-01-02 12:25,-79.2720,42.4933,M,M,M,220.00,16.00,30.38,M,M,3.00,M,1600.00,M,M,-SN
DKK,2018-01-02 12:29,-79.2720,42.4933,14.00,9.00,80.10,210.00,15.00,30.39,M,T,3.00,M,1600.00,M,M,-SN
DKK,2018-01-02 12:30,-79.2720,42.4933,M,M,M,210.00,14.00,30.38,M,M,4.00,M,1600.00,M,M,-SN
DKK,2018-01-02 12:35,-79.2720,42.4933,M,M,M,210.00,15.00,30.38,M,M,4.00,M,1699.00,M,M,-SN
DKK,2018-01-02 12:40,-79.2720,42.4933,M,M,M,210.00,15.00,30.38,M,M,4.00,M,1699.00,M,M,-SN
DKK,2018-01-02 12:45,-79.2720,42.4933,M,M,M,220.00,16.00,30.38,M,M,3.50,M,1699.00,M,M,-SN
DKK,2018-01-02 12:50,-79.2720,42.4933,M,M,M,220.00,15.00,30.38,M,M,4.00,M,1699.00,M,M,-SN
DKK,2018-01-02 12:53,-79.2720,42.4933,14.00,8.10,76.92,210.00,14.00,30.38,1030.10,T,4.00,M,1700.00,M,M,-SN
DKK,2018-01-02 12:55,-79.2720,42.4933,M,M,M,210.00,13.00,30.38,M,M,5.00,M,1699.00,M,M,-SN
DKK,2018-01-02 13:00,-79.2720,42.4933,M,M,M,210.00,14.00,30.38,M,M,6.00,M,1699.00,M,M,-SN
DKK,2018-01-02 13:05,-79.2720,42.4933,M,M,M,210.00,13.00,30.38,M,M,7.00,M,1699.00,M,M,-SN
DKK,2018-01-02 13:10,-79.2720,42.4933,M,M,M,210.00,14.00,30.38,M,M,8.00,M,1800.00,M,M,-SN
DKK,2018-01-02 13:15,-79.2720,42.4933,M,M,M,210.00,17.00,30.38,M,M,7.00,M,1800.00,M,M,-SN
DKK,2018-01-02 13:20,-79.2720,42.4933,M,M,M,210.00,15.00,30.38,M,M,5.00,M,1999.00,2400.00,M,-SN
DKK,2018-01-02 13:25,-79.2720,42.4933,M,M,M,210.00,14.00,30.38,M,M,3.00,M,1900.00,2500.00,M,-SN
DKK,2018-01-02 13:30,-79.2720,42.4933,M,M,M,210.00,14.00,30.38,M,M,2.50,M,2200.00,M,M,-SN
DKK,2018-01-02 13:35,-79.2720,42.4933,14.00,8.10,76.92,210.00,13.00,30.38,M,T,2.50,23.00,2200.00,M,M,-SN
DKK,2018-01-02 13:40,-79.2720,42.4933,M,M,M,210.00,12.00,30.38,M,M,4.00,M,2200.00,M,M,-SN
DKK,2018-01-02 13:44,-79.2720,42.4933,14.00,8.10,76.92,220.00,14.00,30.38,M,T,5.00,M,2300.00,M,M,-SN
DKK,2018-01-02 13:45,-79.2720,42.4933,M,M,M,210.00,14.00,30.38,M,M,5.00,M,2300.00,M,M,-SN
DKK,2018-01-02 13:50,-79.2720,42.4933,M,M,M,210.00,17.00,30.38,M,M,4.00,M,2300.00,M,M,-SN
DKK,2018-01-02 13:53,-79.2720,42.4933,14.00,8.10,76.92,210.00,15.00,30.38,1030.10,T,3.00,23.00,2500.00,M,M,-SN
DKK,2018-01-02 13:55,-79.2720,42.4933,M,M,M,210.00,16.00,30.38,M,M,3.00,M,2500.00,2900.00,M,-SN
DKK,2018-01-02 14:00,-79.2720,42.4933,M,M,M,210.00,15.00,30.38,M,M,2.00,M,2500.00,M,M,-SN
DKK,2018-01-02 14:02,-79.2720,42.4933,12.90,8.10,80.74,210.00,16.00,30.38,M,T,1.75,M,2500.00,2900.00,M,-SN
DKK,2018-01-02 14:05,-79.2720,42.4933,M,M,M,210.00,18.00,30.38,M,M,1.50,M,2500.00,M,M,-SN
DKK,2018-01-02 14:10,-79.2720,42.4933,M,M,M,210.00,16.00,30.37,M,M,1.25,M,2500.00,M,M,-SN BR
DKK,2018-01-02 14:15,-79.2720,42.4933,M,M,M,210.00,17.00,30.37,M,M,1.25,M,2500.00,M,M,-SN
DKK,2018-01-02 14:20,-79.2720,42.4933,M,M,M,210.00,17.00,30.37,M,M,1.50,M,2500.00,M,M,-SN
DKK,2018-01-02 14:25,-79.2720,42.4933,M,M,M,210.00,16.00,30.37,M,M,1.50,M,2700.00,M,M,-SN
DKK,2018-01-02 14:30,-79.2720,42.4933,M,M,M,210.00,18.00,30.37,M,M,1.75,M,2700.00,M,M,-SN
DKK,2018-01-02 14:35,-79.2720,42.4933,M,M,M,210.00,17.00,30.37,M,M,1.75,M,2700.00,M,M,-SN
DKK,2018-01-02 14:40,-79.2720,42.4933,M,M,M,210.00,19.00,30.37,M,M,1.75,M,2700.00,M,M,-SN
DKK,2018-01-02 14:45,-79.2720,42.4933,M,M,M,210.00,17.00,30.37,M,M,1.75,M,2800.00,M,M,-SN
DKK,2018-01-02 14:50,-79.2720,42.4933,M,M,M,220.00,18.00,30.37,M,M,1.50,M,2800.00,M,M,-SN
DKK,2018-01-02 14:53,-79.2720,42.4933,14.00,9.00,80.10,220.00,19.00,30.37,1029.80,T,1.75,28.00,2800.00,M,M,-SN
DKK,2018-01-02 14:55,-79.2720,42.4933,M,M,M,210.00,17.00,30.37,M,M,1.75,M,2800.00,M,M,-SN
DKK,2018-01-02 15:00,-79.2720,42.4933,M,M,M,M,M,30.37,M,M,2.00,M,2900.00,M,M,-SN
DKK,2018-01-02 15:03,-79.2720,42.4933,14.00,8.10,76.92,220.00,17.00,30.37,M,T,2.00,25.00,2900.00,M,M,-SN
DKK,2018-01-02 15:05,-79.2720,42.4933,M,M,M,220.00,19.00,30.37,M,M,1.75,M,2900.00,M,M,-SN
DKK,2018-01-02 15:10,-79.2720,42.4933,M,M,M,210.00,18.00,30.37,M,M,1.50,M,2900.00,M,M,-SN
DKK,2018-01-02 15:11,-79.2720,42.4933,14.00,8.10,76.92,210.00,19.00,30.37,M,T,1.50,26.00,2900.00,M,M,-SN
DKK,2018-01-02 15:15,-79.2720,42.4933,M,M,M,220.00,19.00,30.37,M,M,1.50,M,2900.00,M,M,-SN
DKK,2018-01-02 15:20,-79.2720,42.4933,M,M,M,220.00,18.00,30.38,M,M,2.00,M,2900.00,M,M,-SN
DKK,2018-01-02 15:25,-79.2720,42.4933,M,M,M,220.00,16.00,30.38,M,M,2.00,M,2900.00,M,M,-SN
DKK,2018-01-02 15:26,-79.2720,42.4933,14.00,8.10,76.92,220.00,17.00,30.38,M,T,2.00,28.00,2800.00,M,M,-SN
DKK,2018-01-02 15:30,-79.2720,42.4933,M,M,M,220.00,16.00,30.37,M,M,2.00,M,2800.00,M,M,-SN
DKK,2018-01-02 15:35,-79.2720,42.4933,M,M,M,220.00,18.00,30.38,M,M,1.50,M,2800.00,M,M,-SN
DKK,2018-01-02 15:38,-79.2720,42.4933,15.10,8.10,73.31,220.00,15.00,30.37,M,T,1.50,26.00,2800.00,M,M,-SN
DKK,2018-01-02 15:40,-79.2720,42.4933,M,M,M,220.00,19.00,30.37,M,M,1.50,M,2800.00,M,M,-SN
DKK,2018-01-02 15:45,-79.2720,42.4933,M,M,M,230.00,19.00,30.37,M,M,1.50,M,2800.00,M,M,-SN
DKK,2018-01-02 15:50,-79.2720,42.4933,M,M,M,210.00,24.00,30.37,M,M,1.50,M,2800.00,M,M,-SN
DKK,2018-01-02 15:53,-79.2720,42.4933,15.10,8.10,73.31,220.00,23.00,30.37,1029.80,T,1.50,32.00,2800.00,M,M,-SN
DKK,2018-01-02 15:55,-79.2720,42.4933,M,M,M,220.00,17.00,30.37,M,M,1.50,M,2800.00,M,M,-SN
DKK,2018-01-02 16:00,-79.2720,42.4933,M,M,M,M,M,30.37,M,M,2.50,M,2800.00,M,M,-SN
DKK,2018-01-02 16:05,-79.2720,42.4933,15.10,8.10,73.31,230.00,21.00,30.36,M,T,2.50,30.00,2800.00,M,M,-SN
DKK,2018-01-02 16:10,-79.2720,42.4933,M,M,M,M,M,30.36,M,M,2.00,M,2800.00,M,M,-SN
DKK,2018-01-02 16:15,-79.2720,42.4933,M,M,M,M,M,30.36,M,M,2.00,M,2800.00,M,M,-SN
DKK,2018-01-02 16:20,-79.2720,42.4933,M,M,M,220.00,21.00,30.36,M,M,1.75,M,2800.00,M,M,-SN
DKK,2018-01-02 16:22,-79.2720,42.4933,15.10,8.10,73.31,220.00,22.00,30.36,M,T,1.75,32.00,2800.00,M,M,-SN
DKK,2018-01-02 16:25,-79.2720,42.4933,M,M,M,220.00,20.00,30.36,M,M,2.00,M,2800.00,M,M,-SN
DKK,2018-01-02 16:30,-79.2720,42.4933,M,M,M,220.00,15.00,30.35,M,M,2.50,M,2800.00,M,M,-SN
DKK,2018-01-02 16:31,-79.2720,42.4933,15.10,8.10,73.31,230.00,18.00,30.35,M,T,2.50,30.00,2800.00,M,M,-SN
DKK,2018-01-02 16:35,-79.2720,42.4933,M,M,M,M,M,30.35,M,M,2.00,M,2800.00,M,M,-SN
DKK,2018-01-02 16:40,-79.2720,42.4933,M,M,M,230.00,20.00,30.35,M,M,1.75,M,2800.00,M,M,-SN
DKK,2018-01-02 16:44,-79.2720,42.4933,15.10,7.00,69.75,230.00,21.00,30.35,M,T,1.75,32.00,2800.00,M,M,-SN
DKK,2018-01-02 16:45,-79.2720,42.4933,M,M,M,230.00,20.00,30.35,M,M,1.75,M,2800.00,M,M,-SN
DKK,2018-01-02 16:50,-79.2720,42.4933,M,M,M,230.00,19.00,30.34,M,M,1.75,M,2800.00,M,M,-SN
DKK,2018-01-02 16:53,-79.2720,42.4933,14.00,7.00,73.19,220.00,22.00,30.34,1028.70,T,1.50,29.00,2800.00,M,M,-SN
DKK,2018-01-02 16:55,-79.2720,42.4933,M,M,M,220.00,22.00,30.34,M,M,1.25,M,2800.00,M,M,-SN
DKK,2018-01-02 17:00,-79.2720,42.4933,M,M,M,220.00,20.00,30.33,M,M,1.25,M,2800.00,M,M,-SN
DKK,2018-01-02 17:05,-79.2720,42.4933,M,M,M,220.00,23.00,30.33,M,M,1.00,M,2800.00,M,M,-SN
DKK,2018-01-02 17:10,-79.2720,42.4933,M,M,M,220.00,20.00,30.33,M,M,1.00,M,2600.00,M,M,-SN
DKK,2018-01-02 17:11,-79.2720,42.4933,14.00,7.00,73.19,220.00,19.00,30.33,M,T,1.00,34.00,2600.00,M,M,-SN
DKK,2018-01-02 17:15,-79.2720,42.4933,M,M,M,230.00,19.00,30.33,M,M,1.25,M,2600.00,M,M,-SN
DKK,2018-01-02 17:20,-79.2720,42.4933,14.00,7.00,73.19,230.00,20.00,30.32,M,T,1.75,29.00,2600.00,M,M,-SN
DKK,2018-01-02 17:25,-79.2720,42.4933,M,M,M,220.00,20.00,30.32,M,M,1.50,M,2400.00,M,M,-SN
DKK,2018-01-02 17:30,-79.2720,42.4933,M,M,M,220.00,20.00,30.32,M,M,1.25,M,2400.00,M,M,-SN
DKK,2018-01-02 17:35,-79.2720,42.4933,M,M,M,230.00,18.00,30.32,M,M,1.25,M,2400.00,M,M,-SN
DKK,2018-01-02 17:40,-79.2720,42.4933,M,M,M,M,M,30.31,M,M,1.25,M,2300.00,M,M,-SN
DKK,2018-01-02 17:45,-79.2720,42.4933,M,M,M,230.00,17.00,30.32,M,M,1.50,M,2300.00,M,M,-SN
DKK,2018-01-02 17:50,-79.2720,42.4933,M,M,M,220.00,19.00,30.32,M,M,1.75,M,2300.00,M,M,-SN
DKK,2018-01-02 17:53,-79.2720,42.4933,14.00,7.00,73.19,220.00,19.00,30.32,1028.00,T,2.00,31.00,2300.00,M,M,-SN
DKK,2018-01-02 17:55,-79.2720,42.4933,M,M,M,230.00,21.00,30.32,M,M,2.00,M,2300.00,M,M,-SN
DKK,2018-01-02 18:00,-79.2720,42.4933,M,M,M,230.00,18.00,30.32,M,M,2.00,M,2300.00,M,M,-SN
DKK,2018-01-02 18:05,-79.2720,42.4933,M,M,M,220.00,20.00,30.32,M,M,2.00,M,2300.00,M,M,-SN
DKK,2018-01-02 18:10,-79.2720,42.4933,M,M,M,230.00,16.00,30.32,M,M,2.00,M,2300.00,M,M,-SN
DKK,2018-01-02 18:15,-79.2720,42.4933,M,M,M,230.00,19.00,30.31,M,M,2.00,M,2300.00,M,M,-SN
DKK,2018-01-02 18:20,-79.2720,42.4933,M,M,M,230.00,19.00,30.31,M,M,2.00,M,2300.00,M,M,-SN
DKK,2018-01-02 18:25,-79.2720,42.4933,M,M,M,220.00,22.00,30.31,M,M,2.50,M,2300.00,M,M,-SN
DKK,2018-01-02 18:30,-79.2720,42.4933,M,M,M,230.00,15.00,30.31,M,M,2.50,M,2300.00,M,M,-SN
DKK,2018-01-02 18:35,-79.2720,42.4933,M,M,M,230.00,18.00,30.31,M,M,2.50,M,2300.00,M,M,-SN
DKK,2018-01-02 18:40,-79.2720,42.4933,M,M,M,220.00,19.00,30.31,M,M,2.50,M,2300.00,M,M,-SN
DKK,2018-01-02 18:45,-79.2720,42.4933,M,M,M,220.00,19.00,30.31,M,M,2.50,M,2300.00,M,M,-SN
DKK,2018-01-02 18:50,-79.2720,42.4933,M,M,M,220.00,21.00,30.31,M,M,2.50,M,2400.00,M,M,-SN
DKK,2018-01-02 18:53,-79.2720,42.4933,12.90,6.10,73.74,220.00,19.00,30.30,1027.60,T,3.00,26.00,2400.00,M,M,-SN
DKK,2018-01-02 18:55,-79.2720,42.4933,M,M,M,230.00,18.00,30.30,M,M,3.00,M,2400.00,M,M,-SN
DKK,2018-01-02 19:00,-79.2720,42.4933,M,M,M,230.00,21.00,30.30,M,M,4.00,M,2400.00,M,M,-SN
DKK,2018-01-02 19:05,-79.2720,42.4933,M,M,M,220.00,19.00,30.30,M,M,5.00,M,2400.00,M,M,-SN
DKK,2018-01-02 19:10,-79.2720,42.4933,M,M,M,220.00,17.00,30.30,M,M,6.00,M,2400.00,M,M,-SN
DKK,2018-01-02 19:15,-79.2720,42.4933,M,M,M,210.00,19.00,30.30,M,M,8.00,M,2500.00,M,M,M
DKK,2018-01-02 19:20,-79.2720,42.4933,M,M,M,220.00,19.00,30.30,M,M,8.00,M,2500.00,M,M,M
DKK,2018-01-02 19:25,-79.2720,42.4933,M,M,M,220.00,20.00,30.30,M,M,8.00,M,2500.00,M,M,M
DKK,2018-01-02 19:30,-79.2720,42.4933,M,M,M,220.00,17.00,30.30,M,M,9.00,M,2700.00,M,M,M
DKK,2018-01-02 19:35,-79.2720,42.4933,M,M,M,220.00,21.00,30.30,M,M,10.00,M,2700.00,M,M,M
DKK,2018-01-02 19:40,-79.2720,42.4933,M,M,M,220.00,15.00,30.30,M,M,9.00,M,2700.00,M,M,M
DKK,2018-01-02 19:45,-79.2720,42.4933,M,M,M,210.00,17.00,30.30,M,M,9.00,M,2700.00,M,M,M
DKK,2018-01-02 19:50,-79.2720,42.4933,M,M,M,220.00,14.00,30.30,M,M,10.00,M,2700.00,M,M,M
DKK,2018-01-02 19:53,-79.2720,42.4933,14.00,3.90,63.53,220.00,15.00,30.30,1027.20,T,10.00,23.00,2700.00,M,M,M
DKK,2018-01-02 19:55,-79.2720,42.4933,M,M,M,220.00,15.00,30.30,M,M,10.00,M,2700.00,M,M,M
DKK,2018-01-02 20:00,-79.2720,42.4933,M,M,M,220.00,14.00,30.30,M,M,10.00,M,2900.00,M,M,M
DKK,2018-01-02 20:05,-79.2720,42.4933,M,M,M,230.00,16.00,30.29,M,M,10.00,M,2900.00,M,M,M
DKK,2018-01-02 20:10,-79.2720,42.4933,M,M,M,230.00,14.00,30.29,M,M,10.00,M,2900.00,M,M,M
DKK,2018-01-02 20:15,-79.2720,42.4933,M,M,M,230.00,15.00,30.29,M,M,10.00,M,2900.00,M,M,M
DKK,2018-01-02 20:20,-79.2720,42.4933,M,M,M,230.00,17.00,30.29,M,M,10.00,M,2900.00,M,M,M
DKK,2018-01-02 20:25,-79.2720,42.4933,M,M,M,240.00,15.00,30.29,M,M,10.00,M,2900.00,M,M,M
DKK,2018-01-02 20:30,-79.2720,42.4933,M,M,M,230.00,17.00,30.29,M,M,10.00,M,2900.00,M,M,M
DKK,2018-01-02 20:33,-79.2720,42.4933,14.00,3.00,60.94,230.00,18.00,30.29,M,0.00,10.00,27.00,2900.00,M,M,M
DKK,2018-01-02 20:35,-79.2720,42.4933,M,M,M,230.00,16.00,30.29,M,M,10.00,M,2900.00,M,M,M
DKK,2018-01-02 20:40,-79.2720,42.4933,M,M,M,230.00,16.00,30.29,M,M,10.00,M,3100.00,M,M,M
DKK,2018-01-02 20:45,-79.2720,42.4933,M,M,M,230.00,14.00,30.29,M,M,10.00,19.00,3100.00,M,M,M
DKK,2018-01-02 20:50,-79.2720,42.4933,M,M,M,230.00,17.00,30.29,M,M,10.00,M,3100.00,M,M,M
DKK,2018-01-02 20:53,-79.2720,42.4933,14.00,3.00,60.94,220.00,17.00,30.29,1027.00,0.00,10.00,24.00,3000.00,M,M,M
DKK,2018-01-02 20:55,-79.2720,42.4933,M,M,M,220.00,17.00,30.29,M,M,10.00,M,3000.00,M,M,M
DKK,2018-01-02 21:00,-79.2720,42.4933,M,M,M,230.00,16.00,30.29,M,M,10.00,M,3000.00,M,M,M
DKK,2018-01-02 21:05,-79.2720,42.4933,M,M,M,220.00,18.00,30.29,M,M,10.00,M,3000.00,M,M,M
DKK,2018-01-02 21:10,-79.2720,42.4933,M,M,M,230.00,13.00,30.29,M,M,10.00,M,3100.00,M,M,M
DKK,2018-01-02 21:15,-79.2720,42.4933,M,M,M,220.00,13.00,30.29,M,M,10.00,M,3100.00,M,M,M
DKK,2018-01-02 21:20,-79.2720,42.4933,M,M,M,220.00,15.00,30.29,M,M,10.00,M,3100.00,M,M,M
DKK,2018-01-02 21:25,-79.2720,42.4933,M,M,M,220.00,13.00,30.29,M,M,10.00,M,3100.00,M,M,M
DKK,2018-01-02 21:30,-79.2720,42.4933,M,M,M,210.00,14.00,30.29,M,M,10.00,M,3200.00,M,M,M
DKK,2018-01-02 21:35,-79.2720,42.4933,M,M,M,210.00,13.00,30.29,M,M,10.00,M,3200.00,M,M,M
DKK,2018-01-02 21:40,-79.2720,42.4933,M,M,M,210.00,16.00,30.28,M,M,10.00,M,3200.00,M,M,M
DKK,2018-01-02 21:45,-79.2720,42.4933,M,M,M,210.00,12.00,30.28,M,M,10.00,M,3200.00,M,M,M
DKK,2018-01-02 21:50,-79.2720,42.4933,M,M,M,210.00,13.00,30.28,M,M,10.00,M,3200.00,M,M,M
DKK,2018-01-02 21:53,-79.2720,42.4933,12.90,1.90,60.78,210.00,15.00,30.28,1026.60,0.00,10.00,21.00,3200.00,M,M,M
DKK,2018-01-02 21:55,-79.2720,42.4933,M,M,M,210.00,15.00,30.28,M,M,10.00,M,3200.00,M,M,M
DKK,2018-01-02 22:00,-79.2720,42.4933,M,M,M,210.00,13.00,30.27,M,M,10.00,M,3200.00,M,M,M
DKK,2018-01-02 22:05,-79.2720,42.4933,M,M,M,210.00,13.00,30.27,M,M,10.00,M,3200.00,M,M,M
DKK,2018-01-02 22:10,-79.2720,42.4933,M,M,M,210.00,13.00,30.27,M,M,10.00,M,3200.00,M,M,M
DKK,2018-01-02 22:15,-79.2720,42.4933,M,M,M,210.00,11.00,30.27,M,M,10.00,M,3200.00,M,M,M
DKK,2018-01-02 22:20,-79.2720,42.4933,M,M,M,200.00,12.00,30.27,M,M,10.00,M,3200.00,M,M,M
DKK,2018-01-02 22:25,-79.2720,42.4933,M,M,M,200.00,12.00,30.27,M,M,10.00,M,3200.00,M,M,M
DKK,2018-01-02 22:30,-79.2720,42.4933,M,M,M,200.00,12.00,30.26,M,M,10.00,M,3200.00,M,M,M
DKK,2018-01-02 22:35,-79.2720,42.4933,M,M,M,200.00,12.00,30.26,M,M,10.00,M,3200.00,M,M,M
DKK,2018-01-02 22:40,-79.2720,42.4933,M,M,M,210.00,11.00,30.26,M,M,10.00,M,3200.00,M,M,M
DKK,2018-01-02 22:45,-79.2720,42.4933,M,M,M,210.00,10.00,30.26,M,M,10.00,M,3200.00,M,M,M
DKK,2018-01-02 22:50,-79.2720,42.4933,M,M,M,210.00,9.00,30.26,M,M,10.00,14.00,3200.00,M,M,M
DKK,2018-01-02 22:53,-79.2720,42.4933,12.00,0.00,57.88,210.00,12.00,30.26,1025.90,0.00,10.00,M,3200.00,M,M,M
DKK,2018-01-02 22:55,-79.2720,42.4933,M,M,M,210.00,12.00,30.25,M,M,10.00,M,3200.00,M,M,M
DKK,2018-01-02 23:00,-79.2720,42.4933,M,M,M,210.00,10.00,30.25,M,M,10.00,M,M,M,M,M
DKK,2018-01-02 23:05,-79.2720,42.4933,M,M,M,210.00,11.00,30.25,M,M,10.00,M,M,M,M,M
DKK,2018-01-02 23:10,-79.2720,42.4933,M,M,M,220.00,11.00,30.25,M,M,10.00,M,M,M,M,M
DKK,2018-01-02 23:15,-79.2720,42.4933,M,M,M,210.00,13.00,30.25,M,M,10.00,18.00,M,M,M,M
DKK,2018-01-02 23:20,-79.2720,42.4933,M,M,M,210.00,14.00,30.25,M,M,10.00,M,M,M,M,M
DKK,2018-01-02 23:25,-79.2720,42.4933,M,M,M,210.00,15.00,30.25,M,M,10.00,M,M,M,M,M
DKK,2018-01-02 23:30,-79.2720,42.4933,M,M,M,220.00,14.00,30.25,M,M,10.00,M,M,M,M,M
DKK,2018-01-02 23:35,-79.2720,42.4933,M,M,M,210.00,15.00,30.25,M,M,10.00,M,M,M,M,M
DKK,2018-01-02 23:40,-79.2720,42.4933,M,M,M,220.00,15.00,30.25,M,M,10.00,20.00,M,M,M,M
DKK,2018-01-02 23:45,-79.2720,42.4933,M,M,M,220.00,15.00,30.25,M,M,10.00,M,M,M,M,M
DKK,2018-01-02 23:50,-79.2720,42.4933,M,M,M,220.00,15.00,30.25,M,M,10.00,21.00,M,M,M,M
DKK,2018-01-02 23:53,-79.2720,42.4933,12.90,0.00,55.62,220.00,14.00,30.25,1025.70,0.00,10.00,22.00,M,M,M,M
DKK,2018-01-02 23:55,-79.2720,42.4933,M,M,M,210.00,16.00,30.25,M,M,10.00,M,M,M,M,M
DKK,2018-01-03 00:00,-79.2720,42.4933,M,M,M,220.00,13.00,30.25,M,M,10.00,M,M,M,M,M
DKK,2018-01-03 00:05,-79.2720,42.4933,M,M,M,220.00,15.00,30.25,M,M,10.00,20.00,M,M,M,M
DKK,2018-01-03 00:10,-79.2720,42.4933,M,M,M,220.00,13.00,30.25,M,M,10.00,M,M,M,M,M
DKK,2018-01-03 00:15,-79.2720,42.4933,M,M,M,220.00,12.00,30.25,M,M,10.00,M,M,M,M,M
DKK,2018-01-03 00:20,-79.2720,42.4933,M,M,M,220.00,15.00,30.25,M,M,10.00,M,M,M,M,M
DKK,2018-01-03 00:25,-79.2720,42.4933,M,M,M,220.00,16.00,30.25,M,M,10.00,M,M,M,M,M
DKK,2018-01-03 00:30,-79.2720,42.4933,M,M,M,220.00,14.00,30.24,M,M,10.00,M,M,M,M,M
DKK,2018-01-03 00:35,-79.2720,42.4933,M,M,M,220.00,14.00,30.24,M,M,10.00,M,M,M,M,M
DKK,2018-01-03 00:40,-79.2720,42.4933,M,M,M,220.00,14.00,30.24,M,M,10.00,19.00,M,M,M,M
DKK,2018-01-03 00:45,-79.2720,42.4933,M,M,M,220.00,18.00,30.24,M,M,10.00,M,M,M,M,M
DKK,2018-01-03 00:50,-79.2720,42.4933,M,M,M,220.00,16.00,30.24,M,M,10.00,M,M,M,M,M
DKK,2018-01-03 00:53,-79.2720,42.4933,12.90,0.00,55.62,220.00,16.00,30.24,1025.30,0.00,10.00,25.00,M,M,M,M
DKK,2018-01-03 00:55,-79.2720,42.4933,M,M,M,220.00,15.00,30.24,M,M,10.00,M,M,M,M,M
DKK,2018-01-03 01:00,-79.2720,42.4933,M,M,M,210.00,16.00,30.24,M,M,10.00,M,M,M,M,M
DKK,2018-01-03 01:05,-79.2720,42.4933,M,M,M,220.00,13.00,30.24,M,M,10.00,M,M,M,M,M
DKK,2018-01-03 01:10,-79.2720,42.4933,M,M,M,220.00,19.00,30.23,M,M,10.00,M,M,M,M,M
DKK,2018-01-03 01:15,-79.2720,42.4933,M,M,M,220.00,16.00,30.23,M,M,10.00,M,M,M,M,M
DKK,2018-01-03 01:20,-79.2720,42.4933,M,M,M,220.00,16.00,30.23,M,M,10.00,M,M,M,M,M
DKK,2018-01-03 01:25,-79.2720,42.4933,M,M,M,220.00,20.00,30.23,M,M,10.00,M,M,M,M,M
DKK,2018-01-03 01:30,-79.2720,42.4933,M,M,M,220.00,15.00,30.23,M,M,10.00,M,M,M,M,M
DKK,2018-01-03 01:35,-79.2720,42.4933,M,M,M,220.00,17.00,30.23,M,M,10.00,M,M,M,M,M
DKK,2018-01-03 01:40,-79.2720,42.4933,M,M,M,220.00,15.00,30.23,M,M,10.00,M,M,M,M,M
DKK,2018-01-03 01:45,-79.2720,42.4933,M,M,M,220.00,13.00,30.23,M,M,10.00,M,M,M,M,M
DKK,2018-01-03 01:50,-79.2720,42.4933,M,M,M,220.00,16.00,30.23,M,M,10.00,M,M,M,M,M
DKK,2018-01-03 01:53,-79.2720,42.4933,12.90,-0.90,53.32,220.00,19.00,30.23,1025.10,0.00,10.00,25.00,M,M,M,M
DKK,2018-01-03 01:55,-79.2720,42.4933,M,M,M,220.00,16.00,30.23,M,M,10.00,M,M,M,M,M
DKK,2018-01-03 02:00,-79.2720,42.4933,M,M,M,220.00,17.00,30.23,M,M,10.00,M,M,M,M,M
DKK,2018-01-03 02:05,-79.2720,42.4933,M,M,M,220.00,15.00,30.23,M,M,10.00,M,M,M,M,M
DKK,2018-01-03 02:10,-79.2720,42.4933,M,M,M,210.00,15.00,30.23,M,M,10.00,M,M,M,M,M
DKK,2018-01-03 02:15,-79.2720,42.4933,M,M,M,220.00,17.00,30.23,M,M,10.00,M,M,M,M,M
DKK,2018-01-03 02:20,-79.2720,42.4933,M,M,M,220.00,19.00,30.23,M,M,10.00,M,M,M,M,M
DKK,2018-01-03 02:25,-79.2720,42.4933,M,M,M,220.00,18.00,30.23,M,M,10.00,M,M,M,M,M
DKK,2018-01-03 02:30,-79.2720,42.4933,M,M,M,210.00,14.00,30.23,M,M,10.00,M,M,M,M,M
DKK,2018-01-03 02:35,-79.2720,42.4933,M,M,M,220.00,14.00,30.23,M,M,10.00,M,M,M,M,M
DKK,2018-01-03 02:40,-79.2720,42.4933,M,M,M,210.00,16.00,30.23,M,M,10.00,M,M,M,M,M
DKK,2018-01-03 02:45,-79.2720,42.4933,M,M,M,210.00,15.00,30.23,M,M,10.00,M,M,M,M,M
DKK,2018-01-03 02:50,-79.2720,42.4933,M,M,M,210.00,15.00,30.23,M,M,10.00,M,M,M,M,M
DKK,2018-01-03 02:53,-79.2720,42.4933,10.90,-0.90,58.26,220.00,18.00,30.23,1025.10,0.00,10.00,M,M,M,M,M
DKK,2018-01-03 02:55,-79.2720,42.4933,M,M,M,220.00,16.00,30.23,M,M,10.00,M,M,M,M,M
DKK,2018-01-03 03:00,-79.2720,42.4933,M,M,M,210.00,15.00,30.23,M,M,10.00,M,M,M,M,M
DKK,2018-01-03 03:05,-79.2720,42.4933,M,M,M,210.00,15.00,30.23,M,M,10.00,20.00,M,M,M,M
DKK,2018-01-03 03:10,-79.2720,42.4933,M,M,M,220.00,16.00,30.23,M,M,10.00,M,M,M,M,M
DKK,2018-01-03 03:15,-79.2720,42.4933,M,M,M,210.00,16.00,30.23,M,M,10.00,M,M,M,M,M
DKK,2018-01-03 03:20,-79.2720,42.4933,M,M,M,210.00,13.00,30.23,M,M,10.00,M,M,M,M,M
DKK,2018-01-03 03:25,-79.2720,42.4933,M,M,M,210.00,15.00,30.23,M,M,10.00,M,M,M,M,M
DKK,2018-01-03 03:30,-79.2720,42.4933,M,M,M,210.00,14.00,30.23,M,M,10.00,19.00,M,M,M,M
DKK,2018-01-03 03:35,-79.2720,42.4933,M,M,M,220.00,12.00,30.23,M,M,10.00,M,M,M,M,M
DKK,2018-01-03 03:40,-79.2720,42.4933,M,M,M,210.00,12.00,30.23,M,M,10.00,M,M,M,M,M
DKK,2018-01-03 03:45,-79.2720,42.4933,M,M,M,200.00,11.00,30.23,M,M,10.00,M,M,M,M,M
DKK,2018-01-03 03:50,-79.2720,42.4933,M,M,M,200.00,12.00,30.23,M,M,10.00,M,M,M,M,M
DKK,2018-01-03 03:53,-79.2720,42.4933,10.00,-2.00,57.57,200.00,13.00,30.23,1025.20,0.00,10.00,M,M,M,M,M
DKK,2018-01-03 03:55,-79.2720,42.4933,M,M,M,200.00,12.00,30.23,M,M,10.00,M,M,M,M,M
DKK,2018-01-03 04:00,-79.2720,42.4933,M,M,M,210.00,14.00,30.23,M,M,10.00,M,M,M,M,M
DKK,2018-01-03 04:05,-79.2720,42.4933,M,M,M,210.00,16.00,30.23,M,M,10.00,M,M,M,M,M
DKK,2018-01-03 04:10,-79.2720,42.4933,M,M,M,210.00,14.00,30.23,M,M,10.00,M,M,M,M,M
DKK,2018-01-03 04:15,-79.2720,42.4933,M,M,M,210.00,11.00,30.23,M,M,10.00,M,M,M,M,M
DKK,2018-01-03 04:20,-79.2720,42.4933,M,M,M,210.00,13.00,30.23,M,M,10.00,M,M,M,M,M
DKK,2018-01-03 04:25,-79.2720,42.4933,M,M,M,210.00,12.00,30.23,M,M,10.00,M,M,M,M,M
DKK,2018-01-03 04:30,-79.2720,42.4933,M,M,M,210.00,11.00,30.23,M,M,10.00,M,M,M,M,M
DKK,2018-01-03 04:35,-79.2720,42.4933,M,M,M,200.00,11.00,30.23,M,M,10.00,M,M,M,M,M
DKK,2018-01-03 04:40,-79.2720,42.4933,M,M,M,200.00,11.00,30.23,M,M,10.00,M,M,M,M,M
DKK,2018-01-03 04:45,-79.2720,42.4933,M,M,M,200.00,12.00,30.23,M,M,10.00,M,M,M,M,M
DKK,2018-01-03 04:50,-79.2720,42.4933,M,M,M,200.00,12.00,30.23,M,M,10.00,M,M,M,M,M
DKK,2018-01-03 04:53,-79.2720,42.4933,9.00,-2.00,60.21,200.00,13.00,30.23,1025.10,0.00,10.00,M,M,M,M,M
DKK,2018-01-03 04:55,-79.2720,42.4933,M,M,M,200.00,12.00,30.23,M,M,10.00,M,M,M,M,M
DKK,2018-01-03 05:00,-79.2720,42.4933,M,M,M,200.00,13.00,30.23,M,M,10.00,M,M,M,M,M
DKK,2018-01-03 05:05,-79.2720,42.4933,M,M,M,200.00,12.00,30.23,M,M,10.00,M,M,M,M,M
DKK,2018-01-03 05:10,-79.2720,42.4933,M,M,M,210.00,12.00,30.22,M,M,10.00,M,M,M,M,M
DKK,2018-01-03 05:15,-79.2720,42.4933,M,M,M,210.00,12.00,30.22,M,M,10.00,M,M,M,M,M
DKK,2018-01-03 05:20,-79.2720,42.4933,M,M,M,200.00,11.00,30.22,M,M,10.00,M,M,M,M,M
DKK,2018-01-03 05:25,-79.2720,42.4933,M,M,M,200.00,12.00,30.22,M,M,10.00,M,M,M,M,M
DKK,2018-01-03 05:30,-79.2720,42.4933,M,M,M,200.00,12.00,30.21,M,M,10.00,M,M,M,M,M
DKK,2018-01-03 05:35,-79.2720,42.4933,M,M,M,200.00,14.00,30.21,M,M,10.00,M,M,M,M,M
DKK,2018-01-03 05:40,-79.2720,42.4933,M,M,M,200.00,13.00,30.21,M,M,10.00,M,M,M,M,M
DKK,2018-01-03 05:45,-79.2720,42.4933,M,M,M,210.00,12.00,30.21,M,M,10.00,M,M,M,M,M
DKK,2018-01-03 05:50,-79.2720,42.4933,M,M,M,210.00,11.00,30.21,M,M,10.00,M,M,M,M,M
DKK,2018-01-03 05:53,-79.2720,42.4933,8.10,-2.90,60.07,200.00,11.00,30.20,1024.20,0.00,10.00,M,M,M,M,M
DKK,2018-01-03 05:55,-79.2720,42.4933,M,M,M,200.00,12.00,30.20,M,M,10.00,M,M,M,M,M
DKK,2018-01-03 06:00,-79.2720,42.4933,M,M,M,200.00,12.00,30.20,M,M,10.00,M,M,M,M,M
DKK,2018-01-03 06:05,-79.2720,42.4933,M,M,M,200.00,9.00,30.20,M,M,10.00,M,M,M,M,M
DKK,2018-01-03 06:10,-79.2720,42.4933,M,M,M,210.00,10.00,30.20,M,M,10.00,M,M,M,M,M
DKK,2018-01-03 06:15,-79.2720,42.4933,M,M,M,200.00,8.00,30.20,M,M,10.00,M,M,M,M,M
DKK,2018-01-03 06:20,-79.2720,42.4933,M,M,M,200.00,10.00,30.21,M,M,10.00,M,M,M,M,M
DKK,2018-01-03 06:25,-79.2720,42.4933,M,M,M,200.00,10.00,30.20,M,M,10.00,M,M,M,M,M
DKK,2018-01-03 06:30,-79.2720,42.4933,M,M,M,200.00,11.00,30.21,M,M,10.00,M,M,M,M,M
DKK,2018-01-03 06:35,-79.2720,42.4933,M,M,M,200.00,9.00,30.21,M,M,10.00,M,M,M,M,M
DKK,2018-01-03 06:40,-79.2720,42.4933,M,M,M,200.00,10.00,30.20,M,M,10.00,M,M,M,M,M
DKK,2018-01-03 06:45,-79.2720,42.4933,M,M,M,200.00,10.00,30.20,M,M,10.00,M,M,M,M,M
DKK,2018-01-03 06:50,-79.2720,42.4933,M,M,M,210.00,10.00,30.21,M,M,10.00,M,M,M,M,M
DKK,2018-01-03 06:53,-79.2720,42.4933,8.10,-4.00,57.00,210.00,11.00,30.21,1024.40,0.00,10.00,M,M,M,M,M
DKK,2018-01-03 06:55,-79.2720,42.4933,M,M,M,210.00,11.00,30.21,M,M,10.00,M,M,M,M,M
DKK,2018-01-03 07:00,-79.2720,42.4933,M,M,M,200.00,10.00,30.21,M,M,10.00,M,M,M,M,M
DKK,2018-01-03 07:05,-79.2720,42.4933,M,M,M,200.00,10.00,30.21,M,M,10.00,M,M,M,M,M
DKK,2018-01-03 07:10,-79.2720,42.4933,M,M,M,200.00,11.00,30.21,M,M,10.00,M,M,M,M,M
DKK,2018-01-03 07:15,-79.2720,42.4933,M,M,M,200.00,12.00,30.21,M,M,10.00,M,M,M,M,M
DKK,2018-01-03 07:20,-79.2720,42.4933,M,M,M,200.00,10.00,30.20,M,M,10.00,M,M,M,M,M
DKK,2018-01-03 07:25,-79.2720,42.4933,M,M,M,200.00,10.00,30.20,M,M,10.00,M,M,M,M,M
DKK,2018-01-03 07:30,-79.2720,42.4933,M,M,M,200.00,11.00,30.20,M,M,10.00,M,M,M,M,M
DKK,2018-01-03 07:35,-79.2720,42.4933,M,M,M,190.00,11.00,30.20,M,M,10.00,M,M,M,M,M
DKK,2018-01-03 07:40,-79.2720,42.4933,M,M,M,190.00,10.00,30.20,M,M,10.00,M,M,M,M,M
DKK,2018-01-03 07:45,-79.2720,42.4933,M,M,M,200.00,11.00,30.20,M,M,10.00,M,M,M,M,M
DKK,2018-01-03 07:50,-79.2720,42.4933,M,M,M,190.00,11.00,30.20,M,M,10.00,M,M,M,M,M
DKK,2018-01-03 07:53,-79.2720,42.4933,7.00,-4.00,59.91,200.00,10.00,30.20,1024.30,0.00,10.00,M,M,M,M,M
DKK,2018-01-03 07:55,-79.2720,42.4933,M,M,M,200.00,11.00,30.20,M,M,10.00,M,M,M,M,M
DKK,2018-01-03 08:00,-79.2720,42.4933,M,M,M,200.00,10.00,30.20,M,M,10.00,M,M,M,M,M
DKK,2018-01-03 08:05,-79.2720,42.4933,M,M,M,200.00,11.00,30.20,M,M,10.00,M,M,M,M,M
DKK,2018-01-03 08:10,-79.2720,42.4933,M,M,M,200.00,10.00,30.20,M,M,10.00,M,M,M,M,M
DKK,2018-01-03 08:15,-79.2720,42.4933,M,M,M,200.00,11.00,30.20,M,M,10.00,M,M,M,M,M
DKK,2018-01-03 08:20,-79.2720,42.4933,M,M,M,190.00,11.00,30.20,M,M,10.00,M,M,M,M,M
DKK,2018-01-03 08:25,-79.2720,42.4933,M,M,M,200.00,11.00,30.20,M,M,10.00,M,M,M,M,M
DKK,2018-01-03 08:30,-79.2720,42.4933,M,M,M,210.00,12.00,30.20,M,M,10.00,M,M,M,M,M
DKK,2018-01-03 08:35,-79.2720,42.4933,M,M,M,200.00,11.00,30.20,M,M,10.00,M,M,M,M,M
DKK,2018-01-03 08:40,-79.2720,42.4933,M,M,M,200.00,12.00,30.20,M,M,10.00,M,M,M,M,M
DKK,2018-01-03 08:45,-79.2720,42.4933,M,M,M,200.00,12.00,30.20,M,M,10.00,M,M,M,M,M
DKK,2018-01-03 08:50,-79.2720,42.4933,M,M,M,200.00,13.00,30.19,M,M,10.00,M,M,M,M,M
DKK,2018-01-03 08:53,-79.2720,42.4933,7.00,-5.10,56.83,200.00,12.00,30.19,1023.80,0.00,10.00,M,M,M,M,M
DKK,2018-01-03 08:55,-79.2720,42.4933,M,M,M,200.00,12.00,30.19,M,M,10.00,M,M,M,M,M
DKK,2018-01-03 09:00,-79.2720,42.4933,M,M,M,200.00,14.00,30.19,M,M,10.00,M,M,M,M,M
DKK,2018-01-03 09:05,-79.2720,42.4933,M,M,M,190.00,12.00,30.19,M,M,10.00,M,M,M,M,M
DKK,2018-01-03 09:10,-79.2720,42.4933,M,M,M,200.00,16.00,30.18,M,M,10.00,M,M,M,M,M
DKK,2018-01-03 09:15,-79.2720,42.4933,M,M,M,200.00,14.00,30.18,M,M,10.00,19.00,M,M,M,M
DKK,2018-01-03 09:20,-79.2720,42.4933,M,M,M,200.00,13.00,30.18,M,M,10.00,M,M,M,M,M
DKK,2018-01-03 09:25,-79.2720,42.4933,M,M,M,200.00,14.00,30.18,M,M,10.00,M,M,M,M,M
DKK,2018-01-03 09:30,-79.2720,42.4933,M,M,M,200.00,14.00,30.18,M,M,10.00,M,M,M,M,M
DKK,2018-01-03 09:35,-79.2720,42.4933,M,M,M,200.00,13.00,30.17,M,M,10.00,M,M,M,M,M
DKK,2018-01-03 09:40,-79.2720,42.4933,M,M,M,190.00,12.00,30.17,M,M,10.00,M,M,M,M,M
DKK,2018-01-03 09:45,-79.2720,42.4933,M,M,M,200.00,13.00,30.17,M,M,10.00,M,M,M,M,M
DKK,2018-01-03 09:50,-79.2720,42.4933,M,M,M,200.00,13.00,30.17,M,M,10.00,M,M,M,M,M
DKK,2018-01-03 09:53,-79.2720,42.4933,6.10,-5.10,59.20,200.00,13.00,30.17,1023.10,0.00,10.00,M,M,M,M,M
DKK,2018-01-03 09:55,-79.2720,42.4933,M,M,M,200.00,12.00,30.17,M,M,10.00,M,M,M,M,M
DKK,2018-01-03 10:00,-79.2720,42.4933,M,M,M,190.00,13.00,30.16,M,M,10.00,M,M,M,M,M
DKK,2018-01-03 10:05,-79.2720,42.4933,M,M,M,200.00,13.00,30.16,M,M,10.00,M,M,M,M,M
DKK,2018-01-03 10:10,-79.2720,42.4933,M,M,M,200.00,13.00,30.16,M,M,10.00,M,M,M,M,M
DKK,2018-01-03 10:15,-79.2720,42.4933,M,M,M,200.00,13.00,30.16,M,M,10.00,18.00,M,M,M,M
DKK,2018-01-03 10:20,-79.2720,42.4933,M,M,M,200.00,12.00,30.16,M,M,10.00,M,M,M,M,M
DKK,2018-01-03 10:25,-79.2720,42.4933,M,M,M,200.00,14.00,30.16,M,M,10.00,M,M,M,M,M
DKK,2018-01-03 10:30,-79.2720,42.4933,M,M,M,190.00,11.00,30.16,M,M,10.00,M,M,M,M,M
DKK,2018-01-03 10:35,-79.2720,42.4933,M,M,M,200.00,11.00,30.16,M,M,10.00,M,M,M,M,M
DKK,2018-01-03 10:40,-79.2720,42.4933,M,M,M,200.00,12.00,30.16,M,M,10.00,M,M,M,M,M
DKK,2018-01-03 10:45,-79.2720,42.4933,M,M,M,200.00,12.00,30.16,M,M,10.00,M,M,M,M,M
DKK,2018-01-03 10:50,-79.2720,42.4933,M,M,M,200.00,12.00,30.16,M,M,10.00,M,M,M,M,M
DKK,2018-01-03 10:53,-79.2720,42.4933,6.10,-5.10,59.20,200.00,13.00,30.16,1022.80,0.00,10.00,M,M,M,M,M
DKK,2018-01-03 10:55,-79.2720,42.4933,M,M,M,190.00,13.00,30.16,M,M,10.00,M,M,M,M,M
DKK,2018-01-03 11:00,-79.2720,42.4933,M,M,M,190.00,11.00,30.16,M,M,10.00,M,M,M,M,M
DKK,2018-01-03 11:05,-79.2720,42.4933,M,M,M,190.00,13.00,30.16,M,M,10.00,M,M,M,M,M
DKK,2018-01-03 11:10,-79.2720,42.4933,M,M,M,190.00,16.00,30.16,M,M,10.00,M,M,M,M,M
DKK,2018-01-03 11:15,-79.2720,42.4933,M,M,M,200.00,13.00,30.16,M,M,10.00,M,M,M,M,M
DKK,2018-01-03 11:20,-79.2720,42.4933,M,M,M,200.00,15.00,30.16,M,M,10.00,M,M,M,M,M
DKK,2018-01-03 11:25,-79.2720,42.4933,M,M,M,190.00,14.00,30.16,M,M,10.00,M,M,M,M,M
DKK,2018-01-03 11:30,-79.2720,42.4933,M,M,M,190.00,17.00,30.15,M,M,10.00,M,M,M,M,M
DKK,2018-01-03 11:35,-79.2720,42.4933,M,M,M,190.00,15.00,30.15,M,M,10.00,M,M,M,M,M
DKK,2018-01-03 11:40,-79.2720,42.4933,M,M,M,190.00,16.00,30.14,M,M,10.00,M,M,M,M,M
DKK,2018-01-03 11:45,-79.2720,42.4933,M,M,M,190.00,14.00,30.14,M,M,10.00,M,M,M,M,M
DKK,2018-01-03 11:50,-79.2720,42.4933,M,M,M,190.00,15.00,30.14,M,M,10.00,M,M,M,M,M
DKK,2018-01-03 11:53,-79.2720,42.4933,7.00,-4.00,59.91,190.00,15.00,30.14,1022.20,0.00,10.00,M,M,M,M,M
DKK,2018-01-03 11:55,-79.2720,42.4933,M,M,M,190.00,16.00,30.14,M,M,10.00,M,M,M,M,M
DKK,2018-01-03 12:00,-79.2720,42.4933,M,M,M,M,M,30.14,M,M,10.00,M,M,M,M,M
DKK,2018-01-03 12:05,-79.2720,42.4933,M,M,M,200.00,15.00,30.14,M,M,10.00,20.00,M,M,M,M
DKK,2018-01-03 12:10,-79.2720,42.4933,M,M,M,190.00,15.00,30.14,M,M,10.00,M,M,M,M,M
DKK,2018-01-03 12:15,-79.2720,42.4933,M,M,M,200.00,14.00,30.14,M,M,10.00,M,M,M,M,M
DKK,2018-01-03 12:20,-79.2720,42.4933,M,M,M,190.00,15.00,30.14,M,M,10.00,M,M,M,M,M
DKK,2018-01-03 12:25,-79.2720,42.4933,M,M,M,190.00,15.00,30.14,M,M,10.00,M,M,M,M,M
DKK,2018-01-03 12:30,-79.2720,42.4933,M,M,M,190.00,15.00,30.14,M,M,10.00,M,M,M,M,M
DKK,2018-01-03 12:35,-79.2720,42.4933,M,M,M,190.00,13.00,30.14,M,M,10.00,M,M,M,M,M
DKK,2018-01-03 12:40,-79.2720,42.4933,M,M,M,200.00,14.00,30.14,M,M,10.00,20.00,M,M,M,M
DKK,2018-01-03 12:45,-79.2720,42.4933,M,M,M,200.00,13.00,30.15,M,M,10.00,M,M,M,M,M
DKK,2018-01-03 12:50,-79.2720,42.4933,M,M,M,200.00,16.00,30.15,M,M,10.00,M,M,M,M,M
DKK,2018-01-03 12:53,-79.2720,42.4933,7.00,-2.90,63.14,200.00,14.00,30.15,1022.40,0.00,10.00,23.00,M,M,M,M
DKK,2018-01-03 12:55,-79.2720,42.4933,M,M,M,200.00,13.00,30.15,M,M,10.00,M,M,M,M,M
DKK,2018-01-03 13:00,-79.2720,42.4933,M,M,M,200.00,12.00,30.14,M,M,10.00,M,M,M,M,M
DKK,2018-01-03 13:05,-79.2720,42.4933,M,M,M,200.00,15.00,30.15,M,M,10.00,M,M,M,M,M
DKK,2018-01-03 13:10,-79.2720,42.4933,M,M,M,190.00,14.00,30.14,M,M,10.00,M,M,M,M,M
DKK,2018-01-03 13:15,-79.2720,42.4933,M,M,M,200.00,15.00,30.14,M,M,10.00,M,M,M,M,M
DKK,2018-01-03 13:20,-79.2720,42.4933,M,M,M,190.00,15.00,30.14,M,M,10.00,M,M,M,M,M
DKK,2018-01-03 13:25,-79.2720,42.4933,M,M,M,190.00,15.00,30.14,M,M,10.00,M,M,M,M,M
DKK,2018-01-03 13:30,-79.2720,42.4933,M,M,M,190.00,16.00,30.14,M,M,10.00,M,M,M,M,M
DKK,2018-01-03 13:35,-79.2720,42.4933,M,M,M,190.00,12.00,30.14,M,M,10.00,18.00,M,M,M,M
DKK,2018-01-03 13:40,-79.2720,42.4933,M,M,M,200.00,16.00,30.14,M,M,10.00,21.00,M,M,M,M
DKK,2018-01-03 13:45,-79.2720,42.4933,M,M,M,190.00,14.00,30.14,M,M,10.00,M,M,M,M,M
DKK,2018-01-03 13:50,-79.2720,42.4933,M,M,M,190.00,15.00,30.13,M,M,10.00,M,M,M,M,M
DKK,2018-01-03 13:53,-79.2720,42.4933,9.00,-2.00,60.21,200.00,15.00,30.13,1021.80,0.00,10.00,20.00,M,M,M,M
DKK,2018-01-03 13:55,-79.2720,42.4933,M,M,M,190.00,14.00,30.13,M,M,10.00,M,M,M,M,M
DKK,2018-01-03 14:00,-79.2720,42.4933,M,M,M,200.00,14.00,30.13,M,M,10.00,M,M,M,M,M
DKK,2018-01-03 14:05,-79.2720,42.4933,M,M,M,190.00,16.00,30.13,M,M,8.00,M,6500.00,M,M,M
DKK,2018-01-03 14:10,-79.2720,42.4933,M,M,M,190.00,17.00,30.13,M,M,8.00,M,7000.00,M,M,M
DKK,2018-01-03 14:15,-79.2720,42.4933,M,M,M,200.00,16.00,30.13,M,M,10.00,M,7000.00,M,M,M
DKK,2018-01-03 14:20,-79.2720,42.4933,M,M,M,200.00,15.00,30.13,M,M,10.00,M,7000.00,M,M,M
DKK,2018-01-03 14:25,-79.2720,42.4933,M,M,M,190.00,18.00,30.12,M,M,10.00,M,7000.00,M,M,M
DKK,2018-01-03 14:30,-79.2720,42.4933,M,M,M,200.00,15.00,30.12,M,M,10.00,M,7000.00,M,M,M
DKK,2018-01-03 14:35,-79.2720,42.4933,M,M,M,200.00,16.00,30.12,M,M,10.00,M,7000.00,M,M,M
DKK,2018-01-03 14:40,-79.2720,42.4933,M,M,M,M,M,30.12,M,M,10.00,M,7000.00,M,M,M
DKK,2018-01-03 14:45,-79.2720,42.4933,M,M,M,200.00,18.00,30.12,M,M,10.00,M,7000.00,M,M,M
DKK,2018-01-03 14:50,-79.2720,42.4933,M,M,M,200.00,16.00,30.12,M,M,10.00,M,7000.00,M,M,M
DKK,2018-01-03 14:53,-79.2720,42.4933,10.90,-0.90,58.26,200.00,14.00,30.12,1021.30,0.00,10.00,24.00,7000.00,M,M,M
DKK,2018-01-03 14:55,-79.2720,42.4933,M,M,M,210.00,15.00,30.12,M,M,10.00,M,7000.00,M,M,M
DKK,2018-01-03 15:00,-79.2720,42.4933,M,M,M,200.00,15.00,30.12,M,M,10.00,M,7000.00,M,M,M
DKK,2018-01-03 15:05,-79.2720,42.4933,M,M,M,200.00,13.00,30.12,M,M,10.00,M,7000.00,M,M,M
DKK,2018-01-03 15:10,-79.2720,42.4933,M,M,M,190.00,15.00,30.12,M,M,10.00,M,7000.00,M,M,M
DKK,2018-01-03 15:15,-79.2720,42.4933,M,M,M,190.00,15.00,30.12,M,M,10.00,M,7000.00,M,M,M
DKK,2018-01-03 15:20,-79.2720,42.4933,M,M,M,200.00,15.00,30.11,M,M,10.00,M,7000.00,M,M,M
DKK,2018-01-03 15:25,-79.2720,42.4933,M,M,M,200.00,14.00,30.11,M,M,10.00,M,7000.00,M,M,M
DKK,2018-01-03 15:30,-79.2720,42.4933,M,M,M,190.00,13.00,30.11,M,M,10.00,M,7000.00,9000.00,M,M
DKK,2018-01-03 15:35,-79.2720,42.4933,M,M,M,200.00,11.00,30.11,M,M,10.00,M,7000.00,9000.00,M,M
DKK,2018-01-03 15:40,-79.2720,42.4933,M,M,M,200.00,13.00,30.10,M,M,10.00,M,7500.00,9000.00,M,M
DKK,2018-01-03 15:45,-79.2720,42.4933,M,M,M,200.00,12.00,30.10,M,M,10.00,M,7500.00,9000.00,M,M
DKK,2018-01-03 15:50,-79.2720,42.4933,M,M,M,200.00,14.00,30.10,M,M,10.00,20.00,7000.00,9000.00,M,M
DKK,2018-01-03 15:53,-79.2720,42.4933,14.00,0.00,53.00,200.00,15.00,30.09,1020.50,0.00,10.00,21.00,7000.00,9000.00,M,M
DKK,2018-01-03 15:55,-79.2720,42.4933,M,M,M,210.00,12.00,30.09,M,M,10.00,M,7500.00,9000.00,M,M
DKK,2018-01-03 16:00,-79.2720,42.4933,M,M,M,190.00,13.00,30.09,M,M,10.00,18.00,9000.00,M,M,M
DKK,2018-01-03 16:05,-79.2720,42.4933,M,M,M,200.00,14.00,30.09,M,M,10.00,M,6500.00,9000.00,M,M
DKK,2018-01-03 16:10,-79.2720,42.4933,M,M,M,200.00,14.00,30.09,M,M,10.00,M,6500.00,9000.00,M,M
DKK,2018-01-03 16:15,-79.2720,42.4933,M,M,M,200.00,14.00,30.09,M,M,10.00,M,7500.00,9000.00,M,M
DKK,2018-01-03 16:20,-79.2720,42.4933,M,M,M,210.00,13.00,30.08,M,M,10.00,M,7000.00,9000.00,M,M
DKK,2018-01-03 16:25,-79.2720,42.4933,M,M,M,200.00,14.00,30.08,M,M,10.00,19.00,5000.00,7500.00,9000.00,M
DKK,2018-01-03 16:30,-79.2720,42.4933,M,M,M,200.00,13.00,30.08,M,M,10.00,M,6000.00,7999.00,9000.00,M
DKK,2018-01-03 16:35,-79.2720,42.4933,M,M,M,200.00,16.00,30.07,M,M,10.00,M,6000.00,7000.00,M,M
DKK,2018-01-03 16:40,-79.2720,42.4933,M,M,M,190.00,15.00,30.07,M,M,10.00,M,6500.00,7999.00,M,M
DKK,2018-01-03 16:45,-79.2720,42.4933,M,M,M,190.00,13.00,30.06,M,M,10.00,M,6000.00,7999.00,M,M
DKK,2018-01-03 16:50,-79.2720,42.4933,M,M,M,190.00,14.00,30.06,M,M,10.00,M,6000.00,M,M,M
DKK,2018-01-03 16:53,-79.2720,42.4933,17.10,1.00,48.53,200.00,12.00,30.06,1019.30,0.00,10.00,M,6000.00,M,M,M
DKK,2018-01-03 16:55,-79.2720,42.4933,M,M,M,200.00,13.00,30.06,M,M,10.00,M,6500.00,M,M,M
DKK,2018-01-03 17:00,-79.2720,42.4933,M,M,M,190.00,13.00,30.06,M,M,10.00,M,6000.00,M,M,M
DKK,2018-01-03 17:05,-79.2720,42.4933,M,M,M,190.00,11.00,30.05,M,M,10.00,M,6000.00,M,M,M
DKK,2018-01-03 17:10,-79.2720,42.4933,M,M,M,190.00,12.00,30.05,M,M,10.00,M,6000.00,M,M,M
DKK,2018-01-03 17:15,-79.2720,42.4933,M,M,M,200.00,16.00,30.04,M,M,10.00,M,M,M,M,M
DKK,2018-01-03 17:20,-79.2720,42.4933,M,M,M,190.00,12.00,30.04,M,M,10.00,M,M,M,M,M
DKK,2018-01-03 17:25,-79.2720,42.4933,M,M,M,190.00,12.00,30.04,M,M,10.00,M,M,M,M,M
DKK,2018-01-03 17:30,-79.2720,42.4933,M,M,M,190.00,13.00,30.03,M,M,10.00,M,M,M,M,M
DKK,2018-01-03 17:35,-79.2720,42.4933,M,M,M,200.00,13.00,30.03,M,M,10.00,M,6500.00,M,M,M
DKK,2018-01-03 17:40,-79.2720,42.4933,M,M,M,190.00,12.00,30.03,M,M,10.00,M,7000.00,M,M,M
DKK,2018-01-03 17:45,-79.2720,42.4933,M,M,M,200.00,12.00,30.03,M,M,10.00,M,7000.00,M,M,M
DKK,2018-01-03 17:50,-79.2720,42.4933,M,M,M,190.00,12.00,30.02,M,M,10.00,M,6500.00,M,M,M
DKK,2018-01-03 17:53,-79.2720,42.4933,19.90,1.90,44.87,200.00,13.00,30.02,1017.90,0.00,10.00,M,6500.00,M,M,M
DKK,2018-01-03 17:55,-79.2720,42.4933,M,M,M,190.00,14.00,30.02,M,M,10.00,19.00,6500.00,7500.00,M,M
DKK,2018-01-03 18:00,-79.2720,42.4933,M,M,M,200.00,14.00,30.02,M,M,10.00,19.00,6500.00,M,M,M
DKK,2018-01-03 18:05,-79.2720,42.4933,M,M,M,190.00,12.00,30.01,M,M,10.00,17.00,6000.00,M,M,M
DKK,2018-01-03 18:10,-79.2720,42.4933,M,M,M,190.00,11.00,30.01,M,M,10.00,M,6000.00,M,M,M
DKK,2018-01-03 18:15,-79.2720,42.4933,M,M,M,200.00,14.00,30.01,M,M,10.00,M,6000.00,M,M,M
DKK,2018-01-03 18:20,-79.2720,42.4933,M,M,M,190.00,18.00,30.01,M,M,10.00,M,6000.00,M,M,M
DKK,2018-01-03 18:25,-79.2720,42.4933,M,M,M,190.00,16.00,30.01,M,M,10.00,M,6500.00,M,M,M
DKK,2018-01-03 18:30,-79.2720,42.4933,M,M,M,200.00,15.00,30.01,M,M,10.00,M,6500.00,M,M,M
DKK,2018-01-03 18:35,-79.2720,42.4933,M,M,M,190.00,14.00,30.00,M,M,10.00,M,6500.00,M,M,M
DKK,2018-01-03 18:40,-79.2720,42.4933,M,M,M,210.00,15.00,30.00,M,M,10.00,M,6500.00,M,M,M
DKK,2018-01-03 18:45,-79.2720,42.4933,M,M,M,210.00,13.00,30.00,M,M,10.00,M,6000.00,M,M,M
DKK,2018-01-03 18:50,-79.2720,42.4933,M,M,M,200.00,11.00,30.00,M,M,10.00,M,6500.00,M,M,M
DKK,2018-01-03 18:53,-79.2720,42.4933,21.00,3.00,45.06,220.00,12.00,29.99,1016.90,0.00,10.00,20.00,6500.00,M,M,M
DKK,2018-01-03 18:55,-79.2720,42.4933,M,M,M,210.00,14.00,29.99,M,M,10.00,M,6500.00,M,M,M
DKK,2018-01-03 19:00,-79.2720,42.4933,M,M,M,210.00,14.00,29.99,M,M,10.00,M,6500.00,M,M,M
DKK,2018-01-03 19:05,-79.2720,42.4933,M,M,M,200.00,9.00,29.99,M,M,10.00,M,6000.00,M,M,M
DKK,2018-01-03 19:10,-79.2720,42.4933,M,M,M,210.00,11.00,29.99,M,M,10.00,M,6000.00,M,M,M
DKK,2018-01-03 19:15,-79.2720,42.4933,M,M,M,220.00,10.00,29.99,M,M,10.00,M,5000.00,6000.00,M,M
DKK,2018-01-03 19:20,-79.2720,42.4933,M,M,M,220.00,8.00,29.98,M,M,10.00,M,5000.00,6000.00,M,M
DKK,2018-01-03 19:25,-79.2720,42.4933,M,M,M,220.00,14.00,29.98,M,M,10.00,M,5000.00,6000.00,M,M
DKK,2018-01-03 19:30,-79.2720,42.4933,M,M,M,210.00,15.00,29.98,M,M,10.00,M,5500.00,M,M,M
DKK,2018-01-03 19:35,-79.2720,42.4933,M,M,M,210.00,13.00,29.98,M,M,10.00,M,5000.00,6000.00,M,M
DKK,2018-01-03 19:40,-79.2720,42.4933,M,M,M,210.00,12.00,29.98,M,M,10.00,M,5000.00,6000.00,M,M
DKK,2018-01-03 19:45,-79.2720,42.4933,M,M,M,210.00,11.00,29.98,M,M,10.00,M,5000.00,M,M,M
DKK,2018-01-03 19:50,-79.2720,42.4933,M,M,M,210.00,14.00,29.98,M,M,10.00,M,5000.00,M,M,M
DKK,2018-01-03 19:53,-79.2720,42.4933,21.90,1.90,41.22,210.00,10.00,29.97,1016.30,0.00,10.00,19.00,5000.00,6000.00,M,M
DKK,2018-01-03 19:55,-79.2720,42.4933,M,M,M,210.00,12.00,29.97,M,M,10.00,M,5000.00,6000.00,M,M
DKK,2018-01-03 20:00,-79.2720,42.4933,M,M,M,210.00,13.00,29.97,M,M,10.00,M,5000.00,6500.00,M,M
DKK,2018-01-03 20:05,-79.2720,42.4933,M,M,M,210.00,13.00,29.97,M,M,10.00,M,4700.00,6000.00,M,M
DKK,2018-01-03 20:10,-79.2720,42.4933,M,M,M,200.00,15.00,29.97,M,M,10.00,M,5500.00,M,M,M
DKK,2018-01-03 20:15,-79.2720,42.4933,M,M,M,210.00,10.00,29.97,M,M,10.00,M,6000.00,M,M,M
DKK,2018-01-03 20:20,-79.2720,42.4933,M,M,M,210.00,11.00,29.97,M,M,10.00,M,6000.00,M,M,M
DKK,2018-01-03 20:25,-79.2720,42.4933,M,M,M,210.00,11.00,29.97,M,M,10.00,M,6000.00,M,M,M
DKK,2018-01-03 20:30,-79.2720,42.4933,M,M,M,220.00,8.00,29.97,M,M,10.00,M,6000.00,M,M,M
DKK,2018-01-03 20:35,-79.2720,42.4933,M,M,M,230.00,7.00,29.97,M,M,10.00,M,6000.00,M,M,M
DKK,2018-01-03 20:40,-79.2720,42.4933,M,M,M,230.00,9.00,29.97,M,M,10.00,M,6000.00,M,M,M
DKK,2018-01-03 20:45,-79.2720,42.4933,M,M,M,230.00,9.00,29.97,M,M,10.00,M,6000.00,M,M,M
DKK,2018-01-03 20:50,-79.2720,42.4933,M,M,M,220.00,9.00,29.97,M,M,10.00,M,5500.00,M,M,M
DKK,2018-01-03 20:53,-79.2720,42.4933,21.90,3.00,43.38,220.00,9.00,29.97,1016.10,0.00,10.00,M,5500.00,7000.00,M,M
DKK,2018-01-03 20:55,-79.2720,42.4933,M,M,M,220.00,8.00,29.97,M,M,10.00,M,6000.00,M,M,M
DKK,2018-01-03 21:00,-79.2720,42.4933,M,M,M,220.00,8.00,29.97,M,M,10.00,M,6000.00,M,M,M
DKK,2018-01-03 21:05,-79.2720,42.4933,M,M,M,220.00,9.00,29.96,M,M,10.00,M,6000.00,M,M,M
DKK,2018-01-03 21:10,-79.2720,42.4933,M,M,M,220.00,7.00,29.96,M,M,10.00,M,6000.00,M,M,M
DKK,2018-01-03 21:15,-79.2720,42.4933,M,M,M,220.00,7.00,29.96,M,M,10.00,M,6000.00,M,M,M
DKK,2018-01-03 21:20,-79.2720,42.4933,M,M,M,220.00,6.00,29.97,M,M,10.00,M,6000.00,M,M,M
DKK,2018-01-03 21:25,-79.2720,42.4933,M,M,M,220.00,8.00,29.97,M,M,10.00,M,6000.00,M,M,M
DKK,2018-01-03 21:30,-79.2720,42.4933,M,M,M,210.00,7.00,29.97,M,M,10.00,M,6000.00,M,M,M
DKK,2018-01-03 21:35,-79.2720,42.4933,M,M,M,220.00,6.00,29.97,M,M,10.00,M,5500.00,M,M,M
DKK,2018-01-03 21:40,-79.2720,42.4933,M,M,M,230.00,6.00,29.97,M,M,10.00,M,5500.00,M,M,M
DKK,2018-01-03 21:45,-79.2720,42.4933,M,M,M,230.00,6.00,29.97,M,M,10.00,M,5500.00,M,M,M
DKK,2018-01-03 21:50,-79.2720,42.4933,M,M,M,240.00,5.00,29.97,M,M,10.00,M,5000.00,M,M,M
DKK,2018-01-03 21:53,-79.2720,42.4933,21.90,3.90,45.22,230.00,6.00,29.97,1016.30,0.00,10.00,M,5000.00,M,M,M
DKK,2018-01-03 21:55,-79.2720,42.4933,M,M,M,230.00,8.00,29.97,M,M,10.00,M,5000.00,M,M,M
DKK,2018-01-03 22:00,-79.2720,42.4933,M,M,M,230.00,5.00,29.97,M,M,10.00,M,5000.00,M,M,M
DKK,2018-01-03 22:05,-79.2720,42.4933,M,M,M,220.00,5.00,29.98,M,M,10.00,M,5000.00,M,M,M
DKK,2018-01-03 22:10,-79.2720,42.4933,M,M,M,220.00,7.00,29.98,M,M,10.00,M,5000.00,M,M,M
DKK,2018-01-03 22:15,-79.2720,42.4933,M,M,M,220.00,6.00,29.98,M,M,10.00,M,5500.00,7000.00,M,M
DKK,2018-01-03 22:20,-79.2720,42.4933,M,M,M,240.00,7.00,29.98,M,M,10.00,M,6000.00,7000.00,M,M
DKK,2018-01-03 22:25,-79.2720,42.4933,M,M,M,230.00,9.00,29.98,M,M,10.00,M,6000.00,M,M,M
DKK,2018-01-03 22:30,-79.2720,42.4933,M,M,M,230.00,10.00,29.99,M,M,10.00,M,5500.00,7000.00,M,M
DKK,2018-01-03 22:35,-79.2720,42.4933,M,M,M,230.00,9.00,29.99,M,M,10.00,M,6500.00,M,M,M
DKK,2018-01-03 22:40,-79.2720,42.4933,M,M,M,230.00,7.00,29.99,M,M,10.00,M,6500.00,M,M,M
DKK,2018-01-03 22:45,-79.2720,42.4933,M,M,M,220.00,7.00,29.99,M,M,10.00,M,5500.00,7000.00,M,M
DKK,2018-01-03 22:50,-79.2720,42.4933,M,M,M,220.00,7.00,29.99,M,M,10.00,M,5500.00,7000.00,M,M
DKK,2018-01-03 22:53,-79.2720,42.4933,21.00,3.90,46.97,230.00,7.00,30.00,1017.00,0.00,10.00,M,5500.00,7000.00,M,M
DKK,2018-01-03 22:55,-79.2720,42.4933,M,M,M,220.00,8.00,30.00,M,M,10.00,M,5500.00,7000.00,M,M
DKK,2018-01-03 23:00,-79.2720,42.4933,M,M,M,230.00,6.00,29.99,M,M,10.00,M,5500.00,M,M,M
DKK,2018-01-03 23:05,-79.2720,42.4933,M,M,M,240.00,7.00,29.99,M,M,10.00,M,5000.00,M,M,M
DKK,2018-01-03 23:10,-79.2720,42.4933,M,M,M,240.00,6.00,30.00,M,M,10.00,M,5000.00,M,M,M
DKK,2018-01-03 23:15,-79.2720,42.4933,M,M,M,240.00,7.00,30.00,M,M,10.00,M,5500.00,M,M,M
DKK,2018-01-03 23:20,-79.2720,42.4933,M,M,M,240.00,6.00,30.00,M,M,10.00,M,5500.00,M,M,M
DKK,2018-01-03 23:25,-79.2720,42.4933,M,M,M,250.00,8.00,30.00,M,M,10.00,M,5500.00,M,M,M
DKK,2018-01-03 23:30,-79.2720,42.4933,M,M,M,230.00,8.00,30.00,M,M,10.00,M,6000.00,M,M,M
DKK,2018-01-03 23:35,-79.2720,42.4933,M,M,M,240.00,6.00,30.00,M,M,10.00,M,6000.00,M,M,M
DKK,2018-01-03 23:40,-79.2720,42.4933,M,M,M,240.00,8.00,30.00,M,M,10.00,M,6000.00,M,M,M
DKK,2018-01-03 23:45,-79.2720,42.4933,M,M,M,230.00,7.00,30.00,M,M,10.00,M,6000.00,M,M,M
DKK,2018-01-03 23:50,-79.2720,42.4933,M,M,M,240.00,9.00,30.00,M,M,10.00,M,6000.00,M,M,M
DKK,2018-01-03 23:53,-79.2720,42.4933,21.00,3.00,45.06,230.00,8.00,30.00,1017.20,0.00,10.00,M,6000.00,M,M,M
DKK,2018-01-03 23:55,-79.2720,42.4933,M,M,M,230.00,10.00,30.00,M,M,10.00,M,6000.00,M,M,M
DSV,2018-01-01 00:00,-77.7130,42.5709,M,M,M,0.00,0.00,30.38,M,M,10.00,M,3800.00,M,M,M
DSV,2018-01-01 00:05,-77.7130,42.5709,M,M,M,130.00,3.00,30.38,M,M,10.00,M,3800.00,M,M,M
DSV,2018-01-01 00:10,-77.7130,42.5709,M,M,M,140.00,3.00,30.38,M,M,10.00,M,3999.00,M,M,M
DSV,2018-01-01 00:15,-77.7130,42.5709,M,M,M,0.00,0.00,30.38,M,M,10.00,M,3999.00,M,M,M
DSV,2018-01-01 00:20,-77.7130,42.5709,M,M,M,140.00,3.00,30.38,M,M,10.00,M,4200.00,M,M,M
DSV,2018-01-01 00:25,-77.7130,42.5709,M,M,M,0.00,0.00,30.38,M,M,10.00,M,4200.00,M,M,M
DSV,2018-01-01 00:30,-77.7130,42.5709,M,M,M,0.00,0.00,30.38,M,M,10.00,M,4200.00,M,M,M
DSV,2018-01-01 00:35,-77.7130,42.5709,M,M,M,160.00,3.00,30.38,M,M,10.00,M,4200.00,M,M,M
DSV,2018-01-01 00:40,-77.7130,42.5709,M,M,M,170.00,4.00,30.38,M,M,10.00,M,4200.00,M,M,M
DSV,2018-01-01 00:45,-77.7130,42.5709,M,M,M,160.00,4.00,30.38,M,M,10.00,M,4200.00,M,M,M
DSV,2018-01-01 00:50,-77.7130,42.5709,M,M,M,180.00,3.00,30.38,M,M,10.00,M,M,M,M,M
DSV,2018-01-01 00:54,-77.7130,42.5709,0.00,-5.10,78.48,190.00,3.00,30.38,1031.40,0.00,10.00,M,M,M,M,M
DSV,2018-01-01 00:55,-77.7130,42.5709,M,M,M,170.00,3.00,30.38,M,M,10.00,M,M,M,M,M
DSV,2018-01-01 01:00,-77.7130,42.5709,M,M,M,0.00,0.00,30.38,M,M,10.00,M,M,M,M,M
DSV,2018-01-01 01:05,-77.7130,42.5709,M,M,M,170.00,3.00,30.38,M,M,10.00,M,M,M,M,M
DSV,2018-01-01 01:10,-77.7130,42.5709,M,M,M,0.00,0.00,30.38,M,M,10.00,M,M,M,M,M
DSV,2018-01-01 01:15,-77.7130,42.5709,M,M,M,150.00,3.00,30.38,M,M,10.00,M,M,M,M,M
DSV,2018-01-01 01:20,-77.7130,42.5709,M,M,M,150.00,3.00,30.37,M,M,10.00,M,M,M,M,M
DSV,2018-01-01 01:25,-77.7130,42.5709,M,M,M,150.00,3.00,30.37,M,M,10.00,M,M,M,M,M
DSV,2018-01-01 01:30,-77.7130,42.5709,M,M,M,150.00,4.00,30.37,M,M,10.00,M,M,M,M,M
DSV,2018-01-01 01:35,-77.7130,42.5709,M,M,M,160.00,3.00,30.37,M,M,10.00,M,M,M,M,M
DSV,2018-01-01 01:40,-77.7130,42.5709,M,M,M,160.00,3.00,30.37,M,M,10.00,M,M,M,M,M
DSV,2018-01-01 01:45,-77.7130,42.5709,M,M,M,150.00,3.00,30.37,M,M,10.00,M,M,M,M,M
DSV,2018-01-01 01:50,-77.7130,42.5709,M,M,M,0.00,0.00,30.37,M,M,10.00,M,M,M,M,M
DSV,2018-01-01 01:54,-77.7130,42.5709,-4.00,-9.00,78.48,150.00,3.00,30.37,1031.20,0.00,10.00,M,M,M,M,M
DSV,2018-01-01 01:55,-77.7130,42.5709,M,M,M,150.00,3.00,30.37,M,M,10.00,M,M,M,M,M
DSV,2018-01-01 02:00,-77.7130,42.5709,M,M,M,160.00,3.00,30.37,M,M,10.00,M,M,M,M,M
DSV,2018-01-01 02:05,-77.7130,42.5709,M,M,M,170.00,3.00,30.37,M,M,10.00,M,M,M,M,M
DSV,2018-01-01 02:10,-77.7130,42.5709,M,M,M,0.00,0.00,30.37,M,M,10.00,M,M,M,M,M
DSV,2018-01-01 02:15,-77.7130,42.5709,M,M,M,160.00,3.00,30.37,M,M,10.00,M,M,M,M,M
DSV,2018-01-01 02:20,-77.7130,42.5709,M,M,M,150.00,3.00,30.37,M,M,10.00,M,M,M,M,M
DSV,2018-01-01 02:25,-77.7130,42.5709,M,M,M,0.00,0.00,30.37,M,M,10.00,M,M,M,M,M
DSV,2018-01-01 02:30,-77.7130,42.5709,M,M,M,140.00,3.00,30.37,M,M,10.00,M,M,M,M,M
DSV,2018-01-01 02:35,-77.7130,42.5709,M,M,M,140.00,4.00,30.37,M,M,10.00,M,M,M,M,M
DSV,2018-01-01 02:40,-77.7130,42.5709,M,M,M,150.00,3.00,30.37,M,M,10.00,M,M,M,M,M
DSV,2018-01-01 02:45,-77.7130,42.5709,M,M,M,160.00,4.00,30.37,M,M,10.00,M,M,M,M,M
DSV,2018-01-01 02:50,-77.7130,42.5709,M,M,M,0.00,0.00,30.37,M,M,10.00,M,M,M,M,M
DSV,2018-01-01 02:54,-77.7130,42.5709,-4.00,-9.00,78.48,190.00,3.00,30.38,1031.30,0.00,10.00,M,M,M,M,M
DSV,2018-01-01 02:55,-77.7130,42.5709,M,M,M,200.00,3.00,30.38,M,M,10.00,M,M,M,M,M
DSV,2018-01-01 03:00,-77.7130,42.5709,M,M,M,120.00,3.00,30.37,M,M,10.00,M,M,M,M,M
DSV,2018-01-01 03:05,-77.7130,42.5709,M,M,M,0.00,0.00,30.38,M,M,10.00,M,3900.00,M,M,M
DSV,2018-01-01 03:10,-77.7130,42.5709,M,M,M,0.00,0.00,30.38,M,M,10.00,M,3900.00,M,M,M
DSV,2018-01-01 03:15,-77.7130,42.5709,M,M,M,0.00,0.00,30.37,M,M,10.00,M,4100.00,M,M,M
DSV,2018-01-01 03:20,-77.7130,42.5709,M,M,M,150.00,3.00,30.38,M,M,10.00,M,4100.00,M,M,M
DSV,2018-01-01 03:25,-77.7130,42.5709,M,M,M,170.00,3.00,30.38,M,M,10.00,M,3999.00,4700.00,M,M
DSV,2018-01-01 03:30,-77.7130,42.5709,M,M,M,200.00,3.00,30.38,M,M,10.00,M,3999.00,M,M,M
DSV,2018-01-01 03:35,-77.7130,42.5709,M,M,M,190.00,3.00,30.38,M,M,10.00,M,3999.00,M,M,M
DSV,2018-01-01 03:40,-77.7130,42.5709,M,M,M,180.00,3.00,30.38,M,M,10.00,M,3900.00,4800.00,M,M
DSV,2018-01-01 03:45,-77.7130,42.5709,M,M,M,160.00,3.00,30.38,M,M,10.00,M,3900.00,4800.00,M,M
DSV,2018-01-01 03:50,-77.7130,42.5709,M,M,M,160.00,3.00,30.38,M,M,10.00,M,3900.00,4800.00,M,M
DSV,2018-01-01 03:54,-77.7130,42.5709,-4.00,-9.00,78.48,140.00,3.00,30.38,1031.50,0.00,10.00,M,3900.00,4800.00,M,M
DSV,2018-01-01 03:55,-77.7130,42.5709,M,M,M,130.00,4.00,30.38,M,M,10.00,M,3900.00,4800.00,M,M
DSV,2018-01-01 04:00,-77.7130,42.5709,M,M,M,0.00,0.00,30.38,M,M,10.00,M,3700.00,4700.00,M,M
DSV,2018-01-01 04:05,-77.7130,42.5709,M,M,M,0.00,0.00,30.38,M,M,10.00,M,3900.00,4900.00,M,M
DSV,2018-01-01 04:10,-77.7130,42.5709,M,M,M,0.00,0.00,30.38,M,M,10.00,M,3900.00,M,M,M
DSV,2018-01-01 04:15,-77.7130,42.5709,M,M,M,0.00,0.00,30.38,M,M,10.00,M,3900.00,M,M,M
DSV,2018-01-01 04:20,-77.7130,42.5709,M,M,M,160.00,3.00,30.38,M,M,10.00,M,3700.00,M,M,M
DSV,2018-01-01 04:25,-77.7130,42.5709,M,M,M,0.00,0.00,30.38,M,M,10.00,M,3000.00,3900.00,M,M
DSV,2018-01-01 04:30,-77.7130,42.5709,M,M,M,0.00,0.00,30.38,M,M,10.00,M,3900.00,M,M,M
DSV,2018-01-01 04:35,-77.7130,42.5709,M,M,M,160.00,3.00,30.38,M,M,10.00,M,3900.00,M,M,M
DSV,2018-01-01 04:40,-77.7130,42.5709,M,M,M,160.00,3.00,30.38,M,M,10.00,M,3900.00,M,M,M
DSV,2018-01-01 04:45,-77.7130,42.5709,M,M,M,170.00,3.00,30.38,M,M,10.00,M,3700.00,4500.00,M,M
DSV,2018-01-01 04:50,-77.7130,42.5709,M,M,M,0.00,0.00,30.38,M,M,10.00,M,3500.00,4500.00,M,M
DSV,2018-01-01 04:54,-77.7130,42.5709,-0.90,-7.10,74.33,0.00,0.00,30.38,1031.50,0.00,9.00,M,2700.00,3300.00,4300.00,M
DSV,2018-01-01 04:55,-77.7130,42.5709,M,M,M,0.00,0.00,30.38,M,M,9.00,M,3000.00,4300.00,M,M
DSV,2018-01-01 05:00,-77.7130,42.5709,M,M,M,0.00,0.00,30.38,M,M,7.00,M,3000.00,4300.00,M,-SN
DSV,2018-01-01 05:05,-77.7130,42.5709,M,M,M,0.00,0.00,30.38,M,M,5.00,M,2800.00,4400.00,M,-SN
DSV,2018-01-01 05:09,-77.7130,42.5709,-0.90,-6.00,78.40,0.00,0.00,30.38,M,T,3.00,M,2600.00,4400.00,M,-SN
DSV,2018-01-01 05:10,-77.7130,42.5709,M,M,M,0.00,0.00,30.38,M,M,3.00,M,2600.00,4400.00,M,-SN
DSV,2018-01-01 05:15,-77.7130,42.5709,M,M,M,0.00,0.00,30.38,M,M,3.00,M,2600.00,M,M,-SN
DSV,2018-01-01 05:20,-77.7130,42.5709,M,M,M,0.00,0.00,30.38,M,M,3.00,M,2400.00,M,M,-SN
DSV,2018-01-01 05:25,-77.7130,42.5709,M,M,M,0.00,0.00,30.38,M,M,3.00,M,2400.00,M,M,-SN
DSV,2018-01-01 05:30,-77.7130,42.5709,M,M,M,0.00,0.00,30.38,M,M,3.00,M,2400.00,4300.00,M,-SN
DSV,2018-01-01 05:35,-77.7130,42.5709,M,M,M,0.00,0.00,30.38,M,M,4.00,M,2400.00,4300.00,M,-SN
DSV,2018-01-01 05:40,-77.7130,42.5709,M,M,M,0.00,0.00,30.37,M,M,5.00,M,2400.00,4100.00,M,-SN
DSV,2018-01-01 05:45,-77.7130,42.5709,M,M,M,0.00,0.00,30.37,M,M,6.00,M,2400.00,4100.00,M,HZ
DSV,2018-01-01 05:50,-77.7130,42.5709,M,M,M,0.00,0.00,30.37,M,M,6.00,M,2600.00,4100.00,M,-SN
DSV,2018-01-01 05:54,-77.7130,42.5709,0.00,-5.10,78.48,180.00,3.00,30.37,1031.20,T,6.00,M,2800.00,4100.00,M,-SN
DSV,2018-01-01 05:55,-77.7130,42.5709,M,M,M,180.00,3.00,30.37,M,M,6.00,M,3000.00,4100.00,M,-SN
DSV,2018-01-01 06:00,-77.7130,42.5709,M,M,M,0.00,0.00,30.37,M,M,8.00,M,4100.00,M,M,M
DSV,2018-01-01 06:05,-77.7130,42.5709,M,M,M,0.00,0.00,30.38,M,M,9.00,M,4100.00,M,M,M
DSV,2018-01-01 06:10,-77.7130,42.5709,M,M,M,0.00,0.00,30.38,M,M,10.00,M,4100.00,M,M,M
DSV,2018-01-01 06:15,-77.7130,42.5709,M,M,M,0.00,0.00,30.38,M,M,10.00,M,4400.00,M,M,M
DSV,2018-01-01 06:20,-77.7130,42.5709,M,M,M,0.00,0.00,30.38,M,M,10.00,M,4400.00,M,M,M
DSV,2018-01-01 06:25,-77.7130,42.5709,M,M,M,0.00,0.00,30.38,M,M,10.00,M,4600.00,M,M,M
DSV,2018-01-01 06:30,-77.7130,42.5709,M,M,M,0.00,0.00,30.38,M,M,8.00,M,3399.00,4600.00,M,-SN
DSV,2018-01-01 06:35,-77.7130,42.5709,M,M,M,0.00,0.00,30.38,M,M,6.00,M,3200.00,4600.00,M,-SN
DSV,2018-01-01 06:40,-77.7130,42.5709,M,M,M,0.00,0.00,30.38,M,M,5.00,M,3200.00,4800.00,M,-SN
DSV,2018-01-01 06:45,-77.7130,42.5709,M,M,M,0.00,0.00,30.38,M,M,5.00,M,3000.00,4800.00,M,-SN
DSV,2018-01-01 06:50,-77.7130,42.5709,M,M,M,0.00,0.00,30.38,M,M,6.00,M,3200.00,4800.00,M,HZ
DSV,2018-01-01 06:54,-77.7130,42.5709,1.00,-4.00,78.95,0.00,0.00,30.38,1031.50,T,7.00,M,3400.00,5000.00,M,M
DSV,2018-01-01 06:55,-77.7130,42.5709,M,M,M,0.00,0.00,30.38,M,M,7.00,M,3399.00,5000.00,M,M
DSV,2018-01-01 07:00,-77.7130,42.5709,M,M,M,0.00,0.00,30.38,M,M,7.00,M,3100.00,5000.00,M,M
DSV,2018-01-01 07:05,-77.7130,42.5709,M,M,M,0.00,0.00,30.38,M,M,5.00,M,3300.00,5000.00,M,-SN
DSV,2018-01-01 07:10,-77.7130,42.5709,M,M,M,0.00,0.00,30.38,M,M,4.00,M,3300.00,5000.00,M,-SN
DSV,2018-01-01 07:15,-77.7130,42.5709,M,M,M,0.00,0.00,30.38,M,M,5.00,M,3300.00,4800.00,M,-SN
DSV,2018-01-01 07:20,-77.7130,42.5709,M,M,M,0.00,0.00,30.38,M,M,7.00,M,3500.00,4800.00,M,M
DSV,2018-01-01 07:25,-77.7130,42.5709,M,M,M,0.00,0.00,30.38,M,M,6.00,M,3500.00,4800.00,M,-SN
DSV,2018-01-01 07:30,-77.7130,42.5709,M,M,M,0.00,0.00,30.38,M,M,7.00,M,3700.00,4600.00,M,-SN
DSV,2018-01-01 07:35,-77.7130,42.5709,M,M,M,0.00,0.00,30.38,M,M,7.00,M,2900.00,3999.00,M,M
DSV,2018-01-01 07:40,-77.7130,42.5709,M,M,M,0.00,0.00,30.38,M,M,6.00,M,2100.00,3999.00,M,BR
DSV,2018-01-01 07:45,-77.7130,42.5709,M,M,M,0.00,0.00,30.38,M,M,7.00,M,2100.00,3800.00,M,M
DSV,2018-01-01 07:50,-77.7130,42.5709,M,M,M,0.00,0.00,30.38,M,M,9.00,M,2100.00,3800.00,M,M
DSV,2018-01-01 07:54,-77.7130,42.5709,1.00,-4.00,78.95,0.00,0.00,30.38,1031.40,T,10.00,M,1900.00,3800.00,M,M
DSV,2018-01-01 07:55,-77.7130,42.5709,M,M,M,0.00,0.00,30.38,M,M,10.00,M,1900.00,3999.00,M,M
DSV,2018-01-01 08:00,-77.7130,42.5709,M,M,M,0.00,0.00,30.38,M,M,10.00,M,1900.00,4200.00,M,M
DSV,2018-01-01 08:05,-77.7130,42.5709,M,M,M,0.00,0.00,30.38,M,M,10.00,M,1900.00,M,M,M
DSV,2018-01-01 08:10,-77.7130,42.5709,M,M,M,0.00,0.00,30.38,M,M,10.00,M,1900.00,M,M,M
DSV,2018-01-01 08:15,-77.7130,42.5709,M,M,M,0.00,0.00,30.38,M,M,10.00,M,M,M,M,M
DSV,2018-01-01 08:20,-77.7130,42.5709,M,M,M,0.00,0.00,30.38,M,M,10.00,M,M,M,M,M
DSV,2018-01-01 08:25,-77.7130,42.5709,M,M,M,0.00,0.00,30.38,M,M,10.00,M,3399.00,M,M,M
DSV,2018-01-01 08:30,-77.7130,42.5709,M,M,M,0.00,0.00,30.38,M,M,10.00,M,3399.00,M,M,M
DSV,2018-01-01 08:35,-77.7130,42.5709,M,M,M,0.00,0.00,30.38,M,M,10.00,M,3200.00,M,M,M
DSV,2018-01-01 08:40,-77.7130,42.5709,M,M,M,0.00,0.00,30.38,M,M,10.00,M,3000.00,3399.00,M,M
DSV,2018-01-01 08:45,-77.7130,42.5709,M,M,M,170.00,3.00,30.38,M,M,10.00,M,3000.00,3399.00,4600.00,M
DSV,2018-01-01 08:50,-77.7130,42.5709,M,M,M,160.00,3.00,30.37,M,M,10.00,M,2700.00,3399.00,4600.00,M
DSV,2018-01-01 08:52,-77.7130,42.5709,-0.40,-4.00,84.30,180.00,3.00,30.38,M,0.00,10.00,M,2700.00,3400.00,4500.00,M
DSV,2018-01-01 08:54,-77.7130,42.5709,0.00,-4.00,82.73,0.00,0.00,30.38,1031.30,0.00,10.00,M,2700.00,3400.00,4500.00,M
DSV,2018-01-01 08:55,-77.7130,42.5709,M,M,M,0.00,0.00,30.38,M,M,10.00,M,2700.00,3200.00,4500.00,M
DSV,2018-01-01 09:00,-77.7130,42.5709,M,M,M,150.00,3.00,30.38,M,M,10.00,M,2700.00,4200.00,M,M
DSV,2018-01-01 09:05,-77.7130,42.5709,M,M,M,150.00,4.00,30.38,M,M,10.00,M,2700.00,3500.00,4200.00,M
DSV,2018-01-01 09:10,-77.7130,42.5709,M,M,M,0.00,0.00,30.38,M,M,10.00,M,2700.00,4200.00,M,M
DSV,2018-01-01 09:12,-77.7130,42.5709,1.00,-4.00,78.95,0.00,0.00,30.38,M,0.00,10.00,M,2700.00,4000.00,M,M
DSV,2018-01-01 09:15,-77.7130,42.5709,M,M,M,0.00,0.00,30.38,M,M,10.00,M,2700.00,3300.00,4200.00,M
DSV,2018-01-01 09:20,-77.7130,42.5709,M,M,M,0.00,0.00,30.38,M,M,10.00,M,2700.00,3300.00,4200.00,M
DSV,2018-01-01 09:25,-77.7130,42.5709,M,M,M,0.00,0.00,30.38,M,M,10.00,M,3300.00,4200.00,M,M
DSV,2018-01-01 09:30,-77.7130,42.5709,M,M,M,0.00,0.00,30.38,M,M,10.00,M,3300.00,3999.00,M,M
DSV,2018-01-01 09:35,-77.7130,42.5709,M,M,M,160.00,3.00,30.38,M,M,10.00,M,3300.00,3999.00,M,M
DSV,2018-01-01 09:40,-77.7130,42.5709,M,M,M,0.00,0.00,30.38,M,M,10.00,M,3300.00,3999.00,M,M
DSV,2018-01-01 09:45,-77.7130,42.5709,M,M,M,0.00,0.00,30.38,M,M,10.00,M,3800.00,M,M,M
DSV,2018-01-01 09:50,-77.7130,42.5709,M,M,M,0.00,0.00,30.38,M,M,10.00,M,3800.00,M,M,M
DSV,2018-01-01 09:54,-77.7130,42.5709,1.00,-4.00,78.95,0.00,0.00,30.38,1031.30,0.00,10.00,M,3800.00,M,M,M
DSV,2018-01-01 09:55,-77.7130,42.5709,M,M,M,0.00,0.00,30.38,M,M,10.00,M,3800.00,M,M,M
DSV,2018-01-01 10:00,-77.7130,42.5709,M,M,M,0.00,0.00,30.38,M,M,10.00,M,3600.00,M,M,M
DSV,2018-01-01 10:05,-77.7130,42.5709,M,M,M,0.00,0.00,30.38,M,M,10.00,M,3600.00,M,M,M
DSV,2018-01-01 10:10,-77.7130,42.5709,M,M,M,0.00,0.00,30.38,M,M,10.00,M,3600.00,M,M,M
DSV,2018-01-01 10:15,-77.7130,42.5709,M,M,M,0.00,0.00,30.38,M,M,10.00,M,3399.00,M,M,M
DSV,2018-01-01 10:20,-77.7130,42.5709,M,M,M,0.00,0.00,30.38,M,M,10.00,M,3200.00,M,M,M
DSV,2018-01-01 10:25,-77.7130,42.5709,M,M,M,0.00,0.00,30.38,M,M,10.00,M,3200.00,M,M,M
DSV,2018-01-01 10:30,-77.7130,42.5709,M,M,M,0.00,0.00,30.38,M,M,10.00,M,3200.00,M,M,M
DSV,2018-01-01 10:35,-77.7130,42.5709,M,M,M,0.00,0.00,30.38,M,M,10.00,M,3200.00,M,M,M
DSV,2018-01-01 10:40,-77.7130,42.5709,M,M,M,0.00,0.00,30.37,M,M,10.00,M,3200.00,M,M,M
DSV,2018-01-01 10:45,-77.7130,42.5709,M,M,M,100.00,3.00,30.37,M,M,10.00,M,3100.00,M,M,M
DSV,2018-01-01 10:50,-77.7130,42.5709,M,M,M,0.00,0.00,30.37,M,M,10.00,M,3100.00,M,M,M
DSV,2018-01-01 10:54,-77.7130,42.5709,-2.00,-6.00,82.58,0.00,0.00,30.38,1031.40,0.00,10.00,M,3100.00,M,M,M
DSV,2018-01-01 10:55,-77.7130,42.5709,M,M,M,0.00,0.00,30.38,M,M,10.00,M,3100.00,M,M,M
DSV,2018-01-01 11:00,-77.7130,42.5709,M,M,M,160.00,3.00,30.38,M,M,10.00,M,M,M,M,M
DSV,2018-01-01 11:05,-77.7130,42.5709,M,M,M,0.00,0.00,30.38,M,M,10.00,M,M,M,M,M
DSV,2018-01-01 11:10,-77.7130,42.5709,M,M,M,0.00,0.00,30.38,M,M,10.00,M,M,M,M,M
DSV,2018-01-01 11:15,-77.7130,42.5709,M,M,M,0.00,0.00,30.38,M,M,10.00,M,M,M,M,M
DSV,2018-01-01 11:20,-77.7130,42.5709,M,M,M,0.00,0.00,30.38,M,M,10.00,M,M,M,M,M
DSV,2018-01-01 11:25,-77.7130,42.5709,M,M,M,160.00,3.00,30.38,M,M,10.00,M,M,M,M,M
DSV,2018-01-01 11:30,-77.7130,42.5709,M,M,M,0.00,0.00,30.38,M,M,10.00,M,M,M,M,M
DSV,2018-01-01 11:35,-77.7130,42.5709,M,M,M,180.00,3.00,30.38,M,M,10.00,M,M,M,M,M
DSV,2018-01-01 11:40,-77.7130,42.5709,M,M,M,190.00,4.00,30.38,M,M,10.00,M,M,M,M,M
DSV,2018-01-01 11:45,-77.7130,42.5709,M,M,M,150.00,3.00,30.38,M,M,10.00,M,M,M,M,M
DSV,2018-01-01 11:50,-77.7130,42.5709,M,M,M,140.00,3.00,30.38,M,M,10.00,M,M,M,M,M
DSV,2018-01-01 11:54,-77.7130,42.5709,-2.90,-8.00,78.21,130.00,3.00,30.38,1031.60,0.00,10.00,M,M,M,M,M
DSV,2018-01-01 11:55,-77.7130,42.5709,M,M,M,0.00,0.00,30.38,M,M,10.00,M,M,M,M,M
DSV,2018-01-01 12:00,-77.7130,42.5709,M,M,M,170.00,3.00,30.38,M,M,10.00,M,M,M,M,M
DSV,2018-01-01 12:05,-77.7130,42.5709,M,M,M,0.00,0.00,30.38,M,M,10.00,M,5500.00,M,M,M
DSV,2018-01-01 12:10,-77.7130,42.5709,M,M,M,150.00,3.00,30.38,M,M,10.00,M,5500.00,M,M,M
DSV,2018-01-01 12:15,-77.7130,42.5709,M,M,M,180.00,4.00,30.38,M,M,10.00,M,M,M,M,M
DSV,2018-01-01 12:20,-77.7130,42.5709,M,M,M,160.00,4.00,30.38,M,M,10.00,M,M,M,M,M
DSV,2018-01-01 12:25,-77.7130,42.5709,M,M,M,170.00,3.00,30.38,M,M,10.00,M,M,M,M,M
DSV,2018-01-01 12:30,-77.7130,42.5709,M,M,M,150.00,5.00,30.38,M,M,10.00,M,5500.00,M,M,M
DSV,2018-01-01 12:35,-77.7130,42.5709,M,M,M,130.00,4.00,30.38,M,M,10.00,M,6000.00,M,M,M
DSV,2018-01-01 12:40,-77.7130,42.5709,M,M,M,130.00,4.00,30.38,M,M,10.00,M,6000.00,M,M,M
DSV,2018-01-01 12:45,-77.7130,42.5709,M,M,M,160.00,3.00,30.38,M,M,10.00,M,6000.00,M,M,M
DSV,2018-01-01 12:50,-77.7130,42.5709,M,M,M,160.00,5.00,30.38,M,M,10.00,M,6000.00,M,M,M
DSV,2018-01-01 12:54,-77.7130,42.5709,-2.90,-9.00,74.47,160.00,4.00,30.38,1031.70,0.00,10.00,M,6000.00,M,M,M
DSV,2018-01-01 12:55,-77.7130,42.5709,M,M,M,160.00,4.00,30.38,M,M,10.00,M,6000.00,M,M,M
DSV,2018-01-01 13:00,-77.7130,42.5709,M,M,M,140.00,5.00,30.38,M,M,10.00,M,6000.00,M,M,M
DSV,2018-01-01 13:05,-77.7130,42.5709,M,M,M,140.00,4.00,30.37,M,M,10.00,M,6000.00,M,M,M
DSV,2018-01-01 13:10,-77.7130,42.5709,M,M,M,180.00,4.00,30.38,M,M,10.00,M,6000.00,M,M,M
DSV,2018-01-01 13:15,-77.7130,42.5709,M,M,M,180.00,5.00,30.38,M,M,10.00,M,6000.00,M,M,M
DSV,2018-01-01 13:20,-77.7130,42.5709,M,M,M,170.00,5.00,30.38,M,M,10.00,M,M,M,M,M
DSV,2018-01-01 13:25,-77.7130,42.5709,M,M,M,160.00,5.00,30.38,M,M,10.00,M,M,M,M,M
DSV,2018-01-01 13:30,-77.7130,42.5709,M,M,M,160.00,5.00,30.38,M,M,10.00,M,M,M,M,M
DSV,2018-01-01 13:35,-77.7130,42.5709,M,M,M,150.00,6.00,30.39,M,M,10.00,M,M,M,M,M
DSV,2018-01-01 13:40,-77.7130,42.5709,M,M,M,120.00,6.00,30.38,M,M,10.00,M,M,M,M,M
DSV,2018-01-01 13:45,-77.7130,42.5709,M,M,M,90.00,5.00,30.38,M,M,10.00,M,3999.00,M,M,M
DSV,2018-01-01 13:50,-77.7130,42.5709,M,M,M,120.00,7.00,30.38,M,M,10.00,M,3800.00,M,M,M
DSV,2018-01-01 13:54,-77.7130,42.5709,-2.00,-8.00,74.93,130.00,8.00,30.38,1031.60,0.00,10.00,M,3600.00,M,M,M
DSV,2018-01-01 13:55,-77.7130,42.5709,M,M,M,130.00,7.00,30.38,M,M,10.00,M,3600.00,M,M,M
DSV,2018-01-01 14:00,-77.7130,42.5709,M,M,M,120.00,7.00,30.38,M,M,10.00,M,3600.00,M,M,M
DSV,2018-01-01 14:05,-77.7130,42.5709,M,M,M,130.00,6.00,30.38,M,M,10.00,M,3600.00,M,M,M
DSV,2018-01-01 14:10,-77.7130,42.5709,M,M,M,140.00,7.00,30.38,M,M,10.00,M,3700.00,M,M,M
DSV,2018-01-01 14:15,-77.7130,42.5709,M,M,M,140.00,7.00,30.38,M,M,10.00,M,M,M,M,M
DSV,2018-01-01 14:20,-77.7130,42.5709,M,M,M,140.00,6.00,30.38,M,M,10.00,M,M,M,M,M
DSV,2018-01-01 14:25,-77.7130,42.5709,M,M,M,130.00,6.00,30.38,M,M,10.00,M,M,M,M,M
DSV,2018-01-01 14:30,-77.7130,42.5709,M,M,M,130.00,7.00,30.38,M,M,10.00,M,M,M,M,M
DSV,2018-01-01 14:35,-77.7130,42.5709,M,M,M,120.00,8.00,30.38,M,M,10.00,M,M,M,M,M
DSV,2018-01-01 14:40,-77.7130,42.5709,M,M,M,130.00,8.00,30.38,M,M,10.00,M,M,M,M,M
DSV,2018-01-01 14:45,-77.7130,42.5709,M,M,M,140.00,8.00,30.38,M,M,10.00,M,M,M,M,M
DSV,2018-01-01 14:50,-77.7130,42.5709,M,M,M,140.00,8.00,30.37,M,M,10.00,M,M,M,M,M
DSV,2018-01-01 14:54,-77.7130,42.5709,3.00,-5.10,68.25,140.00,8.00,30.37,1031.30,0.00,10.00,M,M,M,M,M
DSV,2018-01-01 14:55,-77.7130,42.5709,M,M,M,140.00,8.00,30.37,M,M,10.00,M,M,M,M,M
DSV,2018-01-01 15:00,-77.7130,42.5709,M,M,M,140.00,7.00,30.37,M,M,10.00,M,M,M,M,M
DSV,2018-01-01 15:05,-77.7130,42.5709,M,M,M,120.00,7.00,30.37,M,M,10.00,M,M,M,M,M
DSV,2018-01-01 15:10,-77.7130,42.5709,M,M,M,120.00,8.00,30.37,M,M,10.00,M,M,M,M,M
DSV,2018-01-01 15:15,-77.7130,42.5709,M,M,M,120.00,7.00,30.37,M,M,10.00,M,M,M,M,M
DSV,2018-01-01 15:20,-77.7130,42.5709,M,M,M,130.00,6.00,30.37,M,M,10.00,M,M,M,M,M
DSV,2018-01-01 15:25,-77.7130,42.5709,M,M,M,120.00,6.00,30.36,M,M,10.00,M,M,M,M,M
DSV,2018-01-01 15:30,-77.7130,42.5709,M,M,M,110.00,7.00,30.36,M,M,10.00,M,M,M,M,M
DSV,2018-01-01 15:35,-77.7130,42.5709,M,M,M,120.00,6.00,30.36,M,M,10.00,M,M,M,M,M
DSV,2018-01-01 15:40,-77.7130,42.5709,M,M,M,120.00,6.00,30.36,M,M,10.00,M,M,M,M,M
DSV,2018-01-01 15:45,-77.7130,42.5709,M,M,M,130.00,6.00,30.36,M,M,10.00,M,M,M,M,M
DSV,2018-01-01 15:50,-77.7130,42.5709,M,M,M,120.00,6.00,30.35,M,M,10.00,M,M,M,M,M
DSV,2018-01-01 15:54,-77.7130,42.5709,7.00,-2.90,63.14,120.00,6.00,30.35,1030.50,0.00,10.00,M,M,M,M,M
DSV,2018-01-01 15:55,-77.7130,42.5709,M,M,M,120.00,6.00,30.35,M,M,10.00,M,M,M,M,M
DSV,2018-01-01 16:00,-77.7130,42.5709,M,M,M,130.00,6.00,30.35,M,M,10.00,M,M,M,M,M
DSV,2018-01-01 16:05,-77.7130,42.5709,M,M,M,130.00,6.00,30.35,M,M,10.00,M,M,M,M,M
DSV,2018-01-01 16:10,-77.7130,42.5709,M,M,M,130.00,5.00,30.35,M,M,10.00,M,4600.00,M,M,M
DSV,2018-01-01 16:15,-77.7130,42.5709,M,M,M,140.00,5.00,30.34,M,M,10.00,M,4100.00,M,M,M
DSV,2018-01-01 16:20,-77.7130,42.5709,M,M,M,140.00,6.00,30.34,M,M,10.00,M,4100.00,M,M,M
DSV,2018-01-01 16:25,-77.7130,42.5709,M,M,M,130.00,6.00,30.34,M,M,10.00,M,3900.00,M,M,M
DSV,2018-01-01 16:30,-77.7130,42.5709,M,M,M,150.00,6.00,30.34,M,M,10.00,M,3300.00,4100.00,5500.00,M
DSV,2018-01-01 16:35,-77.7130,42.5709,M,M,M,120.00,6.00,30.34,M,M,10.00,M,3600.00,4400.00,5000.00,M
DSV,2018-01-01 16:40,-77.7130,42.5709,M,M,M,120.00,7.00,30.33,M,M,10.00,M,3600.00,4300.00,5000.00,M
DSV,2018-01-01 16:45,-77.7130,42.5709,M,M,M,130.00,5.00,30.33,M,M,10.00,M,3600.00,4300.00,5000.00,M
DSV,2018-01-01 16:50,-77.7130,42.5709,M,M,M,120.00,7.00,30.32,M,M,10.00,M,3100.00,4200.00,5000.00,M
DSV,2018-01-01 16:54,-77.7130,42.5709,10.90,1.00,63.69,M,3.00,30.32,1029.30,0.00,10.00,M,2800.00,4200.00,5000.00,M
DSV,2018-01-01 16:55,-77.7130,42.5709,M,M,M,0.00,0.00,30.32,M,M,10.00,M,2800.00,5000.00,M,M
DSV,2018-01-01 17:00,-77.7130,42.5709,M,M,M,260.00,3.00,30.32,M,M,10.00,M,2600.00,5000.00,M,M
DSV,2018-01-01 17:05,-77.7130,42.5709,M,M,M,240.00,4.00,30.31,M,M,10.00,M,2600.00,5000.00,M,M
DSV,2018-01-01 17:10,-77.7130,42.5709,M,M,M,240.00,6.00,30.31,M,M,10.00,M,2600.00,3300.00,5000.00,M
DSV,2018-01-01 17:15,-77.7130,42.5709,M,M,M,250.00,6.00,30.31,M,M,10.00,M,2400.00,3500.00,5000.00,M
DSV,2018-01-01 17:18,-77.7130,42.5709,12.90,1.00,58.29,260.00,9.00,30.31,M,0.00,10.00,M,2400.00,3300.00,5000.00,M
DSV,2018-01-01 17:20,-77.7130,42.5709,M,M,M,260.00,7.00,30.31,M,M,10.00,M,2400.00,3500.00,5000.00,M
DSV,2018-01-01 17:25,-77.7130,42.5709,M,M,M,250.00,7.00,30.31,M,M,10.00,M,2400.00,M,M,M
DSV,2018-01-01 17:30,-77.7130,42.5709,M,M,M,260.00,6.00,30.31,M,M,8.00,M,2600.00,3399.00,M,M
DSV,2018-01-01 17:35,-77.7130,42.5709,M,M,M,260.00,6.00,30.31,M,M,7.00,M,2600.00,3399.00,6000.00,M
DSV,2018-01-01 17:40,-77.7130,42.5709,M,M,M,260.00,6.00,30.30,M,M,4.00,M,2600.00,3600.00,6000.00,-SN
DSV,2018-01-01 17:45,-77.7130,42.5709,M,M,M,300.00,7.00,30.30,M,M,3.00,M,2600.00,3600.00,5500.00,-SN
DSV,2018-01-01 17:50,-77.7130,42.5709,M,M,M,300.00,6.00,30.30,M,M,5.00,M,2800.00,3500.00,5500.00,-SN
DSV,2018-01-01 17:51,-77.7130,42.5709,12.20,1.40,61.25,320.00,6.00,30.30,M,T,5.00,M,2800.00,3500.00,5500.00,HZ
DSV,2018-01-01 17:54,-77.7130,42.5709,12.90,3.00,63.96,280.00,6.00,30.30,1028.50,T,6.00,M,3500.00,5500.00,M,HZ
DSV,2018-01-01 17:55,-77.7130,42.5709,M,M,M,280.00,5.00,30.30,M,M,6.00,M,3500.00,5500.00,M,HZ
DSV,2018-01-01 18:00,-77.7130,42.5709,M,M,M,0.00,0.00,30.30,M,M,8.00,M,3500.00,5500.00,M,M
DSV,2018-01-01 18:05,-77.7130,42.5709,M,M,M,340.00,4.00,30.29,M,M,10.00,M,2800.00,3399.00,5500.00,M
DSV,2018-01-01 18:10,-77.7130,42.5709,M,M,M,0.00,0.00,30.29,M,M,10.00,M,2800.00,3600.00,6000.00,M
DSV,2018-01-01 18:15,-77.7130,42.5709,M,M,M,310.00,3.00,30.29,M,M,10.00,M,2800.00,3600.00,5500.00,M
DSV,2018-01-01 18:20,-77.7130,42.5709,M,M,M,340.00,5.00,30.29,M,M,10.00,M,3100.00,3900.00,6000.00,M
DSV,2018-01-01 18:25,-77.7130,42.5709,M,M,M,330.00,5.00,30.29,M,M,10.00,M,2600.00,3600.00,6000.00,M
DSV,2018-01-01 18:30,-77.7130,42.5709,M,M,M,340.00,4.00,30.29,M,M,10.00,M,2600.00,3600.00,M,M
DSV,2018-01-01 18:35,-77.7130,42.5709,M,M,M,340.00,6.00,30.29,M,M,10.00,M,2800.00,3600.00,M,M
DSV,2018-01-01 18:40,-77.7130,42.5709,M,M,M,M,M,30.29,M,M,10.00,M,3600.00,M,M,M
DSV,2018-01-01 18:45,-77.7130,42.5709,M,M,M,M,M,30.28,M,M,10.00,M,3600.00,M,M,M
DSV,2018-01-01 18:50,-77.7130,42.5709,M,M,M,350.00,8.00,30.28,M,M,10.00,M,3600.00,M,M,M
DSV,2018-01-01 18:54,-77.7130,42.5709,14.00,3.00,60.94,340.00,9.00,30.28,1027.90,0.00,10.00,M,3600.00,M,M,M
DSV,2018-01-01 18:55,-77.7130,42.5709,M,M,M,340.00,9.00,30.28,M,M,10.00,M,3600.00,M,M,M
DSV,2018-01-01 19:00,-77.7130,42.5709,M,M,M,340.00,7.00,30.28,M,M,9.00,M,3600.00,M,M,M
DSV,2018-01-01 19:05,-77.7130,42.5709,M,M,M,330.00,9.00,30.28,M,M,9.00,M,3399.00,4100.00,M,-SN
DSV,2018-01-01 19:10,-77.7130,42.5709,M,M,M,340.00,9.00,30.28,M,M,9.00,M,3600.00,M,M,M
DSV,2018-01-01 19:15,-77.7130,42.5709,M,M,M,340.00,9.00,30.28,M,M,9.00,M,3399.00,4200.00,6000.00,M
DSV,2018-01-01 19:20,-77.7130,42.5709,M,M,M,350.00,8.00,30.28,M,M,10.00,M,3399.00,4400.00,6000.00,M
DSV,2018-01-01 19:25,-77.7130,42.5709,M,M,M,340.00,4.00,30.28,M,M,10.00,M,3399.00,4400.00,6000.00,M
DSV,2018-01-01 19:30,-77.7130,42.5709,M,M,M,300.00,4.00,30.28,M,M,10.00,M,3700.00,4500.00,6000.00,M
DSV,2018-01-01 19:35,-77.7130,42.5709,M,M,M,330.00,5.00,30.28,M,M,10.00,M,3700.00,4500.00,6000.00,M
DSV,2018-01-01 19:40,-77.7130,42.5709,M,M,M,310.00,5.00,30.28,M,M,10.00,M,3900.00,4800.00,6000.00,M
DSV,2018-01-01 19:45,-77.7130,42.5709,M,M,M,310.00,8.00,30.28,M,M,10.00,M,3900.00,4800.00,M,M
DSV,2018-01-01 19:50,-77.7130,42.5709,M,M,M,290.00,5.00,30.28,M,M,10.00,M,3600.00,4600.00,M,M
DSV,2018-01-01 19:54,-77.7130,42.5709,14.00,3.90,63.53,310.00,4.00,30.28,1027.90,T,10.00,M,3800.00,4600.00,M,M
DSV,2018-01-01 19:55,-77.7130,42.5709,M,M,M,300.00,3.00,30.28,M,M,10.00,M,3800.00,4600.00,M,M
DSV,2018-01-01 20:00,-77.7130,42.5709,M,M,M,250.00,3.00,30.28,M,M,10.00,M,3600.00,4600.00,M,M
DSV,2018-01-01 20:05,-77.7130,42.5709,M,M,M,260.00,8.00,30.28,M,M,10.00,M,3600.00,4600.00,6000.00,M
DSV,2018-01-01 20:10,-77.7130,42.5709,M,M,M,280.00,10.00,30.28,M,M,10.00,M,3800.00,4900.00,7999.00,M
DSV,2018-01-01 20:15,-77.7130,42.5709,M,M,M,270.00,5.00,30.28,M,M,10.00,M,3600.00,4400.00,7999.00,M
DSV,2018-01-01 20:20,-77.7130,42.5709,M,M,M,240.00,5.00,30.28,M,M,10.00,M,3600.00,4500.00,9500.00,M
DSV,2018-01-01 20:25,-77.7130,42.5709,M,M,M,270.00,6.00,30.29,M,M,10.00,M,3600.00,7999.00,9000.00,M
DSV,2018-01-01 20:30,-77.7130,42.5709,M,M,M,280.00,6.00,30.29,M,M,10.00,M,3500.00,5500.00,9000.00,M
DSV,2018-01-01 20:35,-77.7130,42.5709,M,M,M,260.00,4.00,30.29,M,M,10.00,M,3500.00,7999.00,9000.00,M
DSV,2018-01-01 20:40,-77.7130,42.5709,M,M,M,290.00,7.00,30.29,M,M,10.00,M,3500.00,9500.00,M,M
DSV,2018-01-01 20:45,-77.7130,42.5709,M,M,M,260.00,6.00,30.29,M,M,10.00,M,3500.00,9500.00,M,M
DSV,2018-01-01 20:50,-77.7130,42.5709,M,M,M,240.00,5.00,30.29,M,M,10.00,M,3900.00,9000.00,M,M
DSV,2018-01-01 20:54,-77.7130,42.5709,14.00,1.90,57.91,260.00,8.00,30.29,1028.30,0.00,10.00,M,3900.00,5500.00,9000.00,M
DSV,2018-01-01 20:55,-77.7130,42.5709,M,M,M,250.00,7.00,30.29,M,M,10.00,M,3900.00,5500.00,9000.00,M
DSV,2018-01-01 21:00,-77.7130,42.5709,M,M,M,270.00,6.00,30.29,M,M,10.00,M,6000.00,9000.00,M,M
DSV,2018-01-01 21:05,-77.7130,42.5709,M,M,M,250.00,6.00,30.30,M,M,10.00,M,6000.00,9000.00,M,M
DSV,2018-01-01 21:10,-77.7130,42.5709,M,M,M,240.00,6.00,30.30,M,M,10.00,M,3800.00,6000.00,9000.00,M
DSV,2018-01-01 21:15,-77.7130,42.5709,M,M,M,270.00,10.00,30.29,M,M,10.00,M,3800.00,6000.00,9000.00,M
DSV,2018-01-01 21:20,-77.7130,42.5709,M,M,M,270.00,6.00,30.30,M,M,10.00,M,3999.00,7000.00,9000.00,M
DSV,2018-01-01 21:25,-77.7130,42.5709,M,M,M,260.00,7.00,30.29,M,M,10.00,M,3600.00,7000.00,9000.00,M
DSV,2018-01-01 21:30,-77.7130,42.5709,M,M,M,260.00,4.00,30.29,M,M,10.00,M,2900.00,6000.00,7000.00,M
DSV,2018-01-01 21:35,-77.7130,42.5709,M,M,M,260.00,5.00,30.29,M,M,10.00,M,3399.00,5000.00,10000.00,M
DSV,2018-01-01 21:40,-77.7130,42.5709,M,M,M,250.00,3.00,30.29,M,M,10.00,M,3700.00,4800.00,7000.00,M
DSV,2018-01-01 21:45,-77.7130,42.5709,M,M,M,260.00,4.00,30.29,M,M,10.00,M,3900.00,4600.00,10000.00,M
DSV,2018-01-01 21:50,-77.7130,42.5709,M,M,M,260.00,5.00,30.29,M,M,10.00,M,3900.00,7000.00,10000.00,M
DSV,2018-01-01 21:54,-77.7130,42.5709,12.90,1.90,60.78,270.00,4.00,30.29,1028.30,0.00,10.00,M,3700.00,10000.00,M,M
DSV,2018-01-01 21:55,-77.7130,42.5709,M,M,M,250.00,3.00,30.29,M,M,10.00,M,3700.00,10000.00,M,M
DSV,2018-01-01 22:00,-77.7130,42.5709,M,M,M,270.00,3.00,30.29,M,M,10.00,M,3500.00,10000.00,M,M
DSV,2018-01-01 22:05,-77.7130,42.5709,M,M,M,0.00,0.00,30.29,M,M,10.00,M,3300.00,M,M,M
DSV,2018-01-01 22:10,-77.7130,42.5709,M,M,M,0.00,0.00,30.29,M,M,10.00,M,3100.00,M,M,M
DSV,2018-01-01 22:15,-77.7130,42.5709,M,M,M,0.00,0.00,30.29,M,M,10.00,M,2900.00,M,M,M
DSV,2018-01-01 22:18,-77.7130,42.5709,12.00,1.90,63.25,0.00,0.00,30.29,M,0.00,10.00,M,2900.00,M,M,M
DSV,2018-01-01 22:20,-77.7130,42.5709,M,M,M,250.00,3.00,30.29,M,M,10.00,M,2700.00,M,M,M
DSV,2018-01-01 22:25,-77.7130,42.5709,M,M,M,0.00,0.00,30.29,M,M,10.00,M,2900.00,M,M,M
DSV,2018-01-01 22:30,-77.7130,42.5709,M,M,M,0.00,0.00,30.29,M,M,10.00,M,2900.00,M,M,M
DSV,2018-01-01 22:35,-77.7130,42.5709,M,M,M,250.00,3.00,30.30,M,M,9.00,M,2900.00,7500.00,M,M
DSV,2018-01-01 22:40,-77.7130,42.5709,M,M,M,240.00,3.00,30.30,M,M,8.00,M,3100.00,7500.00,M,-SN
DSV,2018-01-01 22:45,-77.7130,42.5709,M,M,M,230.00,3.00,30.30,M,M,6.00,M,3100.00,7500.00,M,-SN
DSV,2018-01-01 22:46,-77.7130,42.5709,12.90,3.90,66.67,0.00,0.00,30.30,M,T,6.00,M,3100.00,7500.00,M,-SN
DSV,2018-01-01 22:50,-77.7130,42.5709,M,M,M,230.00,4.00,30.30,M,M,5.00,M,3300.00,7500.00,M,-SN
DSV,2018-01-01 22:54,-77.7130,42.5709,12.90,3.90,66.67,270.00,5.00,30.30,1028.50,T,4.00,M,3300.00,7500.00,M,-SN
DSV,2018-01-01 22:55,-77.7130,42.5709,M,M,M,260.00,4.00,30.30,M,M,4.00,M,3300.00,7500.00,M,-SN
DSV,2018-01-01 23:00,-77.7130,42.5709,M,M,M,250.00,4.00,30.30,M,M,4.00,M,3300.00,7500.00,M,-SN
DSV,2018-01-01 23:05,-77.7130,42.5709,M,M,M,250.00,3.00,30.30,M,M,3.00,M,3100.00,M,M,-SN
DSV,2018-01-01 23:10,-77.7130,42.5709,M,M,M,250.00,4.00,30.30,M,M,3.00,M,2900.00,M,M,-SN
DSV,2018-01-01 23:15,-77.7130,42.5709,M,M,M,250.00,3.00,30.30,M,M,3.50,M,2700.00,M,M,-SN
DSV,2018-01-01 23:16,-77.7130,42.5709,12.90,5.00,70.13,270.00,4.00,30.30,M,T,3.00,M,2700.00,M,M,-SN
DSV,2018-01-01 23:20,-77.7130,42.5709,M,M,M,270.00,4.00,30.30,M,M,2.50,M,2500.00,M,M,-SN
DSV,2018-01-01 23:25,-77.7130,42.5709,M,M,M,260.00,4.00,30.30,M,M,2.50,M,2300.00,M,M,-SN
DSV,2018-01-01 23:26,-77.7130,42.5709,12.90,5.00,70.13,270.00,4.00,30.30,M,T,2.50,M,2300.00,8000.00,M,-SN
DSV,2018-01-01 23:30,-77.7130,42.5709,M,M,M,260.00,3.00,30.30,M,M,3.00,M,2300.00,7999.00,M,-SN
DSV,2018-01-01 23:35,-77.7130,42.5709,12.90,5.00,70.13,280.00,5.00,30.30,M,T,5.00,M,2300.00,8000.00,M,-SN
DSV,2018-01-01 23:40,-77.7130,42.5709,M,M,M,270.00,4.00,30.30,M,M,6.00,M,2100.00,7999.00,M,-SN
DSV,2018-01-01 23:44,-77.7130,42.5709,12.90,5.00,70.13,270.00,4.00,30.30,M,T,4.00,M,2100.00,8000.00,M,-SN
DSV,2018-01-01 23:45,-77.7130,42.5709,M,M,M,270.00,3.00,30.30,M,M,4.00,M,2100.00,7999.00,M,-SN
DSV,2018-01-01 23:50,-77.7130,42.5709,M,M,M,280.00,4.00,30.31,M,M,4.00,M,2300.00,7999.00,M,-SN
DSV,2018-01-01 23:54,-77.7130,42.5709,12.90,6.10,73.74,0.00,0.00,30.31,1028.80,T,5.00,M,2500.00,3500.00,8000.00,-SN
DSV,2018-01-01 23:55,-77.7130,42.5709,M,M,M,290.00,3.00,30.31,M,M,5.00,M,2500.00,3500.00,7999.00,-SN
DSV,2018-01-02 00:00,-77.7130,42.5709,M,M,M,270.00,3.00,30.31,M,M,4.00,M,2300.00,3500.00,M,-SN
DSV,2018-01-02 00:05,-77.7130,42.5709,M,M,M,0.00,0.00,30.31,M,M,3.00,M,2300.00,2900.00,M,-SN
DSV,2018-01-02 00:10,-77.7130,42.5709,M,M,M,0.00,0.00,30.31,M,M,4.00,M,2300.00,3200.00,M,-SN
DSV,2018-01-02 00:15,-77.7130,42.5709,M,M,M,280.00,3.00,30.31,M,M,5.00,M,2300.00,3200.00,M,-SN
DSV,2018-01-02 00:20,-77.7130,42.5709,M,M,M,290.00,5.00,30.31,M,M,5.00,M,2300.00,3200.00,M,-SN
DSV,2018-01-02 00:25,-77.7130,42.5709,M,M,M,260.00,4.00,30.31,M,M,7.00,M,2500.00,3200.00,7500.00,-SN
DSV,2018-01-02 00:30,-77.7130,42.5709,M,M,M,290.00,5.00,30.31,M,M,9.00,M,2500.00,3200.00,7500.00,M
DSV,2018-01-02 00:35,-77.7130,42.5709,M,M,M,280.00,6.00,30.31,M,M,10.00,M,2500.00,3200.00,7500.00,M
DSV,2018-01-02 00:38,-77.7130,42.5709,14.00,3.90,63.53,290.00,5.00,30.31,M,T,10.00,M,2500.00,3200.00,7500.00,M
DSV,2018-01-02 00:40,-77.7130,42.5709,M,M,M,290.00,6.00,30.31,M,M,10.00,M,2700.00,3200.00,7500.00,M
DSV,2018-01-02 00:45,-77.7130,42.5709,M,M,M,290.00,7.00,30.31,M,M,10.00,M,2900.00,7500.00,10000.00,M
DSV,2018-01-02 00:50,-77.7130,42.5709,M,M,M,300.00,6.00,30.31,M,M,10.00,M,7500.00,10000.00,M,M
DSV,2018-01-02 00:54,-77.7130,42.5709,14.00,1.90,57.91,M,5.00,30.31,1029.00,T,10.00,M,7500.00,10000.00,M,M
DSV,2018-01-02 00:55,-77.7130,42.5709,M,M,M,310.00,7.00,30.31,M,M,10.00,M,7500.00,10000.00,M,M
DSV,2018-01-02 01:00,-77.7130,42.5709,M,M,M,300.00,8.00,30.31,M,M,10.00,M,7000.00,10000.00,M,M
DSV,2018-01-02 01:05,-77.7130,42.5709,M,M,M,310.00,9.00,30.31,M,M,10.00,M,7000.00,10000.00,M,M
DSV,2018-01-02 01:10,-77.7130,42.5709,M,M,M,310.00,6.00,30.32,M,M,10.00,M,7500.00,9500.00,M,M
DSV,2018-01-02 01:15,-77.7130,42.5709,M,M,M,310.00,8.00,30.32,M,M,10.00,M,7000.00,9500.00,M,M
DSV,2018-01-02 01:20,-77.7130,42.5709,M,M,M,320.00,7.00,30.32,M,M,10.00,M,7000.00,9000.00,M,M
DSV,2018-01-02 01:25,-77.7130,42.5709,M,M,M,310.00,9.00,30.32,M,M,10.00,14.00,7000.00,9000.00,M,M
DSV,2018-01-02 01:30,-77.7130,42.5709,M,M,M,320.00,7.00,30.32,M,M,10.00,M,9000.00,M,M,M
DSV,2018-01-02 01:35,-77.7130,42.5709,M,M,M,310.00,11.00,30.32,M,M,10.00,M,9000.00,M,M,M
DSV,2018-01-02 01:40,-77.7130,42.5709,M,M,M,300.00,7.00,30.32,M,M,10.00,M,7000.00,9000.00,M,M
DSV,2018-01-02 01:45,-77.7130,42.5709,M,M,M,290.00,8.00,30.32,M,M,10.00,M,6500.00,9000.00,M,M
DSV,2018-01-02 01:50,-77.7130,42.5709,M,M,M,280.00,10.00,30.32,M,M,10.00,M,6500.00,9000.00,M,M
DSV,2018-01-02 01:54,-77.7130,42.5709,14.00,3.00,60.94,310.00,8.00,30.32,1029.30,0.00,10.00,16.00,6500.00,9000.00,M,M
DSV,2018-01-02 01:55,-77.7130,42.5709,M,M,M,300.00,10.00,30.32,M,M,10.00,M,6500.00,9000.00,M,M
DSV,2018-01-02 02:00,-77.7130,42.5709,M,M,M,300.00,9.00,30.32,M,M,10.00,M,6000.00,M,M,M
DSV,2018-01-02 02:05,-77.7130,42.5709,M,M,M,300.00,5.00,30.32,M,M,10.00,M,6000.00,M,M,M
DSV,2018-01-02 02:10,-77.7130,42.5709,M,M,M,300.00,7.00,30.32,M,M,10.00,M,4700.00,6000.00,M,M
DSV,2018-01-02 02:15,-77.7130,42.5709,M,M,M,290.00,9.00,30.32,M,M,10.00,M,4600.00,5500.00,M,M
DSV,2018-01-02 02:20,-77.7130,42.5709,M,M,M,310.00,9.00,30.32,M,M,10.00,15.00,3500.00,5000.00,M,M
DSV,2018-01-02 02:25,-77.7130,42.5709,M,M,M,300.00,8.00,30.32,M,M,10.00,M,3500.00,5000.00,M,M
DSV,2018-01-02 02:30,-77.7130,42.5709,M,M,M,300.00,11.00,30.33,M,M,10.00,M,3500.00,4800.00,M,M
DSV,2018-01-02 02:35,-77.7130,42.5709,M,M,M,310.00,10.00,30.33,M,M,10.00,M,3500.00,4800.00,M,M
DSV,2018-01-02 02:40,-77.7130,42.5709,M,M,M,310.00,10.00,30.33,M,M,10.00,M,3500.00,4600.00,M,M
DSV,2018-01-02 02:45,-77.7130,42.5709,M,M,M,310.00,10.00,30.33,M,M,10.00,M,3500.00,4600.00,M,M
DSV,2018-01-02 02:50,-77.7130,42.5709,M,M,M,310.00,10.00,30.33,M,M,10.00,M,2800.00,4200.00,4900.00,M
DSV,2018-01-02 02:54,-77.7130,42.5709,12.90,3.90,66.67,320.00,10.00,30.33,1029.60,0.00,10.00,M,2800.00,4700.00,7500.00,M
DSV,2018-01-02 02:55,-77.7130,42.5709,M,M,M,320.00,9.00,30.33,M,M,10.00,M,2800.00,4700.00,7500.00,M
DSV,2018-01-02 03:00,-77.7130,42.5709,M,M,M,320.00,9.00,30.34,M,M,10.00,M,2800.00,4500.00,7500.00,M
DSV,2018-01-02 03:05,-77.7130,42.5709,M,M,M,310.00,7.00,30.34,M,M,10.00,M,2800.00,4200.00,7500.00,M
DSV,2018-01-02 03:10,-77.7130,42.5709,M,M,M,310.00,9.00,30.34,M,M,10.00,M,2800.00,3300.00,7500.00,M
DSV,2018-01-02 03:15,-77.7130,42.5709,M,M,M,300.00,9.00,30.34,M,M,10.00,M,2800.00,6000.00,7500.00,M
DSV,2018-01-02 03:20,-77.7130,42.5709,M,M,M,310.00,9.00,30.34,M,M,10.00,M,6000.00,7500.00,M,M
DSV,2018-01-02 03:25,-77.7130,42.5709,M,M,M,310.00,10.00,30.34,M,M,10.00,M,6000.00,7500.00,M,M
DSV,2018-01-02 03:30,-77.7130,42.5709,M,M,M,320.00,12.00,30.34,M,M,10.00,M,6000.00,7500.00,M,M
DSV,2018-01-02 03:35,-77.7130,42.5709,M,M,M,320.00,10.00,30.34,M,M,10.00,M,6000.00,7500.00,M,M
DSV,2018-01-02 03:40,-77.7130,42.5709,M,M,M,310.00,8.00,30.34,M,M,10.00,M,6000.00,M,M,M
DSV,2018-01-02 03:45,-77.7130,42.5709,M,M,M,310.00,8.00,30.34,M,M,10.00,M,6000.00,M,M,M
DSV,2018-01-02 03:50,-77.7130,42.5709,M,M,M,320.00,13.00,30.35,M,M,10.00,M,5000.00,6000.00,M,M
DSV,2018-01-02 03:54,-77.7130,42.5709,12.90,3.90,66.67,310.00,12.00,30.35,1030.10,0.00,10.00,M,5000.00,6000.00,M,M
DSV,2018-01-02 03:55,-77.7130,42.5709,M,M,M,320.00,11.00,30.35,M,M,10.00,M,5000.00,6000.00,M,M
DSV,2018-01-02 04:00,-77.7130,42.5709,M,M,M,310.00,12.00,30.35,M,M,9.00,M,3200.00,5000.00,M,M
DSV,2018-01-02 04:05,-77.7130,42.5709,M,M,M,310.00,12.00,30.35,M,M,8.00,M,5500.00,M,M,M
DSV,2018-01-02 04:10,-77.7130,42.5709,M,M,M,320.00,12.00,30.35,M,M,7.00,M,5500.00,M,M,M
DSV,2018-01-02 04:15,-77.7130,42.5709,M,M,M,310.00,12.00,30.35,M,M,9.00,M,5500.00,M,M,M
DSV,2018-01-02 04:20,-77.7130,42.5709,M,M,M,300.00,11.00,30.35,M,M,10.00,M,5500.00,M,M,M
DSV,2018-01-02 04:25,-77.7130,42.5709,M,M,M,310.00,10.00,30.35,M,M,10.00,M,5500.00,M,M,M
DSV,2018-01-02 04:30,-77.7130,42.5709,M,M,M,320.00,13.00,30.35,M,M,9.00,M,5500.00,M,M,M
DSV,2018-01-02 04:35,-77.7130,42.5709,M,M,M,320.00,13.00,30.35,M,M,9.00,M,5500.00,M,M,M
DSV,2018-01-02 04:40,-77.7130,42.5709,M,M,M,310.00,13.00,30.35,M,M,9.00,18.00,5500.00,M,M,M
DSV,2018-01-02 04:45,-77.7130,42.5709,M,M,M,310.00,13.00,30.35,M,M,8.00,M,5500.00,M,M,M
DSV,2018-01-02 04:50,-77.7130,42.5709,M,M,M,310.00,12.00,30.35,M,M,8.00,17.00,5500.00,M,M,M
DSV,2018-01-02 04:54,-77.7130,42.5709,12.90,3.90,66.67,310.00,13.00,30.35,1030.20,0.00,8.00,M,5500.00,M,M,M
DSV,2018-01-02 04:55,-77.7130,42.5709,M,M,M,310.00,12.00,30.35,M,M,8.00,M,5500.00,M,M,M
DSV,2018-01-02 05:00,-77.7130,42.5709,M,M,M,310.00,10.00,30.35,M,M,8.00,M,5500.00,M,M,M
DSV,2018-01-02 05:05,-77.7130,42.5709,M,M,M,310.00,9.00,30.35,M,M,7.00,M,5000.00,M,M,-SN
DSV,2018-01-02 05:10,-77.7130,42.5709,M,M,M,310.00,10.00,30.35,M,M,6.00,15.00,5000.00,M,M,-SN
DSV,2018-01-02 05:15,-77.7130,42.5709,M,M,M,310.00,10.00,30.34,M,M,6.00,M,5000.00,M,M,HZ
DSV,2018-01-02 05:20,-77.7130,42.5709,M,M,M,310.00,10.00,30.34,M,M,8.00,M,5000.00,M,M,M
DSV,2018-01-02 05:25,-77.7130,42.5709,M,M,M,310.00,10.00,30.34,M,M,10.00,M,5000.00,M,M,M
DSV,2018-01-02 05:30,-77.7130,42.5709,M,M,M,310.00,11.00,30.35,M,M,10.00,M,5000.00,M,M,M
DSV,2018-01-02 05:35,-77.7130,42.5709,M,M,M,320.00,10.00,30.35,M,M,10.00,M,5000.00,M,M,M
DSV,2018-01-02 05:40,-77.7130,42.5709,M,M,M,320.00,11.00,30.35,M,M,10.00,M,5000.00,M,M,M
DSV,2018-01-02 05:45,-77.7130,42.5709,M,M,M,320.00,9.00,30.35,M,M,10.00,M,5500.00,M,M,M
DSV,2018-01-02 05:50,-77.7130,42.5709,M,M,M,310.00,9.00,30.35,M,M,10.00,M,5500.00,M,M,M
DSV,2018-01-02 05:54,-77.7130,42.5709,12.90,3.00,63.96,320.00,7.00,30.35,1029.90,T,10.00,M,5500.00,M,M,M
DSV,2018-01-02 05:55,-77.7130,42.5709,M,M,M,320.00,8.00,30.35,M,M,10.00,M,5500.00,M,M,M
DSV,2018-01-02 06:00,-77.7130,42.5709,M,M,M,310.00,6.00,30.34,M,M,10.00,M,5500.00,M,M,M
DSV,2018-01-02 06:05,-77.7130,42.5709,M,M,M,310.00,7.00,30.34,M,M,10.00,M,5500.00,M,M,M
DSV,2018-01-02 06:10,-77.7130,42.5709,M,M,M,320.00,7.00,30.34,M,M,10.00,M,5500.00,M,M,M
DSV,2018-01-02 06:15,-77.7130,42.5709,M,M,M,320.00,7.00,30.34,M,M,10.00,M,5500.00,M,M,M
DSV,2018-01-02 06:20,-77.7130,42.5709,M,M,M,320.00,6.00,30.34,M,M,10.00,M,6000.00,M,M,M
DSV,2018-01-02 06:25,-77.7130,42.5709,M,M,M,320.00,6.00,30.34,M,M,10.00,M,6000.00,M,M,M
DSV,2018-01-02 06:30,-77.7130,42.5709,M,M,M,320.00,6.00,30.34,M,M,10.00,M,6000.00,M,M,M
DSV,2018-01-02 06:35,-77.7130,42.5709,M,M,M,330.00,6.00,30.34,M,M,10.00,M,6000.00,M,M,M
DSV,2018-01-02 06:40,-77.7130,42.5709,M,M,M,320.00,5.00,30.34,M,M,10.00,M,6000.00,M,M,M
DSV,2018-01-02 06:45,-77.7130,42.5709,M,M,M,320.00,4.00,30.34,M,M,10.00,M,6000.00,M,M,M
DSV,2018-01-02 06:50,-77.7130,42.5709,M,M,M,320.00,4.00,30.34,M,M,10.00,M,6000.00,M,M,M
DSV,2018-01-02 06:54,-77.7130,42.5709,12.00,3.00,66.56,320.00,4.00,30.34,1029.80,0.00,10.00,M,6000.00,M,M,M
DSV,2018-01-02 06:55,-77.7130,42.5709,M,M,M,320.00,4.00,30.34,M,M,10.00,M,6000.00,M,M,M
DSV,2018-01-02 07:00,-77.7130,42.5709,M,M,M,340.00,6.00,30.34,M,M,10.00,M,6000.00,M,M,M
DSV,2018-01-02 07:05,-77.7130,42.5709,M,M,M,340.00,5.00,30.34,M,M,10.00,M,2500.00,6000.00,M,M
DSV,2018-01-02 07:10,-77.7130,42.5709,M,M,M,340.00,6.00,30.34,M,M,10.00,M,2500.00,6000.00,M,M
DSV,2018-01-02 07:15,-77.7130,42.5709,M,M,M,340.00,6.00,30.34,M,M,10.00,M,2500.00,6000.00,M,M
DSV,2018-01-02 07:20,-77.7130,42.5709,M,M,M,340.00,5.00,30.34,M,M,10.00,M,2500.00,6000.00,M,M
DSV,2018-01-02 07:25,-77.7130,42.5709,M,M,M,330.00,5.00,30.35,M,M,10.00,M,2500.00,6000.00,M,M
DSV,2018-01-02 07:30,-77.7130,42.5709,M,M,M,330.00,6.00,30.35,M,M,10.00,M,2500.00,6000.00,M,M
DSV,2018-01-02 07:35,-77.7130,42.5709,M,M,M,340.00,5.00,30.34,M,M,10.00,M,6000.00,M,M,M
DSV,2018-01-02 07:40,-77.7130,42.5709,M,M,M,350.00,6.00,30.34,M,M,10.00,M,6000.00,M,M,M
DSV,2018-01-02 07:45,-77.7130,42.5709,M,M,M,350.00,6.00,30.34,M,M,10.00,M,6000.00,M,M,M
DSV,2018-01-02 07:50,-77.7130,42.5709,M,M,M,340.00,5.00,30.34,M,M,10.00,M,6000.00,M,M,M
DSV,2018-01-02 07:54,-77.7130,42.5709,12.00,3.00,66.56,350.00,5.00,30.34,1029.80,0.00,10.00,M,6000.00,M,M,M
DSV,2018-01-02 07:55,-77.7130,42.5709,M,M,M,350.00,5.00,30.34,M,M,10.00,M,6000.00,M,M,M
DSV,2018-01-02 08:00,-77.7130,42.5709,M,M,M,330.00,5.00,30.34,M,M,10.00,M,2500.00,6000.00,M,M
DSV,2018-01-02 08:05,-77.7130,42.5709,M,M,M,320.00,5.00,30.34,M,M,10.00,M,2500.00,5500.00,M,M
DSV,2018-01-02 08:10,-77.7130,42.5709,M,M,M,330.00,5.00,30.34,M,M,10.00,M,2500.00,5500.00,M,M
DSV,2018-01-02 08:15,-77.7130,42.5709,M,M,M,320.00,3.00,30.33,M,M,10.00,M,2600.00,5500.00,M,M
DSV,2018-01-02 08:20,-77.7130,42.5709,M,M,M,330.00,3.00,30.33,M,M,10.00,M,2600.00,5500.00,M,M
DSV,2018-01-02 08:25,-77.7130,42.5709,M,M,M,0.00,0.00,30.33,M,M,10.00,M,2600.00,5500.00,M,M
DSV,2018-01-02 08:30,-77.7130,42.5709,M,M,M,0.00,0.00,30.34,M,M,10.00,M,2600.00,5500.00,M,M
DSV,2018-01-02 08:35,-77.7130,42.5709,M,M,M,0.00,0.00,30.33,M,M,10.00,M,2600.00,5500.00,M,M
DSV,2018-01-02 08:40,-77.7130,42.5709,M,M,M,0.00,0.00,30.33,M,M,10.00,M,2600.00,5500.00,M,M
DSV,2018-01-02 08:45,-77.7130,42.5709,M,M,M,0.00,0.00,30.33,M,M,10.00,M,2600.00,5500.00,M,M
DSV,2018-01-02 08:50,-77.7130,42.5709,M,M,M,0.00,0.00,30.33,M,M,10.00,M,2600.00,5500.00,M,M
DSV,2018-01-02 08:54,-77.7130,42.5709,12.90,5.00,70.13,0.00,0.00,30.33,1029.30,0.00,10.00,M,2600.00,3700.00,M,M
DSV,2018-01-02 08:55,-77.7130,42.5709,M,M,M,0.00,0.00,30.33,M,M,10.00,M,2600.00,3700.00,M,M
DSV,2018-01-02 09:00,-77.7130,42.5709,M,M,M,0.00,0.00,30.33,M,M,10.00,M,2800.00,3700.00,M,M
DSV,2018-01-02 09:05,-77.7130,42.5709,M,M,M,0.00,0.00,30.33,M,M,10.00,M,2800.00,3500.00,M,M
DSV,2018-01-02 09:10,-77.7130,42.5709,M,M,M,0.00,0.00,30.33,M,M,9.00,M,2800.00,3500.00,M,-SN
DSV,2018-01-02 09:15,-77.7130,42.5709,M,M,M,0.00,0.00,30.33,M,M,7.00,M,3500.00,M,M,-SN
DSV,2018-01-02 09:17,-77.7130,42.5709,12.90,5.00,70.13,0.00,0.00,30.33,M,T,6.00,M,3500.00,M,M,-SN
DSV,2018-01-02 09:20,-77.7130,42.5709,M,M,M,0.00,0.00,30.33,M,M,6.00,M,3300.00,M,M,-SN
DSV,2018-01-02 09:25,-77.7130,42.5709,M,M,M,0.00,0.00,30.33,M,M,7.00,M,3300.00,M,M,-SN
DSV,2018-01-02 09:30,-77.7130,42.5709,M,M,M,0.00,0.00,30.33,M,M,8.00,M,3300.00,M,M,-SN
DSV,2018-01-02 09:35,-77.7130,42.5709,M,M,M,0.00,0.00,30.32,M,M,8.00,M,3000.00,3500.00,M,-SN
DSV,2018-01-02 09:40,-77.7130,42.5709,M,M,M,0.00,0.00,30.33,M,M,8.00,M,3000.00,M,M,-SN
DSV,2018-01-02 09:45,-77.7130,42.5709,M,M,M,0.00,0.00,30.32,M,M,7.00,M,3000.00,M,M,-SN
DSV,2018-01-02 09:50,-77.7130,42.5709,M,M,M,0.00,0.00,30.32,M,M,8.00,M,3000.00,5000.00,M,-SN
DSV,2018-01-02 09:54,-77.7130,42.5709,12.90,6.10,73.74,0.00,0.00,30.33,1029.30,T,8.00,M,3100.00,5000.00,M,-SN
DSV,2018-01-02 09:55,-77.7130,42.5709,M,M,M,0.00,0.00,30.33,M,M,8.00,M,3100.00,5000.00,M,-SN
DSV,2018-01-02 10:00,-77.7130,42.5709,M,M,M,0.00,0.00,30.33,M,M,8.00,M,3100.00,5000.00,M,-SN
DSV,2018-01-02 10:05,-77.7130,42.5709,M,M,M,160.00,3.00,30.32,M,M,8.00,M,3100.00,M,M,-SN
DSV,2018-01-02 10:10,-77.7130,42.5709,M,M,M,120.00,3.00,30.32,M,M,8.00,M,3100.00,M,M,-SN
DSV,2018-01-02 10:15,-77.7130,42.5709,M,M,M,130.00,3.00,30.32,M,M,9.00,M,3100.00,M,M,-SN
DSV,2018-01-02 10:20,-77.7130,42.5709,M,M,M,140.00,3.00,30.32,M,M,6.00,M,3100.00,M,M,-SN
DSV,2018-01-02 10:25,-77.7130,42.5709,M,M,M,150.00,3.00,30.32,M,M,5.00,M,3000.00,M,M,-SN
DSV,2018-01-02 10:30,-77.7130,42.5709,M,M,M,160.00,3.00,30.32,M,M,5.00,M,3000.00,M,M,-SN
DSV,2018-01-02 10:35,-77.7130,42.5709,M,M,M,0.00,0.00,30.32,M,M,5.00,M,2900.00,M,M,-SN
DSV,2018-01-02 10:39,-77.7130,42.5709,12.00,7.00,79.93,140.00,3.00,30.32,M,T,5.00,M,2900.00,M,M,-SN
DSV,2018-01-02 10:40,-77.7130,42.5709,M,M,M,0.00,0.00,30.32,M,M,5.00,M,2900.00,M,M,-SN
DSV,2018-01-02 10:45,-77.7130,42.5709,M,M,M,140.00,3.00,30.32,M,M,6.00,M,2900.00,M,M,-SN
DSV,2018-01-02 10:50,-77.7130,42.5709,M,M,M,140.00,3.00,30.32,M,M,6.00,M,2900.00,M,M,-SN
DSV,2018-01-02 10:54,-77.7130,42.5709,12.00,7.00,79.93,0.00,0.00,30.32,1029.00,T,6.00,M,2900.00,M,M,-SN
DSV,2018-01-02 10:55,-77.7130,42.5709,M,M,M,0.00,0.00,30.32,M,M,6.00,M,2900.00,M,M,-SN
DSV,2018-01-02 11:00,-77.7130,42.5709,M,M,M,110.00,3.00,30.32,M,M,5.00,M,2900.00,M,M,-SN
DSV,2018-01-02 11:05,-77.7130,42.5709,M,M,M,100.00,4.00,30.32,M,M,5.00,M,2900.00,M,M,-SN
DSV,2018-01-02 11:10,-77.7130,42.5709,M,M,M,90.00,4.00,30.32,M,M,5.00,M,2900.00,M,M,-SN
DSV,2018-01-02 11:15,-77.7130,42.5709,M,M,M,0.00,0.00,30.32,M,M,4.00,M,3000.00,M,M,-SN
DSV,2018-01-02 11:19,-77.7130,42.5709,12.90,8.10,80.74,100.00,3.00,30.32,M,T,5.00,M,3000.00,M,M,-SN
DSV,2018-01-02 11:20,-77.7130,42.5709,M,M,M,0.00,0.00,30.32,M,M,5.00,M,3000.00,M,M,-SN
DSV,2018-01-02 11:25,-77.7130,42.5709,M,M,M,0.00,0.00,30.32,M,M,5.00,M,3000.00,M,M,-SN
DSV,2018-01-02 11:30,-77.7130,42.5709,M,M,M,0.00,0.00,30.32,M,M,6.00,M,3000.00,M,M,-SN
DSV,2018-01-02 11:35,-77.7130,42.5709,M,M,M,0.00,0.00,30.32,M,M,7.00,M,3000.00,4200.00,M,-SN
DSV,2018-01-02 11:40,-77.7130,42.5709,M,M,M,0.00,0.00,30.32,M,M,9.00,M,3000.00,4200.00,M,-SN
DSV,2018-01-02 11:45,-77.7130,42.5709,M,M,M,0.00,0.00,30.32,M,M,9.00,M,3000.00,4300.00,M,-SN
DSV,2018-01-02 11:50,-77.7130,42.5709,M,M,M,0.00,0.00,30.32,M,M,9.00,M,3000.00,4300.00,M,M
DSV,2018-01-02 11:54,-77.7130,42.5709,12.90,8.10,80.74,0.00,0.00,30.32,1029.10,T,9.00,M,3000.00,4300.00,M,M
DSV,2018-01-02 11:55,-77.7130,42.5709,M,M,M,0.00,0.00,30.32,M,M,9.00,M,3000.00,4300.00,M,M
DSV,2018-01-02 12:00,-77.7130,42.5709,M,M,M,0.00,0.00,30.32,M,M,10.00,M,3000.00,M,M,M
DSV,2018-01-02 12:05,-77.7130,42.5709,M,M,M,0.00,0.00,30.32,M,M,10.00,M,3000.00,M,M,M
DSV,2018-01-02 12:10,-77.7130,42.5709,M,M,M,210.00,3.00,30.32,M,M,10.00,M,3000.00,5500.00,M,M
DSV,2018-01-02 12:15,-77.7130,42.5709,M,M,M,0.00,0.00,30.31,M,M,10.00,M,3000.00,5500.00,M,M
DSV,2018-01-02 12:20,-77.7130,42.5709,M,M,M,250.00,8.00,30.31,M,M,10.00,M,3000.00,5500.00,M,M
DSV,2018-01-02 12:25,-77.7130,42.5709,M,M,M,260.00,7.00,30.31,M,M,10.00,M,3000.00,5500.00,M,M
DSV,2018-01-02 12:30,-77.7130,42.5709,M,M,M,260.00,8.00,30.31,M,M,10.00,M,3000.00,5500.00,M,M
DSV,2018-01-02 12:35,-77.7130,42.5709,M,M,M,270.00,8.00,30.31,M,M,10.00,M,5500.00,M,M,M
DSV,2018-01-02 12:40,-77.7130,42.5709,M,M,M,260.00,4.00,30.31,M,M,10.00,M,5500.00,M,M,M
DSV,2018-01-02 12:45,-77.7130,42.5709,M,M,M,240.00,7.00,30.31,M,M,10.00,M,5500.00,M,M,-SN
DSV,2018-01-02 12:50,-77.7130,42.5709,M,M,M,230.00,7.00,30.31,M,M,9.00,M,5500.00,M,M,-SN
DSV,2018-01-02 12:54,-77.7130,42.5709,17.10,8.10,67.22,M,4.00,30.31,1028.60,T,8.00,M,5500.00,M,M,-SN
DSV,2018-01-02 12:55,-77.7130,42.5709,M,M,M,250.00,5.00,30.31,M,M,9.00,M,5500.00,M,M,-SN
DSV,2018-01-02 13:00,-77.7130,42.5709,M,M,M,240.00,5.00,30.31,M,M,9.00,M,5000.00,M,M,M
DSV,2018-01-02 13:05,-77.7130,42.5709,M,M,M,240.00,4.00,30.31,M,M,9.00,M,5000.00,M,M,M
DSV,2018-01-02 13:10,-77.7130,42.5709,M,M,M,250.00,4.00,30.32,M,M,10.00,M,5000.00,M,M,M
DSV,2018-01-02 13:15,-77.7130,42.5709,M,M,M,220.00,6.00,30.32,M,M,10.00,M,5000.00,M,M,M
DSV,2018-01-02 13:20,-77.7130,42.5709,M,M,M,250.00,4.00,30.32,M,M,10.00,M,5000.00,M,M,M
DSV,2018-01-02 13:25,-77.7130,42.5709,M,M,M,240.00,4.00,30.32,M,M,10.00,M,4900.00,M,M,M
DSV,2018-01-02 13:30,-77.7130,42.5709,M,M,M,240.00,7.00,30.32,M,M,10.00,M,3399.00,4900.00,M,M
DSV,2018-01-02 13:35,-77.7130,42.5709,M,M,M,240.00,7.00,30.33,M,M,10.00,M,3600.00,4900.00,M,M
DSV,2018-01-02 13:40,-77.7130,42.5709,M,M,M,230.00,5.00,30.33,M,M,10.00,M,2500.00,3600.00,4900.00,M
DSV,2018-01-02 13:45,-77.7130,42.5709,M,M,M,250.00,6.00,30.33,M,M,10.00,M,2500.00,3000.00,4900.00,M
DSV,2018-01-02 13:50,-77.7130,42.5709,M,M,M,260.00,7.00,30.33,M,M,10.00,M,2400.00,3500.00,4900.00,M
DSV,2018-01-02 13:54,-77.7130,42.5709,17.10,7.00,63.95,M,6.00,30.33,1029.10,T,10.00,15.00,2400.00,3500.00,M,M
DSV,2018-01-02 13:55,-77.7130,42.5709,M,M,M,250.00,7.00,30.33,M,M,10.00,M,2400.00,3500.00,M,-SN
DSV,2018-01-02 14:00,-77.7130,42.5709,M,M,M,240.00,8.00,30.33,M,M,9.00,M,2600.00,3399.00,M,-SN
DSV,2018-01-02 14:05,-77.7130,42.5709,M,M,M,250.00,7.00,30.33,M,M,9.00,M,2600.00,3200.00,M,-SN
DSV,2018-01-02 14:10,-77.7130,42.5709,M,M,M,250.00,6.00,30.33,M,M,9.00,M,2600.00,3200.00,M,-SN
DSV,2018-01-02 14:15,-77.7130,42.5709,M,M,M,270.00,7.00,30.33,M,M,9.00,M,2600.00,3200.00,M,-SN
DSV,2018-01-02 14:20,-77.7130,42.5709,M,M,M,280.00,3.00,30.33,M,M,8.00,M,2900.00,M,M,-SN
DSV,2018-01-02 14:25,-77.7130,42.5709,M,M,M,260.00,5.00,30.33,M,M,9.00,M,2900.00,M,M,-SN
DSV,2018-01-02 14:30,-77.7130,42.5709,M,M,M,260.00,4.00,30.33,M,M,8.00,M,2900.00,M,M,-SN
DSV,2018-01-02 14:35,-77.7130,42.5709,M,M,M,0.00,0.00,30.33,M,M,8.00,M,2900.00,M,M,-SN
DSV,2018-01-02 14:40,-77.7130,42.5709,M,M,M,180.00,4.00,30.33,M,M,9.00,M,2900.00,M,M,M
DSV,2018-01-02 14:45,-77.7130,42.5709,M,M,M,190.00,4.00,30.33,M,M,8.00,M,3000.00,M,M,-SN
DSV,2018-01-02 14:47,-77.7130,42.5709,17.10,8.10,67.22,190.00,4.00,30.33,M,T,8.00,M,3000.00,M,M,-SN
DSV,2018-01-02 14:50,-77.7130,42.5709,M,M,M,220.00,4.00,30.33,M,M,7.00,M,3000.00,M,M,-SN
DSV,2018-01-02 14:54,-77.7130,42.5709,17.10,8.10,67.22,M,3.00,30.33,1029.20,T,8.00,M,3000.00,M,M,-SN
DSV,2018-01-02 14:55,-77.7130,42.5709,M,M,M,M,M,30.33,M,M,8.00,M,3000.00,M,M,M
DSV,2018-01-02 15:00,-77.7130,42.5709,M,M,M,210.00,5.00,30.32,M,M,9.00,M,3000.00,M,M,M
DSV,2018-01-02 15:05,-77.7130,42.5709,M,M,M,220.00,4.00,30.32,M,M,10.00,M,3200.00,M,M,M
DSV,2018-01-02 15:10,-77.7130,42.5709,M,M,M,160.00,5.00,30.32,M,M,10.00,M,3200.00,M,M,M
DSV,2018-01-02 15:15,-77.7130,42.5709,M,M,M,160.00,3.00,30.32,M,M,10.00,M,3399.00,M,M,M
DSV,2018-01-02 15:20,-77.7130,42.5709,M,M,M,160.00,6.00,30.32,M,M,10.00,M,3399.00,M,M,M
DSV,2018-01-02 15:25,-77.7130,42.5709,M,M,M,180.00,6.00,30.32,M,M,10.00,M,3399.00,M,M,M
DSV,2018-01-02 15:30,-77.7130,42.5709,M,M,M,180.00,4.00,30.32,M,M,10.00,M,3399.00,M,M,M
DSV,2018-01-02 15:35,-77.7130,42.5709,M,M,M,170.00,6.00,30.31,M,M,10.00,M,3399.00,M,M,M
DSV,2018-01-02 15:40,-77.7130,42.5709,M,M,M,200.00,4.00,30.31,M,M,10.00,M,3399.00,M,M,M
DSV,2018-01-02 15:45,-77.7130,42.5709,M,M,M,200.00,5.00,30.31,M,M,10.00,M,3399.00,M,M,M
DSV,2018-01-02 15:50,-77.7130,42.5709,M,M,M,210.00,3.00,30.31,M,M,10.00,M,3399.00,M,M,M
DSV,2018-01-02 15:54,-77.7130,42.5709,19.00,7.00,58.94,M,3.00,30.30,1028.30,T,10.00,M,3400.00,M,M,M
DSV,2018-01-02 15:55,-77.7130,42.5709,M,M,M,0.00,0.00,30.31,M,M,10.00,M,3399.00,M,M,M
DSV,2018-01-02 16:00,-77.7130,42.5709,M,M,M,200.00,4.00,30.31,M,M,10.00,M,3399.00,M,M,M
DSV,2018-01-02 16:05,-77.7130,42.5709,M,M,M,200.00,5.00,30.30,M,M,10.00,M,3399.00,M,M,M
DSV,2018-01-02 16:10,-77.7130,42.5709,M,M,M,M,M,30.30,M,M,10.00,M,3399.00,M,M,M
DSV,2018-01-02 16:15,-77.7130,42.5709,M,M,M,220.00,4.00,30.30,M,M,10.00,M,3200.00,M,M,M
DSV,2018-01-02 16:20,-77.7130,42.5709,M,M,M,170.00,6.00,30.30,M,M,10.00,M,3200.00,M,M,M
DSV,2018-01-02 16:25,-77.7130,42.5709,M,M,M,190.00,5.00,30.30,M,M,10.00,M,3200.00,M,M,M
DSV,2018-01-02 16:30,-77.7130,42.5709,M,M,M,190.00,6.00,30.29,M,M,10.00,M,3200.00,M,M,M
DSV,2018-01-02 16:35,-77.7130,42.5709,M,M,M,170.00,6.00,30.29,M,M,10.00,M,3200.00,M,M,M
DSV,2018-01-02 16:40,-77.7130,42.5709,M,M,M,170.00,6.00,30.29,M,M,10.00,M,3200.00,M,M,M
DSV,2018-01-02 16:45,-77.7130,42.5709,M,M,M,230.00,3.00,30.29,M,M,10.00,M,3100.00,M,M,M
DSV,2018-01-02 16:50,-77.7130,42.5709,M,M,M,220.00,6.00,30.29,M,M,10.00,M,3100.00,M,M,M
DSV,2018-01-02 16:54,-77.7130,42.5709,19.00,6.10,56.57,180.00,7.00,30.28,1027.60,0.00,10.00,M,3100.00,M,M,M
DSV,2018-01-02 16:55,-77.7130,42.5709,M,M,M,210.00,7.00,30.29,M,M,10.00,M,3100.00,M,M,M
DSV,2018-01-02 17:00,-77.7130,42.5709,M,M,M,220.00,7.00,30.28,M,M,10.00,M,3100.00,M,M,M
DSV,2018-01-02 17:05,-77.7130,42.5709,M,M,M,150.00,7.00,30.28,M,M,10.00,M,3100.00,M,M,M
DSV,2018-01-02 17:10,-77.7130,42.5709,M,M,M,220.00,6.00,30.27,M,M,10.00,M,3100.00,M,M,M
DSV,2018-01-02 17:15,-77.7130,42.5709,M,M,M,240.00,6.00,30.27,M,M,10.00,M,3100.00,M,M,M
DSV,2018-01-02 17:20,-77.7130,42.5709,M,M,M,240.00,4.00,30.27,M,M,10.00,M,3100.00,M,M,M
DSV,2018-01-02 17:25,-77.7130,42.5709,M,M,M,M,M,30.27,M,M,10.00,M,3100.00,M,M,M
DSV,2018-01-02 17:30,-77.7130,42.5709,M,M,M,170.00,3.00,30.27,M,M,10.00,M,3100.00,M,M,M
DSV,2018-01-02 17:35,-77.7130,42.5709,M,M,M,220.00,4.00,30.26,M,M,10.00,M,3100.00,M,M,M
DSV,2018-01-02 17:40,-77.7130,42.5709,M,M,M,270.00,9.00,30.27,M,M,10.00,M,3100.00,M,M,M
DSV,2018-01-02 17:45,-77.7130,42.5709,M,M,M,230.00,6.00,30.26,M,M,10.00,M,3100.00,M,M,M
DSV,2018-01-02 17:50,-77.7130,42.5709,M,M,M,240.00,6.00,30.26,M,M,10.00,M,3100.00,M,M,M
DSV,2018-01-02 17:54,-77.7130,42.5709,19.00,6.10,56.57,M,5.00,30.26,1026.90,0.00,10.00,M,3100.00,M,M,M
DSV,2018-01-02 17:55,-77.7130,42.5709,M,M,M,230.00,7.00,30.26,M,M,10.00,M,3100.00,M,M,M
DSV,2018-01-02 18:00,-77.7130,42.5709,M,M,M,240.00,7.00,30.26,M,M,10.00,M,3100.00,M,M,M
DSV,2018-01-02 18:05,-77.7130,42.5709,M,M,M,210.00,5.00,30.26,M,M,10.00,M,3100.00,M,M,M
DSV,2018-01-02 18:10,-77.7130,42.5709,M,M,M,250.00,7.00,30.26,M,M,10.00,M,3100.00,M,M,M
DSV,2018-01-02 18:15,-77.7130,42.5709,M,M,M,240.00,6.00,30.26,M,M,10.00,M,3100.00,M,M,M
DSV,2018-01-02 18:20,-77.7130,42.5709,M,M,M,200.00,7.00,30.26,M,M,10.00,M,3100.00,M,M,M
DSV,2018-01-02 18:25,-77.7130,42.5709,M,M,M,210.00,5.00,30.26,M,M,10.00,M,3100.00,M,M,M
DSV,2018-01-02 18:30,-77.7130,42.5709,M,M,M,260.00,4.00,30.26,M,M,10.00,M,3100.00,M,M,M
DSV,2018-01-02 18:35,-77.7130,42.5709,M,M,M,220.00,6.00,30.25,M,M,10.00,M,3100.00,M,M,M
DSV,2018-01-02 18:40,-77.7130,42.5709,M,M,M,230.00,6.00,30.25,M,M,10.00,M,3100.00,M,M,M
DSV,2018-01-02 18:45,-77.7130,42.5709,M,M,M,220.00,5.00,30.25,M,M,10.00,M,3100.00,M,M,M
DSV,2018-01-02 18:50,-77.7130,42.5709,M,M,M,240.00,9.00,30.25,M,M,10.00,15.00,3100.00,M,M,M
DSV,2018-01-02 18:54,-77.7130,42.5709,19.00,6.10,56.57,240.00,7.00,30.25,1026.50,0.00,10.00,15.00,3100.00,M,M,M
DSV,2018-01-02 18:55,-77.7130,42.5709,M,M,M,250.00,6.00,30.25,M,M,10.00,M,3100.00,M,M,M
DSV,2018-01-02 19:00,-77.7130,42.5709,M,M,M,190.00,5.00,30.25,M,M,10.00,M,3000.00,M,M,M
DSV,2018-01-02 19:05,-77.7130,42.5709,M,M,M,210.00,3.00,30.25,M,M,10.00,M,3000.00,M,M,M
DSV,2018-01-02 19:10,-77.7130,42.5709,M,M,M,160.00,4.00,30.25,M,M,10.00,M,3000.00,M,M,M
DSV,2018-01-02 19:15,-77.7130,42.5709,M,M,M,M,M,30.25,M,M,10.00,M,3000.00,M,M,M
DSV,2018-01-02 19:20,-77.7130,42.5709,M,M,M,210.00,5.00,30.25,M,M,10.00,M,3000.00,M,M,M
DSV,2018-01-02 19:25,-77.7130,42.5709,M,M,M,220.00,9.00,30.25,M,M,10.00,M,3000.00,M,M,M
DSV,2018-01-02 19:30,-77.7130,42.5709,M,M,M,250.00,13.00,30.25,M,M,10.00,18.00,3000.00,M,M,M
DSV,2018-01-02 19:35,-77.7130,42.5709,M,M,M,220.00,8.00,30.25,M,M,10.00,M,3000.00,M,M,M
DSV,2018-01-02 19:40,-77.7130,42.5709,M,M,M,260.00,6.00,30.25,M,M,10.00,M,3200.00,M,M,M
DSV,2018-01-02 19:45,-77.7130,42.5709,M,M,M,260.00,4.00,30.25,M,M,10.00,M,3200.00,M,M,M
DSV,2018-01-02 19:50,-77.7130,42.5709,M,M,M,M,M,30.25,M,M,10.00,M,3200.00,M,M,M
DSV,2018-01-02 19:54,-77.7130,42.5709,18.00,5.00,56.16,M,6.00,30.25,1026.70,0.00,10.00,16.00,3200.00,M,M,M
DSV,2018-01-02 19:55,-77.7130,42.5709,M,M,M,210.00,6.00,30.25,M,M,10.00,M,3200.00,M,M,M
DSV,2018-01-02 20:00,-77.7130,42.5709,M,M,M,260.00,5.00,30.25,M,M,10.00,M,3200.00,M,M,M
DSV,2018-01-02 20:05,-77.7130,42.5709,M,M,M,210.00,7.00,30.25,M,M,10.00,M,3200.00,M,M,M
DSV,2018-01-02 20:10,-77.7130,42.5709,M,M,M,280.00,4.00,30.25,M,M,10.00,M,3200.00,M,M,M
DSV,2018-01-02 20:15,-77.7130,42.5709,M,M,M,190.00,5.00,30.24,M,M,10.00,M,3399.00,M,M,M
DSV,2018-01-02 20:20,-77.7130,42.5709,M,M,M,250.00,3.00,30.24,M,M,10.00,M,M,M,M,M
DSV,2018-01-02 20:25,-77.7130,42.5709,M,M,M,0.00,0.00,30.24,M,M,10.00,M,M,M,M,M
DSV,2018-01-02 20:30,-77.7130,42.5709,M,M,M,200.00,3.00,30.24,M,M,10.00,M,M,M,M,M
DSV,2018-01-02 20:35,-77.7130,42.5709,M,M,M,240.00,4.00,30.24,M,M,10.00,M,M,M,M,M
DSV,2018-01-02 20:40,-77.7130,42.5709,M,M,M,210.00,6.00,30.23,M,M,10.00,M,M,M,M,M
DSV,2018-01-02 20:45,-77.7130,42.5709,M,M,M,180.00,5.00,30.23,M,M,10.00,M,M,M,M,M
DSV,2018-01-02 20:50,-77.7130,42.5709,M,M,M,0.00,0.00,30.23,M,M,10.00,M,M,M,M,M
DSV,2018-01-02 20:54,-77.7130,42.5709,18.00,1.90,48.68,0.00,0.00,30.23,1025.80,0.00,10.00,M,M,M,M,M
DSV,2018-01-02 20:55,-77.7130,42.5709,M,M,M,0.00,0.00,30.23,M,M,10.00,M,M,M,M,M
DSV,2018-01-02 21:00,-77.7130,42.5709,M,M,M,210.00,5.00,30.23,M,M,10.00,M,M,M,M,M
DSV,2018-01-02 21:05,-77.7130,42.5709,M,M,M,170.00,5.00,30.23,M,M,10.00,M,M,M,M,M
DSV,2018-01-02 21:10,-77.7130,42.5709,M,M,M,170.00,6.00,30.23,M,M,10.00,M,M,M,M,M
DSV,2018-01-02 21:15,-77.7130,42.5709,M,M,M,170.00,6.00,30.23,M,M,10.00,M,M,M,M,M
DSV,2018-01-02 21:20,-77.7130,42.5709,M,M,M,160.00,7.00,30.23,M,M,10.00,M,M,M,M,M
DSV,2018-01-02 21:25,-77.7130,42.5709,M,M,M,180.00,6.00,30.22,M,M,10.00,M,M,M,M,M
DSV,2018-01-02 21:30,-77.7130,42.5709,M,M,M,160.00,7.00,30.22,M,M,10.00,M,M,M,M,M
DSV,2018-01-02 21:35,-77.7130,42.5709,M,M,M,160.00,5.00,30.22,M,M,10.00,M,M,M,M,M
DSV,2018-01-02 21:40,-77.7130,42.5709,M,M,M,170.00,4.00,30.22,M,M,10.00,M,M,M,M,M
DSV,2018-01-02 21:45,-77.7130,42.5709,M,M,M,160.00,6.00,30.22,M,M,10.00,M,M,M,M,M
DSV,2018-01-02 21:50,-77.7130,42.5709,M,M,M,170.00,3.00,30.22,M,M,10.00,M,M,M,M,M
DSV,2018-01-02 21:54,-77.7130,42.5709,17.10,1.00,48.53,0.00,0.00,30.22,1025.60,0.00,10.00,M,M,M,M,M
DSV,2018-01-02 21:55,-77.7130,42.5709,M,M,M,0.00,0.00,30.22,M,M,10.00,M,M,M,M,M
DSV,2018-01-02 22:00,-77.7130,42.5709,M,M,M,130.00,3.00,30.22,M,M,10.00,M,M,M,M,M
DSV,2018-01-02 22:05,-77.7130,42.5709,M,M,M,130.00,3.00,30.22,M,M,10.00,M,M,M,M,M
DSV,2018-01-02 22:10,-77.7130,42.5709,M,M,M,110.00,4.00,30.22,M,M,10.00,M,M,M,M,M
DSV,2018-01-02 22:15,-77.7130,42.5709,M,M,M,130.00,4.00,30.22,M,M,10.00,M,M,M,M,M
DSV,2018-01-02 22:20,-77.7130,42.5709,M,M,M,0.00,0.00,30.22,M,M,10.00,M,M,M,M,M
DSV,2018-01-02 22:25,-77.7130,42.5709,M,M,M,160.00,3.00,30.22,M,M,10.00,M,M,M,M,M
DSV,2018-01-02 22:30,-77.7130,42.5709,M,M,M,150.00,3.00,30.22,M,M,10.00,M,M,M,M,M
DSV,2018-01-02 22:35,-77.7130,42.5709,M,M,M,0.00,0.00,30.22,M,M,10.00,M,M,M,M,M
DSV,2018-01-02 22:40,-77.7130,42.5709,M,M,M,0.00,0.00,30.22,M,M,10.00,M,M,M,M,M
DSV,2018-01-02 22:45,-77.7130,42.5709,M,M,M,0.00,0.00,30.22,M,M,10.00,M,M,M,M,M
DSV,2018-01-02 22:50,-77.7130,42.5709,M,M,M,0.00,0.00,30.22,M,M,10.00,M,M,M,M,M
DSV,2018-01-02 22:54,-77.7130,42.5709,12.90,1.90,60.78,0.00,0.00,30.22,1025.70,0.00,10.00,M,M,M,M,M
DSV,2018-01-02 22:55,-77.7130,42.5709,M,M,M,0.00,0.00,30.22,M,M,10.00,M,M,M,M,M
DSV,2018-01-02 23:00,-77.7130,42.5709,M,M,M,0.00,0.00,30.22,M,M,10.00,M,M,M,M,M
DSV,2018-01-02 23:05,-77.7130,42.5709,M,M,M,0.00,0.00,30.22,M,M,10.00,M,M,M,M,M
DSV,2018-01-02 23:10,-77.7130,42.5709,M,M,M,0.00,0.00,30.22,M,M,10.00,M,M,M,M,M
DSV,2018-01-02 23:15,-77.7130,42.5709,M,M,M,0.00,0.00,30.23,M,M,10.00,M,M,M,M,M
DSV,2018-01-02 23:20,-77.7130,42.5709,M,M,M,0.00,0.00,30.23,M,M,10.00,M,M,M,M,M
DSV,2018-01-02 23:25,-77.7130,42.5709,M,M,M,140.00,3.00,30.23,M,M,10.00,M,M,M,M,M
DSV,2018-01-02 23:30,-77.7130,42.5709,M,M,M,210.00,3.00,30.22,M,M,10.00,M,M,M,M,M
DSV,2018-01-02 23:35,-77.7130,42.5709,M,M,M,140.00,3.00,30.23,M,M,10.00,M,M,M,M,M
DSV,2018-01-02 23:40,-77.7130,42.5709,M,M,M,150.00,3.00,30.23,M,M,10.00,M,M,M,M,M
DSV,2018-01-02 23:45,-77.7130,42.5709,M,M,M,0.00,0.00,30.23,M,M,10.00,M,M,M,M,M
DSV,2018-01-02 23:50,-77.7130,42.5709,M,M,M,240.00,3.00,30.23,M,M,10.00,M,M,M,M,M
DSV,2018-01-02 23:54,-77.7130,42.5709,12.00,0.00,57.88,0.00,0.00,30.23,1026.00,0.00,10.00,M,M,M,M,M
DSV,2018-01-02 23:55,-77.7130,42.5709,M,M,M,0.00,0.00,30.23,M,M,10.00,M,M,M,M,M
DSV,2018-01-03 00:00,-77.7130,42.5709,M,M,M,0.00,0.00,30.23,M,M,10.00,M,M,M,M,M
DSV,2018-01-03 00:05,-77.7130,42.5709,M,M,M,140.00,4.00,30.23,M,M,10.00,M,M,M,M,M
DSV,2018-01-03 00:10,-77.7130,42.5709,M,M,M,190.00,3.00,30.23,M,M,10.00,M,M,M,M,M
DSV,2018-01-03 00:15,-77.7130,42.5709,M,M,M,170.00,3.00,30.23,M,M,10.00,M,M,M,M,M
DSV,2018-01-03 00:20,-77.7130,42.5709,M,M,M,180.00,4.00,30.24,M,M,10.00,M,M,M,M,M
DSV,2018-01-03 00:25,-77.7130,42.5709,M,M,M,170.00,4.00,30.23,M,M,10.00,M,M,M,M,M
DSV,2018-01-03 00:30,-77.7130,42.5709,M,M,M,150.00,4.00,30.23,M,M,10.00,M,M,M,M,M
DSV,2018-01-03 00:35,-77.7130,42.5709,M,M,M,160.00,5.00,30.23,M,M,10.00,M,M,M,M,M
DSV,2018-01-03 00:40,-77.7130,42.5709,M,M,M,160.00,3.00,30.23,M,M,10.00,M,M,M,M,M
DSV,2018-01-03 00:45,-77.7130,42.5709,M,M,M,160.00,5.00,30.23,M,M,10.00,M,M,M,M,M
DSV,2018-01-03 00:50,-77.7130,42.5709,M,M,M,140.00,6.00,30.23,M,M,10.00,M,M,M,M,M
DSV,2018-01-03 00:54,-77.7130,42.5709,12.00,-2.00,52.67,180.00,4.00,30.23,1025.90,0.00,10.00,M,M,M,M,M
DSV,2018-01-03 00:55,-77.7130,42.5709,M,M,M,160.00,4.00,30.23,M,M,10.00,M,M,M,M,M
DSV,2018-01-03 01:00,-77.7130,42.5709,M,M,M,120.00,5.00,30.23,M,M,10.00,M,M,M,M,M
DSV,2018-01-03 01:05,-77.7130,42.5709,M,M,M,150.00,3.00,30.23,M,M,10.00,M,M,M,M,M
DSV,2018-01-03 01:10,-77.7130,42.5709,M,M,M,150.00,3.00,30.22,M,M,10.00,M,M,M,M,M
DSV,2018-01-03 01:15,-77.7130,42.5709,M,M,M,150.00,3.00,30.22,M,M,10.00,M,M,M,M,M
DSV,2018-01-03 01:20,-77.7130,42.5709,M,M,M,160.00,3.00,30.22,M,M,10.00,M,M,M,M,M
DSV,2018-01-03 01:25,-77.7130,42.5709,M,M,M,120.00,4.00,30.22,M,M,10.00,M,M,M,M,M
DSV,2018-01-03 01:30,-77.7130,42.5709,M,M,M,150.00,5.00,30.22,M,M,10.00,M,M,M,M,M
DSV,2018-01-03 01:35,-77.7130,42.5709,M,M,M,150.00,6.00,30.22,M,M,10.00,M,M,M,M,M
DSV,2018-01-03 01:40,-77.7130,42.5709,M,M,M,150.00,6.00,30.22,M,M,10.00,M,M,M,M,M
DSV,2018-01-03 01:45,-77.7130,42.5709,M,M,M,140.00,6.00,30.22,M,M,10.00,M,M,M,M,M
DSV,2018-01-03 01:50,-77.7130,42.5709,M,M,M,130.00,6.00,30.22,M,M,10.00,M,M,M,M,M
DSV,2018-01-03 01:54,-77.7130,42.5709,6.10,-2.90,65.77,120.00,7.00,30.22,1025.60,0.00,10.00,M,M,M,M,M
DSV,2018-01-03 01:55,-77.7130,42.5709,M,M,M,120.00,7.00,30.22,M,M,10.00,M,M,M,M,M
DSV,2018-01-03 02:00,-77.7130,42.5709,M,M,M,160.00,4.00,30.22,M,M,10.00,M,M,M,M,M
DSV,2018-01-03 02:05,-77.7130,42.5709,M,M,M,150.00,5.00,30.22,M,M,10.00,M,M,M,M,M
DSV,2018-01-03 02:10,-77.7130,42.5709,M,M,M,140.00,5.00,30.22,M,M,10.00,M,M,M,M,M
DSV,2018-01-03 02:15,-77.7130,42.5709,M,M,M,130.00,5.00,30.22,M,M,10.00,M,M,M,M,M
DSV,2018-01-03 02:20,-77.7130,42.5709,M,M,M,150.00,4.00,30.22,M,M,10.00,M,M,M,M,M
DSV,2018-01-03 02:25,-77.7130,42.5709,M,M,M,140.00,6.00,30.22,M,M,10.00,M,M,M,M,M
DSV,2018-01-03 02:30,-77.7130,42.5709,M,M,M,170.00,4.00,30.22,M,M,10.00,M,M,M,M,M
DSV,2018-01-03 02:35,-77.7130,42.5709,M,M,M,150.00,5.00,30.21,M,M,10.00,M,M,M,M,M
DSV,2018-01-03 02:40,-77.7130,42.5709,M,M,M,150.00,5.00,30.22,M,M,10.00,M,M,M,M,M
DSV,2018-01-03 02:45,-77.7130,42.5709,M,M,M,150.00,6.00,30.22,M,M,10.00,M,M,M,M,M
DSV,2018-01-03 02:50,-77.7130,42.5709,M,M,M,140.00,5.00,30.22,M,M,10.00,M,M,M,M,M
DSV,2018-01-03 02:54,-77.7130,42.5709,10.00,-2.90,55.16,160.00,5.00,30.22,1025.40,0.00,10.00,M,M,M,M,M
DSV,2018-01-03 02:55,-77.7130,42.5709,M,M,M,140.00,6.00,30.22,M,M,10.00,M,M,M,M,M
DSV,2018-01-03 03:00,-77.7130,42.5709,M,M,M,150.00,6.00,30.22,M,M,10.00,M,M,M,M,M
DSV,2018-01-03 03:05,-77.7130,42.5709,M,M,M,140.00,4.00,30.22,M,M,10.00,M,M,M,M,M
DSV,2018-01-03 03:10,-77.7130,42.5709,M,M,M,160.00,5.00,30.22,M,M,10.00,M,M,M,M,M
DSV,2018-01-03 03:15,-77.7130,42.5709,M,M,M,110.00,5.00,30.22,M,M,10.00,M,M,M,M,M
DSV,2018-01-03 03:20,-77.7130,42.5709,M,M,M,170.00,7.00,30.22,M,M,10.00,M,M,M,M,M
DSV,2018-01-03 03:25,-77.7130,42.5709,M,M,M,160.00,5.00,30.22,M,M,10.00,M,M,M,M,M
DSV,2018-01-03 03:30,-77.7130,42.5709,M,M,M,170.00,5.00,30.21,M,M,10.00,M,M,M,M,M
DSV,2018-01-03 03:35,-77.7130,42.5709,M,M,M,0.00,0.00,30.22,M,M,10.00,M,M,M,M,M
DSV,2018-01-03 03:40,-77.7130,42.5709,M,M,M,90.00,4.00,30.22,M,M,10.00,M,M,M,M,M
DSV,2018-01-03 03:45,-77.7130,42.5709,M,M,M,160.00,3.00,30.22,M,M,10.00,M,M,M,M,M
DSV,2018-01-03 03:50,-77.7130,42.5709,M,M,M,190.00,5.00,30.22,M,M,10.00,M,M,M,M,M
DSV,2018-01-03 03:54,-77.7130,42.5709,12.90,-4.00,46.02,100.00,4.00,30.22,1025.40,0.00,10.00,M,M,M,M,M
DSV,2018-01-03 03:55,-77.7130,42.5709,M,M,M,110.00,4.00,30.22,M,M,10.00,M,M,M,M,M
DSV,2018-01-03 04:00,-77.7130,42.5709,M,M,M,160.00,5.00,30.21,M,M,10.00,M,M,M,M,M
DSV,2018-01-03 04:05,-77.7130,42.5709,M,M,M,160.00,4.00,30.21,M,M,10.00,M,M,M,M,M
DSV,2018-01-03 04:10,-77.7130,42.5709,M,M,M,140.00,5.00,30.21,M,M,10.00,M,M,M,M,M
DSV,2018-01-03 04:15,-77.7130,42.5709,M,M,M,160.00,5.00,30.21,M,M,10.00,M,M,M,M,M
DSV,2018-01-03 04:20,-77.7130,42.5709,M,M,M,160.00,5.00,30.21,M,M,10.00,M,M,M,M,M
DSV,2018-01-03 04:25,-77.7130,42.5709,M,M,M,150.00,4.00,30.21,M,M,10.00,M,M,M,M,M
DSV,2018-01-03 04:30,-77.7130,42.5709,M,M,M,190.00,4.00,30.21,M,M,10.00,M,M,M,M,M
DSV,2018-01-03 04:35,-77.7130,42.5709,M,M,M,150.00,4.00,30.21,M,M,10.00,M,M,M,M,M
DSV,2018-01-03 04:40,-77.7130,42.5709,M,M,M,150.00,6.00,30.21,M,M,10.00,M,M,M,M,M
DSV,2018-01-03 04:45,-77.7130,42.5709,M,M,M,180.00,4.00,30.21,M,M,10.00,M,M,M,M,M
DSV,2018-01-03 04:50,-77.7130,42.5709,M,M,M,130.00,6.00,30.20,M,M,10.00,M,M,M,M,M
DSV,2018-01-03 04:54,-77.7130,42.5709,10.00,-2.90,55.16,110.00,5.00,30.20,1025.00,0.00,10.00,M,M,M,M,M
DSV,2018-01-03 04:55,-77.7130,42.5709,M,M,M,140.00,5.00,30.20,M,M,10.00,M,M,M,M,M
DSV,2018-01-03 05:00,-77.7130,42.5709,M,M,M,130.00,6.00,30.20,M,M,10.00,M,M,M,M,M
DSV,2018-01-03 05:05,-77.7130,42.5709,M,M,M,150.00,5.00,30.20,M,M,10.00,M,M,M,M,M
DSV,2018-01-03 05:10,-77.7130,42.5709,M,M,M,150.00,5.00,30.20,M,M,10.00,M,M,M,M,M
DSV,2018-01-03 05:15,-77.7130,42.5709,M,M,M,120.00,5.00,30.20,M,M,10.00,M,M,M,M,M
DSV,2018-01-03 05:20,-77.7130,42.5709,M,M,M,130.00,7.00,30.20,M,M,10.00,M,M,M,M,M
DSV,2018-01-03 05:25,-77.7130,42.5709,M,M,M,190.00,4.00,30.19,M,M,10.00,M,M,M,M,M
DSV,2018-01-03 05:30,-77.7130,42.5709,M,M,M,180.00,4.00,30.19,M,M,10.00,M,M,M,M,M
DSV,2018-01-03 05:35,-77.7130,42.5709,M,M,M,150.00,5.00,30.19,M,M,10.00,M,M,M,M,M
DSV,2018-01-03 05:40,-77.7130,42.5709,M,M,M,150.00,5.00,30.19,M,M,10.00,M,M,M,M,M
DSV,2018-01-03 05:45,-77.7130,42.5709,M,M,M,140.00,5.00,30.19,M,M,10.00,M,M,M,M,M
DSV,2018-01-03 05:50,-77.7130,42.5709,M,M,M,140.00,4.00,30.18,M,M,10.00,M,M,M,M,M
DSV,2018-01-03 05:54,-77.7130,42.5709,9.00,-2.00,60.21,170.00,4.00,30.19,1024.40,0.00,10.00,M,M,M,M,M
DSV,2018-01-03 05:55,-77.7130,42.5709,M,M,M,160.00,4.00,30.19,M,M,10.00,M,M,M,M,M
DSV,2018-01-03 06:00,-77.7130,42.5709,M,M,M,160.00,3.00,30.18,M,M,10.00,M,M,M,M,M
DSV,2018-01-03 06:05,-77.7130,42.5709,M,M,M,220.00,3.00,30.18,M,M,10.00,M,M,M,M,M
DSV,2018-01-03 06:10,-77.7130,42.5709,M,M,M,0.00,0.00,30.19,M,M,10.00,M,M,M,M,M
DSV,2018-01-03 06:15,-77.7130,42.5709,M,M,M,150.00,4.00,30.18,M,M,10.00,M,M,M,M,M
DSV,2018-01-03 06:20,-77.7130,42.5709,M,M,M,130.00,4.00,30.18,M,M,10.00,M,M,M,M,M
DSV,2018-01-03 06:25,-77.7130,42.5709,M,M,M,110.00,5.00,30.18,M,M,10.00,M,M,M,M,M
DSV,2018-01-03 06:30,-77.7130,42.5709,M,M,M,160.00,5.00,30.18,M,M,10.00,M,M,M,M,M
DSV,2018-01-03 06:35,-77.7130,42.5709,M,M,M,130.00,4.00,30.17,M,M,10.00,M,M,M,M,M
DSV,2018-01-03 06:40,-77.7130,42.5709,M,M,M,120.00,4.00,30.17,M,M,10.00,M,M,M,M,M
DSV,2018-01-03 06:45,-77.7130,42.5709,M,M,M,150.00,5.00,30.18,M,M,10.00,M,M,M,M,M
DSV,2018-01-03 06:50,-77.7130,42.5709,M,M,M,130.00,7.00,30.18,M,M,10.00,M,M,M,M,M
DSV,2018-01-03 06:54,-77.7130,42.5709,10.90,-4.00,50.28,120.00,7.00,30.18,1024.10,0.00,10.00,M,M,M,M,M
DSV,2018-01-03 06:55,-77.7130,42.5709,M,M,M,130.00,6.00,30.18,M,M,10.00,M,M,M,M,M
DSV,2018-01-03 07:00,-77.7130,42.5709,M,M,M,130.00,9.00,30.18,M,M,10.00,M,M,M,M,M
DSV,2018-01-03 07:05,-77.7130,42.5709,M,M,M,130.00,7.00,30.18,M,M,10.00,M,M,M,M,M
DSV,2018-01-03 07:10,-77.7130,42.5709,M,M,M,120.00,7.00,30.18,M,M,10.00,M,M,M,M,M
DSV,2018-01-03 07:15,-77.7130,42.5709,M,M,M,160.00,5.00,30.19,M,M,10.00,M,M,M,M,M
DSV,2018-01-03 07:20,-77.7130,42.5709,M,M,M,120.00,10.00,30.19,M,M,10.00,M,M,M,M,M
DSV,2018-01-03 07:25,-77.7130,42.5709,M,M,M,130.00,9.00,30.18,M,M,10.00,M,M,M,M,M
DSV,2018-01-03 07:30,-77.7130,42.5709,M,M,M,130.00,9.00,30.18,M,M,10.00,M,M,M,M,M
DSV,2018-01-03 07:35,-77.7130,42.5709,M,M,M,130.00,7.00,30.18,M,M,10.00,M,M,M,M,M
DSV,2018-01-03 07:40,-77.7130,42.5709,M,M,M,130.00,7.00,30.18,M,M,10.00,M,M,M,M,M
DSV,2018-01-03 07:45,-77.7130,42.5709,M,M,M,120.00,7.00,30.18,M,M,10.00,M,M,M,M,M
DSV,2018-01-03 07:50,-77.7130,42.5709,M,M,M,150.00,6.00,30.18,M,M,10.00,M,M,M,M,M
DSV,2018-01-03 07:54,-77.7130,42.5709,10.90,-2.90,52.99,150.00,6.00,30.18,1024.30,0.00,10.00,M,M,M,M,M
DSV,2018-01-03 07:55,-77.7130,42.5709,M,M,M,150.00,6.00,30.18,M,M,10.00,M,M,M,M,M
DSV,2018-01-03 08:00,-77.7130,42.5709,M,M,M,130.00,8.00,30.18,M,M,10.00,M,M,M,M,M
DSV,2018-01-03 08:05,-77.7130,42.5709,M,M,M,110.00,7.00,30.18,M,M,10.00,M,M,M,M,M
DSV,2018-01-03 08:10,-77.7130,42.5709,M,M,M,110.00,7.00,30.18,M,M,10.00,M,M,M,M,M
DSV,2018-01-03 08:15,-77.7130,42.5709,M,M,M,110.00,8.00,30.17,M,M,10.00,M,M,M,M,M
DSV,2018-01-03 08:20,-77.7130,42.5709,M,M,M,120.00,6.00,30.17,M,M,10.00,M,M,M,M,M
DSV,2018-01-03 08:25,-77.7130,42.5709,M,M,M,130.00,7.00,30.17,M,M,10.00,M,M,M,M,M
DSV,2018-01-03 08:30,-77.7130,42.5709,M,M,M,130.00,7.00,30.17,M,M,10.00,M,M,M,M,M
DSV,2018-01-03 08:35,-77.7130,42.5709,M,M,M,130.00,6.00,30.16,M,M,10.00,M,M,M,M,M
DSV,2018-01-03 08:40,-77.7130,42.5709,M,M,M,120.00,9.00,30.16,M,M,10.00,M,M,M,M,M
DSV,2018-01-03 08:45,-77.7130,42.5709,M,M,M,140.00,8.00,30.16,M,M,10.00,M,M,M,M,M
DSV,2018-01-03 08:50,-77.7130,42.5709,M,M,M,130.00,8.00,30.16,M,M,10.00,M,M,M,M,M
DSV,2018-01-03 08:54,-77.7130,42.5709,10.90,-2.90,52.99,130.00,9.00,30.16,1023.60,0.00,10.00,M,M,M,M,M
DSV,2018-01-03 08:55,-77.7130,42.5709,M,M,M,110.00,8.00,30.16,M,M,10.00,M,M,M,M,M
DSV,2018-01-03 09:00,-77.7130,42.5709,M,M,M,130.00,8.00,30.16,M,M,10.00,M,M,M,M,M
DSV,2018-01-03 09:05,-77.7130,42.5709,M,M,M,130.00,9.00,30.17,M,M,10.00,M,M,M,M,M
DSV,2018-01-03 09:10,-77.7130,42.5709,M,M,M,130.00,10.00,30.16,M,M,10.00,M,M,M,M,M
DSV,2018-01-03 09:15,-77.7130,42.5709,M,M,M,130.00,8.00,30.16,M,M,10.00,M,M,M,M,M
DSV,2018-01-03 09:20,-77.7130,42.5709,M,M,M,130.00,9.00,30.16,M,M,10.00,M,M,M,M,M
DSV,2018-01-03 09:25,-77.7130,42.5709,M,M,M,130.00,9.00,30.16,M,M,10.00,M,M,M,M,M
DSV,2018-01-03 09:30,-77.7130,42.5709,M,M,M,150.00,5.00,30.16,M,M,10.00,M,M,M,M,M
DSV,2018-01-03 09:35,-77.7130,42.5709,M,M,M,140.00,10.00,30.16,M,M,10.00,M,M,M,M,M
DSV,2018-01-03 09:40,-77.7130,42.5709,M,M,M,130.00,11.00,30.16,M,M,10.00,M,M,M,M,M
DSV,2018-01-03 09:45,-77.7130,42.5709,M,M,M,130.00,11.00,30.16,M,M,10.00,M,M,M,M,M
DSV,2018-01-03 09:50,-77.7130,42.5709,M,M,M,130.00,10.00,30.16,M,M,10.00,M,M,M,M,M
DSV,2018-01-03 09:54,-77.7130,42.5709,10.90,-2.90,52.99,120.00,12.00,30.16,1023.40,0.00,10.00,M,M,M,M,M
DSV,2018-01-03 09:55,-77.7130,42.5709,M,M,M,120.00,12.00,30.16,M,M,10.00,M,M,M,M,M
DSV,2018-01-03 10:00,-77.7130,42.5709,M,M,M,130.00,9.00,30.16,M,M,10.00,M,M,M,M,M
DSV,2018-01-03 10:05,-77.7130,42.5709,M,M,M,130.00,8.00,30.16,M,M,10.00,M,M,M,M,M
DSV,2018-01-03 10:10,-77.7130,42.5709,M,M,M,130.00,10.00,30.16,M,M,10.00,M,M,M,M,M
DSV,2018-01-03 10:15,-77.7130,42.5709,M,M,M,140.00,9.00,30.16,M,M,10.00,M,M,M,M,M
DSV,2018-01-03 10:20,-77.7130,42.5709,M,M,M,120.00,8.00,30.16,M,M,10.00,M,M,M,M,M
DSV,2018-01-03 10:25,-77.7130,42.5709,M,M,M,130.00,7.00,30.16,M,M,10.00,M,M,M,M,M
DSV,2018-01-03 10:30,-77.7130,42.5709,M,M,M,110.00,7.00,30.16,M,M,10.00,M,M,M,M,M
DSV,2018-01-03 10:35,-77.7130,42.5709,M,M,M,130.00,7.00,30.16,M,M,10.00,M,M,M,M,M
DSV,2018-01-03 10:40,-77.7130,42.5709,M,M,M,140.00,9.00,30.16,M,M,10.00,M,M,M,M,M
DSV,2018-01-03 10:45,-77.7130,42.5709,M,M,M,130.00,7.00,30.16,M,M,10.00,M,M,M,M,M
DSV,2018-01-03 10:50,-77.7130,42.5709,M,M,M,140.00,6.00,30.17,M,M,10.00,M,M,M,M,M
DSV,2018-01-03 10:54,-77.7130,42.5709,10.90,-2.90,52.99,140.00,7.00,30.17,1023.80,0.00,10.00,M,M,M,M,M
DSV,2018-01-03 10:55,-77.7130,42.5709,M,M,M,150.00,7.00,30.17,M,M,10.00,M,M,M,M,M
DSV,2018-01-03 11:00,-77.7130,42.5709,M,M,M,150.00,10.00,30.17,M,M,10.00,M,M,M,M,M
DSV,2018-01-03 11:05,-77.7130,42.5709,M,M,M,130.00,9.00,30.17,M,M,10.00,M,M,M,M,M
DSV,2018-01-03 11:10,-77.7130,42.5709,M,M,M,140.00,8.00,30.17,M,M,10.00,M,M,M,M,M
DSV,2018-01-03 11:15,-77.7130,42.5709,M,M,M,140.00,9.00,30.17,M,M,10.00,M,M,M,M,M
DSV,2018-01-03 11:20,-77.7130,42.5709,M,M,M,140.00,10.00,30.17,M,M,10.00,M,M,M,M,M
DSV,2018-01-03 11:25,-77.7130,42.5709,M,M,M,150.00,6.00,30.17,M,M,10.00,M,M,M,M,M
DSV,2018-01-03 11:30,-77.7130,42.5709,M,M,M,130.00,9.00,30.17,M,M,10.00,M,M,M,M,M
DSV,2018-01-03 11:35,-77.7130,42.5709,M,M,M,130.00,7.00,30.16,M,M,10.00,M,M,M,M,M
DSV,2018-01-03 11:40,-77.7130,42.5709,M,M,M,130.00,8.00,30.16,M,M,10.00,M,M,M,M,M
DSV,2018-01-03 11:45,-77.7130,42.5709,M,M,M,130.00,7.00,30.16,M,M,10.00,M,M,M,M,M
DSV,2018-01-03 11:50,-77.7130,42.5709,M,M,M,150.00,8.00,30.16,M,M,10.00,M,M,M,M,M
DSV,2018-01-03 11:54,-77.7130,42.5709,9.00,-5.10,51.92,150.00,10.00,30.16,1023.60,0.00,10.00,M,M,M,M,M
DSV,2018-01-03 11:55,-77.7130,42.5709,M,M,M,150.00,9.00,30.16,M,M,10.00,M,M,M,M,M
DSV,2018-01-03 12:00,-77.7130,42.5709,M,M,M,140.00,7.00,30.16,M,M,10.00,M,M,M,M,M
DSV,2018-01-03 12:05,-77.7130,42.5709,M,M,M,140.00,8.00,30.16,M,M,10.00,M,M,M,M,M
DSV,2018-01-03 12:10,-77.7130,42.5709,M,M,M,130.00,9.00,30.16,M,M,10.00,M,M,M,M,M
DSV,2018-01-03 12:15,-77.7130,42.5709,M,M,M,130.00,9.00,30.16,M,M,10.00,M,M,M,M,M
DSV,2018-01-03 12:20,-77.7130,42.5709,M,M,M,140.00,8.00,30.17,M,M,10.00,M,M,M,M,M
DSV,2018-01-03 12:25,-77.7130,42.5709,M,M,M,150.00,5.00,30.16,M,M,10.00,M,M,M,M,M
DSV,2018-01-03 12:30,-77.7130,42.5709,M,M,M,150.00,7.00,30.16,M,M,10.00,M,M,M,M,M
DSV,2018-01-03 12:35,-77.7130,42.5709,M,M,M,160.00,9.00,30.17,M,M,10.00,M,M,M,M,M
DSV,2018-01-03 12:40,-77.7130,42.5709,M,M,M,140.00,6.00,30.16,M,M,10.00,M,M,M,M,M
DSV,2018-01-03 12:45,-77.7130,42.5709,M,M,M,130.00,6.00,30.16,M,M,10.00,M,M,M,M,M
DSV,2018-01-03 12:50,-77.7130,42.5709,M,M,M,130.00,9.00,30.16,M,M,10.00,M,M,M,M,M
DSV,2018-01-03 12:54,-77.7130,42.5709,9.00,-5.10,51.92,150.00,5.00,30.16,1023.60,0.00,10.00,M,M,M,M,M
DSV,2018-01-03 12:55,-77.7130,42.5709,M,M,M,150.00,6.00,30.16,M,M,10.00,M,M,M,M,M
DSV,2018-01-03 13:00,-77.7130,42.5709,M,M,M,140.00,8.00,30.16,M,M,10.00,M,M,M,M,M
DSV,2018-01-03 13:05,-77.7130,42.5709,M,M,M,140.00,8.00,30.16,M,M,10.00,M,M,M,M,M
DSV,2018-01-03 13:10,-77.7130,42.5709,M,M,M,160.00,8.00,30.16,M,M,10.00,M,M,M,M,M
DSV,2018-01-03 13:15,-77.7130,42.5709,M,M,M,140.00,8.00,30.16,M,M,10.00,M,M,M,M,M
DSV,2018-01-03 13:20,-77.7130,42.5709,M,M,M,140.00,8.00,30.16,M,M,10.00,M,M,M,M,M
DSV,2018-01-03 13:25,-77.7130,42.5709,M,M,M,160.00,7.00,30.16,M,M,10.00,M,M,M,M,M
DSV,2018-01-03 13:30,-77.7130,42.5709,M,M,M,140.00,8.00,30.15,M,M,10.00,M,M,M,M,M
DSV,2018-01-03 13:35,-77.7130,42.5709,M,M,M,120.00,6.00,30.16,M,M,10.00,M,M,M,M,M
DSV,2018-01-03 13:40,-77.7130,42.5709,M,M,M,130.00,8.00,30.16,M,M,10.00,M,M,M,M,M
DSV,2018-01-03 13:45,-77.7130,42.5709,M,M,M,130.00,6.00,30.16,M,M,10.00,M,M,M,M,M
DSV,2018-01-03 13:50,-77.7130,42.5709,M,M,M,140.00,8.00,30.16,M,M,10.00,M,M,M,M,M
DSV,2018-01-03 13:54,-77.7130,42.5709,10.00,-5.10,49.65,120.00,6.00,30.16,1023.70,0.00,10.00,M,M,M,M,M
DSV,2018-01-03 13:55,-77.7130,42.5709,M,M,M,140.00,5.00,30.16,M,M,10.00,M,M,M,M,M
DSV,2018-01-03 14:00,-77.7130,42.5709,M,M,M,150.00,6.00,30.16,M,M,10.00,M,M,M,M,M
DSV,2018-01-03 14:05,-77.7130,42.5709,M,M,M,120.00,8.00,30.16,M,M,10.00,M,M,M,M,M
DSV,2018-01-03 14:10,-77.7130,42.5709,M,M,M,160.00,7.00,30.17,M,M,10.00,M,M,M,M,M
DSV,2018-01-03 14:15,-77.7130,42.5709,M,M,M,120.00,5.00,30.16,M,M,10.00,M,M,M,M,M
DSV,2018-01-03 14:20,-77.7130,42.5709,M,M,M,140.00,6.00,30.16,M,M,10.00,M,M,M,M,M
DSV,2018-01-03 14:25,-77.7130,42.5709,M,M,M,140.00,5.00,30.16,M,M,10.00,M,M,M,M,M
DSV,2018-01-03 14:30,-77.7130,42.5709,M,M,M,120.00,6.00,30.16,M,M,10.00,M,M,M,M,M
DSV,2018-01-03 14:35,-77.7130,42.5709,M,M,M,120.00,6.00,30.16,M,M,10.00,M,M,M,M,M
DSV,2018-01-03 14:40,-77.7130,42.5709,M,M,M,120.00,7.00,30.15,M,M,10.00,M,M,M,M,M
DSV,2018-01-03 14:45,-77.7130,42.5709,M,M,M,130.00,7.00,30.15,M,M,10.00,M,M,M,M,M
DSV,2018-01-03 14:50,-77.7130,42.5709,M,M,M,120.00,6.00,30.15,M,M,10.00,M,M,M,M,M
DSV,2018-01-03 14:54,-77.7130,42.5709,12.00,-4.00,47.89,120.00,8.00,30.15,1023.30,0.00,10.00,M,M,M,M,M
DSV,2018-01-03 14:55,-77.7130,42.5709,M,M,M,120.00,7.00,30.15,M,M,10.00,M,M,M,M,M
DSV,2018-01-03 15:00,-77.7130,42.5709,M,M,M,120.00,6.00,30.15,M,M,10.00,M,M,M,M,M
DSV,2018-01-03 15:05,-77.7130,42.5709,M,M,M,110.00,9.00,30.15,M,M,10.00,M,M,M,M,M
DSV,2018-01-03 15:10,-77.7130,42.5709,M,M,M,130.00,8.00,30.14,M,M,10.00,M,M,M,M,M
DSV,2018-01-03 15:15,-77.7130,42.5709,M,M,M,110.00,8.00,30.15,M,M,10.00,M,M,M,M,M
DSV,2018-01-03 15:20,-77.7130,42.5709,M,M,M,110.00,7.00,30.14,M,M,10.00,M,M,M,M,M
DSV,2018-01-03 15:25,-77.7130,42.5709,M,M,M,120.00,9.00,30.14,M,M,10.00,M,M,M,M,M
DSV,2018-01-03 15:30,-77.7130,42.5709,M,M,M,120.00,7.00,30.13,M,M,10.00,M,M,M,M,M
DSV,2018-01-03 15:35,-77.7130,42.5709,M,M,M,120.00,6.00,30.13,M,M,10.00,M,M,M,M,M
DSV,2018-01-03 15:40,-77.7130,42.5709,M,M,M,120.00,8.00,30.13,M,M,10.00,M,M,M,M,M
DSV,2018-01-03 15:45,-77.7130,42.5709,M,M,M,140.00,8.00,30.13,M,M,10.00,M,M,M,M,M
DSV,2018-01-03 15:50,-77.7130,42.5709,M,M,M,150.00,8.00,30.12,M,M,10.00,M,M,M,M,M
DSV,2018-01-03 15:54,-77.7130,42.5709,18.00,-4.00,36.86,160.00,9.00,30.11,1021.80,0.00,10.00,14.00,M,M,M,M
DSV,2018-01-03 15:55,-77.7130,42.5709,M,M,M,160.00,8.00,30.11,M,M,10.00,M,M,M,M,M
DSV,2018-01-03 16:00,-77.7130,42.5709,M,M,M,170.00,9.00,30.11,M,M,10.00,M,M,M,M,M
DSV,2018-01-03 16:05,-77.7130,42.5709,M,M,M,150.00,8.00,30.10,M,M,10.00,M,M,M,M,M
DSV,2018-01-03 16:10,-77.7130,42.5709,M,M,M,160.00,13.00,30.09,M,M,10.00,M,M,M,M,M
DSV,2018-01-03 16:15,-77.7130,42.5709,M,M,M,160.00,11.00,30.08,M,M,10.00,M,M,M,M,M
DSV,2018-01-03 16:20,-77.7130,42.5709,M,M,M,140.00,7.00,30.08,M,M,10.00,M,M,M,M,M
DSV,2018-01-03 16:25,-77.7130,42.5709,M,M,M,160.00,7.00,30.08,M,M,10.00,M,M,M,M,M
DSV,2018-01-03 16:30,-77.7130,42.5709,M,M,M,130.00,5.00,30.08,M,M,10.00,M,M,M,M,M
DSV,2018-01-03 16:35,-77.7130,42.5709,M,M,M,150.00,5.00,30.08,M,M,10.00,M,M,M,M,M
DSV,2018-01-03 16:40,-77.7130,42.5709,M,M,M,210.00,6.00,30.07,M,M,10.00,M,M,M,M,M
DSV,2018-01-03 16:45,-77.7130,42.5709,M,M,M,100.00,6.00,30.07,M,M,10.00,M,M,M,M,M
DSV,2018-01-03 16:50,-77.7130,42.5709,M,M,M,150.00,7.00,30.06,M,M,10.00,M,7999.00,M,M,M
DSV,2018-01-03 16:54,-77.7130,42.5709,21.90,-2.90,32.89,150.00,8.00,30.06,1019.90,0.00,10.00,M,8000.00,M,M,M
DSV,2018-01-03 16:55,-77.7130,42.5709,M,M,M,160.00,7.00,30.06,M,M,10.00,M,7999.00,M,M,M
DSV,2018-01-03 17:00,-77.7130,42.5709,M,M,M,120.00,7.00,30.06,M,M,10.00,M,7999.00,M,M,M
DSV,2018-01-03 17:05,-77.7130,42.5709,M,M,M,160.00,7.00,30.06,M,M,10.00,M,8500.00,M,M,M
DSV,2018-01-03 17:10,-77.7130,42.5709,M,M,M,150.00,8.00,30.05,M,M,10.00,M,8500.00,M,M,M
DSV,2018-01-03 17:15,-77.7130,42.5709,M,M,M,160.00,7.00,30.05,M,M,10.00,M,8500.00,M,M,M
DSV,2018-01-03 17:20,-77.7130,42.5709,M,M,M,180.00,8.00,30.04,M,M,10.00,M,8500.00,M,M,M
DSV,2018-01-03 17:25,-77.7130,42.5709,M,M,M,180.00,5.00,30.04,M,M,10.00,M,8500.00,M,M,M
DSV,2018-01-03 17:30,-77.7130,42.5709,M,M,M,160.00,9.00,30.04,M,M,10.00,14.00,8500.00,M,M,M
DSV,2018-01-03 17:35,-77.7130,42.5709,M,M,M,190.00,8.00,30.03,M,M,10.00,M,8500.00,M,M,M
DSV,2018-01-03 17:40,-77.7130,42.5709,M,M,M,190.00,7.00,30.03,M,M,10.00,M,9000.00,M,M,M
DSV,2018-01-03 17:45,-77.7130,42.5709,M,M,M,200.00,6.00,30.03,M,M,10.00,M,9000.00,12000.00,M,M
DSV,2018-01-03 17:50,-77.7130,42.5709,M,M,M,210.00,7.00,30.03,M,M,10.00,M,9000.00,12000.00,M,M
DSV,2018-01-03 17:54,-77.7130,42.5709,24.10,-6.00,25.84,180.00,9.00,30.03,1018.90,0.00,10.00,15.00,9000.00,M,M,M
DSV,2018-01-03 17:55,-77.7130,42.5709,M,M,M,180.00,11.00,30.03,M,M,10.00,M,9000.00,M,M,M
DSV,2018-01-03 18:00,-77.7130,42.5709,M,M,M,190.00,7.00,30.02,M,M,10.00,M,9000.00,M,M,M
DSV,2018-01-03 18:05,-77.7130,42.5709,M,M,M,190.00,4.00,30.02,M,M,10.00,M,9000.00,M,M,M
DSV,2018-01-03 18:10,-77.7130,42.5709,M,M,M,190.00,8.00,30.02,M,M,10.00,M,9000.00,M,M,M
DSV,2018-01-03 18:15,-77.7130,42.5709,M,M,M,170.00,9.00,30.01,M,M,10.00,M,9000.00,M,M,M
DSV,2018-01-03 18:20,-77.7130,42.5709,M,M,M,160.00,12.00,30.01,M,M,10.00,M,9000.00,M,M,M
DSV,2018-01-03 18:25,-77.7130,42.5709,M,M,M,160.00,10.00,30.01,M,M,10.00,M,9000.00,M,M,M
DSV,2018-01-03 18:30,-77.7130,42.5709,M,M,M,180.00,11.00,30.00,M,M,10.00,M,9000.00,M,M,M
DSV,2018-01-03 18:35,-77.7130,42.5709,M,M,M,150.00,9.00,30.00,M,M,10.00,M,M,M,M,M
DSV,2018-01-03 18:40,-77.7130,42.5709,M,M,M,140.00,7.00,30.00,M,M,10.00,M,M,M,M,M
DSV,2018-01-03 18:45,-77.7130,42.5709,M,M,M,150.00,8.00,30.00,M,M,10.00,M,M,M,M,M
DSV,2018-01-03 18:50,-77.7130,42.5709,M,M,M,160.00,5.00,29.99,M,M,10.00,M,M,M,M,M
DSV,2018-01-03 18:54,-77.7130,42.5709,25.00,-4.00,27.41,160.00,11.00,29.99,1017.70,0.00,10.00,17.00,M,M,M,M
DSV,2018-01-03 18:55,-77.7130,42.5709,M,M,M,170.00,10.00,29.99,M,M,10.00,M,M,M,M,M
DSV,2018-01-03 19:00,-77.7130,42.5709,M,M,M,160.00,7.00,29.99,M,M,10.00,M,M,M,M,M
DSV,2018-01-03 19:05,-77.7130,42.5709,M,M,M,170.00,10.00,29.99,M,M,10.00,M,10000.00,M,M,M
DSV,2018-01-03 19:10,-77.7130,42.5709,M,M,M,160.00,11.00,29.98,M,M,10.00,M,11000.00,M,M,M
DSV,2018-01-03 19:15,-77.7130,42.5709,M,M,M,150.00,7.00,29.98,M,M,10.00,M,11000.00,M,M,M
DSV,2018-01-03 19:20,-77.7130,42.5709,M,M,M,150.00,9.00,29.97,M,M,10.00,M,11000.00,M,M,M
DSV,2018-01-03 19:25,-77.7130,42.5709,M,M,M,170.00,7.00,29.97,M,M,10.00,M,11000.00,M,M,M
DSV,2018-01-03 19:30,-77.7130,42.5709,M,M,M,180.00,7.00,29.97,M,M,10.00,M,11000.00,M,M,M
DSV,2018-01-03 19:35,-77.7130,42.5709,M,M,M,150.00,9.00,29.97,M,M,10.00,M,M,M,M,M
DSV,2018-01-03 19:40,-77.7130,42.5709,M,M,M,170.00,11.00,29.97,M,M,10.00,M,6500.00,M,M,M
DSV,2018-01-03 19:45,-77.7130,42.5709,M,M,M,180.00,9.00,29.97,M,M,10.00,M,6500.00,M,M,M
DSV,2018-01-03 19:50,-77.7130,42.5709,M,M,M,170.00,9.00,29.97,M,M,10.00,M,6500.00,M,M,M
DSV,2018-01-03 19:54,-77.7130,42.5709,26.10,-4.00,26.18,150.00,10.00,29.96,1016.60,0.00,10.00,M,6500.00,M,M,M
DSV,2018-01-03 19:55,-77.7130,42.5709,M,M,M,150.00,12.00,29.96,M,M,10.00,M,6500.00,M,M,M
DSV,2018-01-03 20:00,-77.7130,42.5709,M,M,M,150.00,10.00,29.96,M,M,10.00,M,6500.00,M,M,M
DSV,2018-01-03 20:05,-77.7130,42.5709,M,M,M,150.00,9.00,29.96,M,M,10.00,M,6500.00,M,M,M
DSV,2018-01-03 20:10,-77.7130,42.5709,M,M,M,150.00,11.00,29.96,M,M,10.00,M,M,M,M,M
DSV,2018-01-03 20:15,-77.7130,42.5709,M,M,M,150.00,10.00,29.96,M,M,10.00,M,M,M,M,M
DSV,2018-01-03 20:20,-77.7130,42.5709,M,M,M,160.00,9.00,29.96,M,M,10.00,M,M,M,M,M
DSV,2018-01-03 20:25,-77.7130,42.5709,M,M,M,150.00,10.00,29.95,M,M,10.00,M,M,M,M,M
DSV,2018-01-03 20:30,-77.7130,42.5709,M,M,M,150.00,10.00,29.95,M,M,10.00,M,M,M,M,M
DSV,2018-01-03 20:35,-77.7130,42.5709,M,M,M,150.00,8.00,29.95,M,M,10.00,M,M,M,M,M
DSV,2018-01-03 20:40,-77.7130,42.5709,M,M,M,150.00,7.00,29.96,M,M,10.00,M,M,M,M,M
DSV,2018-01-03 20:45,-77.7130,42.5709,M,M,M,150.00,7.00,29.95,M,M,10.00,M,M,M,M,M
DSV,2018-01-03 20:50,-77.7130,42.5709,M,M,M,150.00,7.00,29.95,M,M,10.00,M,M,M,M,M
DSV,2018-01-03 20:54,-77.7130,42.5709,26.10,-4.00,26.18,150.00,7.00,29.95,1016.20,0.00,10.00,M,M,M,M,M
DSV,2018-01-03 20:55,-77.7130,42.5709,M,M,M,150.00,6.00,29.95,M,M,10.00,M,M,M,M,M
DSV,2018-01-03 21:00,-77.7130,42.5709,M,M,M,150.00,6.00,29.95,M,M,10.00,M,M,M,M,M
DSV,2018-01-03 21:05,-77.7130,42.5709,M,M,M,150.00,7.00,29.95,M,M,10.00,M,M,M,M,M
DSV,2018-01-03 21:10,-77.7130,42.5709,M,M,M,150.00,8.00,29.95,M,M,10.00,M,M,M,M,M
DSV,2018-01-03 21:15,-77.7130,42.5709,M,M,M,150.00,7.00,29.95,M,M,10.00,M,M,M,M,M
DSV,2018-01-03 21:20,-77.7130,42.5709,M,M,M,140.00,8.00,29.95,M,M,10.00,M,M,M,M,M
DSV,2018-01-03 21:25,-77.7130,42.5709,M,M,M,160.00,8.00,29.95,M,M,10.00,M,M,M,M,M
DSV,2018-01-03 21:30,-77.7130,42.5709,M,M,M,150.00,8.00,29.95,M,M,10.00,M,M,M,M,M
DSV,2018-01-03 21:35,-77.7130,42.5709,M,M,M,150.00,7.00,29.96,M,M,10.00,M,M,M,M,M
DSV,2018-01-03 21:40,-77.7130,42.5709,M,M,M,150.00,6.00,29.96,M,M,10.00,M,M,M,M,M
DSV,2018-01-03 21:45,-77.7130,42.5709,M,M,M,140.00,7.00,29.96,M,M,10.00,M,M,M,M,M
DSV,2018-01-03 21:50,-77.7130,42.5709,M,M,M,140.00,7.00,29.95,M,M,10.00,M,M,M,M,M
DSV,2018-01-03 21:54,-77.7130,42.5709,25.00,-2.90,28.88,130.00,5.00,29.96,1016.50,0.00,10.00,M,M,M,M,M
DSV,2018-01-03 21:55,-77.7130,42.5709,M,M,M,140.00,4.00,29.96,M,M,10.00,M,M,M,M,M
DSV,2018-01-03 22:00,-77.7130,42.5709,M,M,M,130.00,5.00,29.96,M,M,10.00,M,M,M,M,M
DSV,2018-01-03 22:05,-77.7130,42.5709,M,M,M,150.00,3.00,29.96,M,M,10.00,M,M,M,M,M
DSV,2018-01-03 22:10,-77.7130,42.5709,M,M,M,0.00,0.00,29.97,M,M,10.00,M,M,M,M,M
DSV,2018-01-03 22:15,-77.7130,42.5709,M,M,M,140.00,4.00,29.97,M,M,10.00,M,M,M,M,M
DSV,2018-01-03 22:20,-77.7130,42.5709,M,M,M,160.00,3.00,29.97,M,M,10.00,M,7500.00,M,M,M
DSV,2018-01-03 22:25,-77.7130,42.5709,M,M,M,120.00,5.00,29.98,M,M,10.00,M,7500.00,M,M,M
DSV,2018-01-03 22:30,-77.7130,42.5709,M,M,M,130.00,6.00,29.98,M,M,10.00,M,7500.00,M,M,M
DSV,2018-01-03 22:35,-77.7130,42.5709,M,M,M,140.00,5.00,29.98,M,M,10.00,M,7500.00,M,M,M
DSV,2018-01-03 22:40,-77.7130,42.5709,M,M,M,150.00,3.00,29.98,M,M,10.00,M,7500.00,M,M,M
DSV,2018-01-03 22:45,-77.7130,42.5709,M,M,M,0.00,0.00,29.98,M,M,10.00,M,7500.00,M,M,M
DSV,2018-01-03 22:50,-77.7130,42.5709,M,M,M,160.00,3.00,29.98,M,M,10.00,M,7500.00,M,M,M
DSV,2018-01-03 22:54,-77.7130,42.5709,21.90,3.90,45.22,140.00,3.00,29.98,1017.20,0.00,10.00,M,7500.00,M,M,M
DSV,2018-01-03 22:55,-77.7130,42.5709,M,M,M,140.00,3.00,29.98,M,M,10.00,M,7500.00,M,M,M
DSV,2018-01-03 23:00,-77.7130,42.5709,M,M,M,170.00,3.00,29.98,M,M,10.00,M,7500.00,8500.00,10000.00,M
DSV,2018-01-03 23:05,-77.7130,42.5709,M,M,M,140.00,3.00,29.98,M,M,10.00,M,7500.00,10000.00,M,M
DSV,2018-01-03 23:10,-77.7130,42.5709,M,M,M,0.00,0.00,29.98,M,M,10.00,M,7500.00,10000.00,M,M
DSV,2018-01-03 23:15,-77.7130,42.5709,M,M,M,100.00,3.00,29.98,M,M,10.00,M,8500.00,10000.00,M,M
DSV,2018-01-03 23:20,-77.7130,42.5709,M,M,M,110.00,3.00,29.97,M,M,10.00,M,7999.00,10000.00,M,M
DSV,2018-01-03 23:25,-77.7130,42.5709,M,M,M,0.00,0.00,29.97,M,M,10.00,M,7000.00,8500.00,10000.00,M
DSV,2018-01-03 23:30,-77.7130,42.5709,M,M,M,0.00,0.00,29.98,M,M,10.00,M,7000.00,8500.00,M,M
DSV,2018-01-03 23:35,-77.7130,42.5709,M,M,M,150.00,3.00,29.98,M,M,10.00,M,7500.00,M,M,M
DSV,2018-01-03 23:40,-77.7130,42.5709,M,M,M,0.00,0.00,29.98,M,M,10.00,M,7500.00,M,M,M
DSV,2018-01-03 23:45,-77.7130,42.5709,M,M,M,0.00,0.00,29.98,M,M,10.00,M,7000.00,M,M,M
DSV,2018-01-03 23:50,-77.7130,42.5709,M,M,M,0.00,0.00,29.98,M,M,10.00,M,7500.00,M,M,M
DSV,2018-01-03 23:54,-77.7130,42.5709,21.90,7.00,52.10,0.00,0.00,29.98,1017.10,0.00,10.00,M,7500.00,M,M,M
DSV,2018-01-03 23:55,-77.7130,42.5709,M,M,M,0.00,0.00,29.98,M,M,10.00,M,7500.00,M,M,M
FZY,2018-01-01 00:00,-76.3847,43.3497,M,M,M,350.00,8.00,30.35,M,M,10.00,M,M,M,M,M
FZY,2018-01-01 00:05,-76.3847,43.3497,M,M,M,350.00,7.00,30.35,M,M,10.00,M,M,M,M,M
FZY,2018-01-01 00:15,-76.3847,43.3497,M,M,M,360.00,6.00,30.35,M,M,10.00,M,M,M,M,M
FZY,2018-01-01 00:20,-76.3847,43.3497,M,M,M,60.00,3.00,30.35,M,M,8.00,M,1200.00,M,M,M
FZY,2018-01-01 00:25,-76.3847,43.3497,M,M,M,70.00,4.00,30.36,M,M,6.00,M,1400.00,M,M,-SN
FZY,2018-01-01 00:30,-76.3847,43.3497,M,M,M,90.00,3.00,30.36,M,M,5.00,M,1400.00,M,M,-SN BR
FZY,2018-01-01 00:31,-76.3847,43.3497,1.90,-2.00,83.28,90.00,4.00,30.36,M,T,5.00,M,1400.00,M,M,-SN BR
FZY,2018-01-01 00:35,-76.3847,43.3497,M,M,M,90.00,4.00,30.35,M,M,4.00,M,1400.00,M,M,-SN BR
FZY,2018-01-01 00:40,-76.3847,43.3497,M,M,M,0.00,0.00,30.36,M,M,4.00,M,1400.00,M,M,-SN BR
FZY,2018-01-01 00:45,-76.3847,43.3497,M,M,M,110.00,3.00,30.36,M,M,5.00,M,1400.00,M,M,-SN BR
FZY,2018-01-01 00:50,-76.3847,43.3497,M,M,M,100.00,3.00,30.36,M,M,5.00,M,1400.00,M,M,-SN BR
FZY,2018-01-01 00:54,-76.3847,43.3497,1.00,-2.90,83.21,100.00,3.00,30.36,1029.40,T,4.00,M,1400.00,M,M,-SN BR
FZY,2018-01-01 00:55,-76.3847,43.3497,M,M,M,90.00,4.00,30.36,M,M,3.50,M,1400.00,M,M,-SN BR
FZY,2018-01-01 00:59,-76.3847,43.3497,0.00,-4.00,82.73,100.00,3.00,30.36,M,T,2.50,M,1500.00,M,M,-SN BR
FZY,2018-01-01 01:00,-76.3847,43.3497,M,M,M,100.00,3.00,30.36,M,M,2.50,M,1500.00,M,M,-SN BR
FZY,2018-01-01 01:05,-76.3847,43.3497,M,M,M,100.00,3.00,30.36,M,M,2.50,M,1699.00,2200.00,M,-SN BR
FZY,2018-01-01 01:14,-76.3847,43.3497,0.00,-2.90,87.19,110.00,3.00,30.36,M,T,3.00,M,1900.00,M,M,-SN BR
FZY,2018-01-01 01:15,-76.3847,43.3497,M,M,M,110.00,3.00,30.36,M,M,3.50,M,1900.00,M,M,-SN BR
FZY,2018-01-01 01:20,-76.3847,43.3497,M,M,M,0.00,0.00,30.36,M,M,4.00,M,1900.00,M,M,-SN BR
FZY,2018-01-01 01:25,-76.3847,43.3497,M,M,M,0.00,0.00,30.36,M,M,3.50,M,1900.00,M,M,-SN BR
FZY,2018-01-01 01:30,-76.3847,43.3497,M,M,M,140.00,3.00,30.36,M,M,2.50,M,2100.00,M,M,-SN BR
FZY,2018-01-01 01:34,-76.3847,43.3497,1.00,-4.00,78.95,110.00,3.00,30.36,M,T,1.75,M,2100.00,M,M,-SN
FZY,2018-01-01 01:35,-76.3847,43.3497,M,M,M,110.00,3.00,30.36,M,M,1.75,M,2100.00,M,M,-SN
FZY,2018-01-01 01:40,-76.3847,43.3497,M,M,M,0.00,0.00,30.36,M,M,1.75,M,2200.00,M,M,-SN BR
FZY,2018-01-01 01:50,-76.3847,43.3497,M,M,M,0.00,0.00,30.36,M,M,1.25,M,1800.00,M,M,-SN BR
FZY,2018-01-01 01:54,-76.3847,43.3497,1.00,-2.90,83.21,0.00,0.00,30.36,1029.40,T,1.25,M,1800.00,M,M,-SN BR
FZY,2018-01-01 01:55,-76.3847,43.3497,M,M,M,0.00,0.00,30.36,M,M,1.25,M,1800.00,M,M,-SN BR
FZY,2018-01-01 02:00,-76.3847,43.3497,M,M,M,0.00,0.00,30.36,M,M,1.50,M,1800.00,M,M,-SN BR
FZY,2018-01-01 02:10,-76.3847,43.3497,M,M,M,0.00,0.00,30.36,M,M,1.50,M,1400.00,M,M,-SN
FZY,2018-01-01 02:15,-76.3847,43.3497,1.00,-2.90,83.21,0.00,0.00,30.36,M,T,1.25,M,1400.00,M,M,-SN BR
FZY,2018-01-01 02:20,-76.3847,43.3497,M,M,M,140.00,3.00,30.36,M,M,1.25,M,1400.00,M,M,-SN
FZY,2018-01-01 02:25,-76.3847,43.3497,M,M,M,0.00,0.00,30.36,M,M,1.25,M,1600.00,M,M,-SN
FZY,2018-01-01 02:30,-76.3847,43.3497,M,M,M,0.00,0.00,30.36,M,M,1.50,M,1600.00,M,M,-SN
FZY,2018-01-01 02:31,-76.3847,43.3497,1.00,-4.00,78.95,0.00,0.00,30.36,M,T,1.75,M,1600.00,M,M,-SN
FZY,2018-01-01 02:35,-76.3847,43.3497,M,M,M,140.00,3.00,30.36,M,M,1.50,M,1600.00,M,M,-SN
FZY,2018-01-01 02:40,-76.3847,43.3497,M,M,M,0.00,0.00,30.36,M,M,1.25,M,1600.00,M,M,-SN
FZY,2018-01-01 02:45,-76.3847,43.3497,M,M,M,90.00,3.00,30.36,M,M,1.25,M,1800.00,M,M,-SN
FZY,2018-01-01 02:50,-76.3847,43.3497,M,M,M,0.00,0.00,30.37,M,M,1.50,M,1999.00,M,M,-SN
FZY,2018-01-01 02:54,-76.3847,43.3497,1.00,-2.90,83.21,0.00,0.00,30.37,1029.70,T,1.25,M,2000.00,M,M,-SN BR
FZY,2018-01-01 03:00,-76.3847,43.3497,M,M,M,0.00,0.00,30.37,M,M,1.00,M,1600.00,M,M,-SN BR
FZY,2018-01-01 03:03,-76.3847,43.3497,1.00,-2.90,83.21,0.00,0.00,30.37,M,T,1.00,M,1600.00,M,M,-SN BR
FZY,2018-01-01 03:05,-76.3847,43.3497,M,M,M,0.00,0.00,30.37,M,M,1.00,M,1600.00,M,M,-SN BR
FZY,2018-01-01 03:10,-76.3847,43.3497,M,M,M,0.00,0.00,30.37,M,M,1.25,M,1600.00,M,M,-SN BR
FZY,2018-01-01 03:14,-76.3847,43.3497,1.00,-2.90,83.21,0.00,0.00,30.37,M,T,1.50,M,1600.00,M,M,-SN BR
FZY,2018-01-01 03:20,-76.3847,43.3497,M,M,M,0.00,0.00,30.37,M,M,1.25,M,1400.00,M,M,-SN
FZY,2018-01-01 03:21,-76.3847,43.3497,1.00,-4.00,78.95,0.00,0.00,30.37,M,T,1.00,M,1300.00,M,M,-SN
FZY,2018-01-01 03:25,-76.3847,43.3497,M,M,M,0.00,0.00,30.37,M,M,0.75,M,1200.00,M,M,-SN BR
FZY,2018-01-01 03:30,-76.3847,43.3497,M,M,M,0.00,0.00,30.37,M,M,0.75,M,1200.00,M,M,-SN BR
FZY,2018-01-01 03:31,-76.3847,43.3497,1.00,-2.90,83.21,0.00,0.00,30.37,M,T,0.75,M,1200.00,M,M,-SN BR
FZY,2018-01-01 03:40,-76.3847,43.3497,M,M,M,0.00,0.00,30.37,M,M,1.00,M,1200.00,M,M,-SN BR
FZY,2018-01-01 03:44,-76.3847,43.3497,1.00,-2.90,83.21,0.00,0.00,30.37,M,T,1.25,M,1400.00,M,M,-SN BR
FZY,2018-01-01 03:45,-76.3847,43.3497,M,M,M,0.00,0.00,30.37,M,M,1.25,M,1400.00,M,M,-SN BR
FZY,2018-01-01 03:50,-76.3847,43.3497,M,M,M,0.00,0.00,30.37,M,M,1.50,M,1600.00,M,M,-SN BR
FZY,2018-01-01 03:54,-76.3847,43.3497,1.00,-2.90,83.21,0.00,0.00,30.37,1029.70,T,1.25,M,1600.00,M,M,-SN BR
FZY,2018-01-01 03:55,-76.3847,43.3497,M,M,M,0.00,0.00,30.37,M,M,1.25,M,1600.00,M,M,-SN BR
FZY,2018-01-01 04:00,-76.3847,43.3497,1.00,-2.90,83.21,0.00,0.00,30.37,M,T,1.00,M,1400.00,M,M,-SN BR
FZY,2018-01-01 04:05,-76.3847,43.3497,M,M,M,0.00,0.00,30.37,M,M,0.75,M,1400.00,M,M,-SN BR
FZY,2018-01-01 04:08,-76.3847,43.3497,1.00,-2.90,83.21,0.00,0.00,30.37,M,T,0.75,M,1500.00,M,M,-SN BR
FZY,2018-01-01 04:14,-76.3847,43.3497,1.00,-2.90,83.21,0.00,0.00,30.37,M,T,1.25,M,1600.00,M,M,-SN BR
FZY,2018-01-01 04:15,-76.3847,43.3497,M,M,M,0.00,0.00,30.37,M,M,1.25,M,1600.00,M,M,-SN BR
FZY,2018-01-01 04:20,-76.3847,43.3497,1.00,-2.90,83.21,0.00,0.00,30.37,M,T,1.00,M,1400.00,M,M,-SN BR
FZY,2018-01-01 04:25,-76.3847,43.3497,M,M,M,0.00,0.00,30.37,M,M,1.00,M,1400.00,M,M,-SN BR
FZY,2018-01-01 04:29,-76.3847,43.3497,1.00,-2.90,83.21,0.00,0.00,30.37,M,T,1.25,M,1500.00,M,M,-SN BR
FZY,2018-01-01 04:30,-76.3847,43.3497,M,M,M,0.00,0.00,30.37,M,M,1.25,M,1500.00,M,M,-SN BR
FZY,2018-01-01 04:35,-76.3847,43.3497,M,M,M,0.00,0.00,30.37,M,M,1.25,M,1500.00,M,M,-SN BR
FZY,2018-01-01 04:40,-76.3847,43.3497,M,M,M,0.00,0.00,30.37,M,M,1.00,M,1500.00,M,M,-SN BR
FZY,2018-01-01 04:45,-76.3847,43.3497,1.00,-2.90,83.21,0.00,0.00,30.37,M,T,1.00,M,1500.00,M,M,-SN BR
FZY,2018-01-01 04:50,-76.3847,43.3497,M,M,M,0.00,0.00,30.37,M,M,1.25,M,1600.00,M,M,-SN BR
FZY,2018-01-01 04:54,-76.3847,43.3497,1.00,-2.90,83.21,0.00,0.00,30.37,1029.70,T,1.25,M,1600.00,M,M,-SN BR
FZY,2018-01-01 04:55,-76.3847,43.3497,M,M,M,0.00,0.00,30.37,M,M,1.25,M,1600.00,M,M,-SN BR
FZY,2018-01-01 05:05,-76.3847,43.3497,M,M,M,0.00,0.00,30.37,M,M,1.25,M,1600.00,M,M,-SN BR
FZY,2018-01-01 05:10,-76.3847,43.3497,M,M,M,0.00,0.00,30.37,M,M,1.50,M,1600.00,M,M,-SN BR
FZY,2018-01-01 05:15,-76.3847,43.3497,M,M,M,0.00,0.00,30.37,M,M,1.50,M,1600.00,M,M,-SN BR
FZY,2018-01-01 05:25,-76.3847,43.3497,M,M,M,0.00,0.00,30.37,M,M,1.25,M,1600.00,M,M,-SN BR
FZY,2018-01-01 05:30,-76.3847,43.3497,M,M,M,0.00,0.00,30.37,M,M,1.50,M,1800.00,M,M,-SN BR
FZY,2018-01-01 05:35,-76.3847,43.3497,M,M,M,0.00,0.00,30.37,M,M,1.50,M,1800.00,M,M,-SN BR
FZY,2018-01-01 05:45,-76.3847,43.3497,M,M,M,0.00,0.00,30.37,M,M,1.25,M,1600.00,M,M,-SN BR
FZY,2018-01-01 05:50,-76.3847,43.3497,M,M,M,0.00,0.00,30.37,M,M,1.00,M,1699.00,M,M,-SN BR
FZY,2018-01-01 05:54,-76.3847,43.3497,1.00,-2.90,83.21,0.00,0.00,30.37,1029.60,T,1.25,M,1600.00,M,M,-SN BR
FZY,2018-01-01 05:55,-76.3847,43.3497,M,M,M,0.00,0.00,30.37,M,M,1.25,M,1600.00,M,M,-SN BR
FZY,2018-01-01 06:00,-76.3847,43.3497,M,M,M,0.00,0.00,30.37,M,M,1.25,M,1600.00,M,M,-SN BR
FZY,2018-01-01 06:05,-76.3847,43.3497,M,M,M,110.00,3.00,30.37,M,M,1.00,M,1500.00,M,M,-SN BR
FZY,2018-01-01 06:09,-76.3847,43.3497,1.00,-2.90,83.21,0.00,0.00,30.37,M,T,1.00,M,1500.00,M,M,-SN BR
FZY,2018-01-01 06:10,-76.3847,43.3497,M,M,M,0.00,0.00,30.37,M,M,1.00,M,1600.00,M,M,-SN BR
FZY,2018-01-01 06:19,-76.3847,43.3497,1.90,-2.90,79.79,90.00,3.00,30.37,M,T,1.25,M,1500.00,M,M,-SN
FZY,2018-01-01 06:20,-76.3847,43.3497,M,M,M,90.00,3.00,30.37,M,M,1.00,M,1500.00,M,M,-SN
FZY,2018-01-01 06:21,-76.3847,43.3497,1.90,-2.90,79.79,M,3.00,30.37,M,T,1.00,M,1400.00,M,M,-SN
FZY,2018-01-01 06:25,-76.3847,43.3497,M,M,M,90.00,3.00,30.37,M,M,1.00,M,1400.00,M,M,-SN
FZY,2018-01-01 06:35,-76.3847,43.3497,M,M,M,0.00,0.00,30.38,M,M,1.00,M,1300.00,M,M,-SN
FZY,2018-01-01 06:40,-76.3847,43.3497,M,M,M,70.00,3.00,30.38,M,M,0.75,M,1200.00,M,M,-SN
FZY,2018-01-01 06:44,-76.3847,43.3497,1.00,-4.00,78.95,0.00,0.00,30.38,M,T,0.75,M,1100.00,M,M,-SN
FZY,2018-01-01 06:45,-76.3847,43.3497,M,M,M,0.00,0.00,30.38,M,M,0.75,M,1100.00,M,M,-SN
FZY,2018-01-01 06:54,-76.3847,43.3497,1.00,-4.00,78.95,30.00,3.00,30.39,1030.20,T,1.00,M,1100.00,M,M,-SN
FZY,2018-01-01 06:55,-76.3847,43.3497,M,M,M,50.00,3.00,30.39,M,M,1.00,M,1100.00,M,M,-SN
FZY,2018-01-01 07:00,-76.3847,43.3497,M,M,M,30.00,4.00,30.39,M,M,0.75,M,999.00,M,M,-SN
FZY,2018-01-01 07:05,-76.3847,43.3497,1.00,-4.00,78.95,30.00,3.00,30.39,M,T,0.75,M,1000.00,M,M,-SN
FZY,2018-01-01 07:13,-76.3847,43.3497,1.00,-5.10,74.89,50.00,3.00,30.39,M,T,1.00,M,1100.00,M,M,-SN
FZY,2018-01-01 07:15,-76.3847,43.3497,M,M,M,50.00,4.00,30.39,M,M,1.00,M,1100.00,M,M,-SN
FZY,2018-01-01 07:20,-76.3847,43.3497,M,M,M,30.00,5.00,30.39,M,M,1.00,M,1100.00,M,M,-SN
FZY,2018-01-01 07:25,-76.3847,43.3497,M,M,M,30.00,7.00,30.39,M,M,1.00,M,1200.00,M,M,-SN
FZY,2018-01-01 07:30,-76.3847,43.3497,M,M,M,30.00,7.00,30.39,M,M,1.25,M,1200.00,M,M,-SN
FZY,2018-01-01 07:35,-76.3847,43.3497,0.00,-6.00,75.15,30.00,7.00,30.39,M,T,1.25,M,1200.00,M,M,-SN
FZY,2018-01-01 07:45,-76.3847,43.3497,M,M,M,30.00,5.00,30.40,M,M,1.25,M,1200.00,M,M,-SN
FZY,2018-01-01 07:50,-76.3847,43.3497,M,M,M,30.00,5.00,30.40,M,M,1.25,M,1400.00,M,M,-SN
FZY,2018-01-01 07:54,-76.3847,43.3497,-0.90,-6.00,78.40,30.00,5.00,30.40,1030.60,T,1.25,M,1400.00,M,M,-SN
FZY,2018-01-01 07:55,-76.3847,43.3497,M,M,M,30.00,5.00,30.40,M,M,1.25,M,1400.00,M,M,-SN
FZY,2018-01-01 08:00,-76.3847,43.3497,M,M,M,40.00,5.00,30.40,M,M,1.25,M,1400.00,M,M,-SN
FZY,2018-01-01 08:05,-76.3847,43.3497,M,M,M,40.00,7.00,30.39,M,M,1.25,M,1400.00,M,M,-SN
FZY,2018-01-01 08:10,-76.3847,43.3497,M,M,M,50.00,5.00,30.39,M,M,1.50,M,1600.00,M,M,-SN
FZY,2018-01-01 08:15,-76.3847,43.3497,-2.00,-8.00,74.93,40.00,6.00,30.39,M,T,1.50,M,1600.00,M,M,-SN
FZY,2018-01-01 08:20,-76.3847,43.3497,M,M,M,40.00,7.00,30.39,M,M,1.50,M,1600.00,M,M,-SN
FZY,2018-01-01 08:25,-76.3847,43.3497,M,M,M,30.00,6.00,30.39,M,M,1.50,M,1600.00,M,M,-SN
FZY,2018-01-01 08:35,-76.3847,43.3497,M,M,M,40.00,4.00,30.39,M,M,1.50,M,1699.00,M,M,-SN
FZY,2018-01-01 08:40,-76.3847,43.3497,M,M,M,40.00,4.00,30.39,M,M,1.75,M,1699.00,M,M,-SN
FZY,2018-01-01 08:45,-76.3847,43.3497,M,M,M,40.00,3.00,30.38,M,M,2.00,M,1900.00,M,M,-SN
FZY,2018-01-01 08:50,-76.3847,43.3497,M,M,M,30.00,4.00,30.39,M,M,2.00,M,1900.00,M,M,-SN
FZY,2018-01-01 08:54,-76.3847,43.3497,-2.90,-8.00,78.21,40.00,3.00,30.39,1030.20,T,1.75,M,1900.00,M,M,-SN
FZY,2018-01-01 08:55,-76.3847,43.3497,M,M,M,0.00,0.00,30.39,M,M,1.75,M,1900.00,M,M,-SN
FZY,2018-01-01 09:00,-76.3847,43.3497,M,M,M,0.00,0.00,30.39,M,M,2.00,M,2100.00,M,M,-SN
FZY,2018-01-01 09:06,-76.3847,43.3497,-2.90,-8.00,78.21,0.00,0.00,30.39,M,T,2.00,M,2100.00,M,M,-SN
FZY,2018-01-01 09:10,-76.3847,43.3497,M,M,M,0.00,0.00,30.39,M,M,2.00,M,2100.00,M,M,-SN
FZY,2018-01-01 09:15,-76.3847,43.3497,M,M,M,0.00,0.00,30.39,M,M,2.00,M,2100.00,M,M,-SN
FZY,2018-01-01 09:20,-76.3847,43.3497,M,M,M,50.00,3.00,30.39,M,M,1.75,M,2100.00,M,M,-SN
FZY,2018-01-01 09:25,-76.3847,43.3497,-2.90,-9.00,74.47,0.00,0.00,30.39,M,T,1.75,M,2100.00,M,M,-SN
FZY,2018-01-01 09:30,-76.3847,43.3497,M,M,M,0.00,0.00,30.39,M,M,2.00,M,2100.00,M,M,-SN
FZY,2018-01-01 09:34,-76.3847,43.3497,-4.00,-8.00,82.42,0.00,0.00,30.39,M,T,2.50,M,2200.00,3800.00,M,-SN BR
FZY,2018-01-01 09:35,-76.3847,43.3497,M,M,M,0.00,0.00,30.39,M,M,2.50,M,2200.00,3800.00,M,-SN
FZY,2018-01-01 09:45,-76.3847,43.3497,M,M,M,0.00,0.00,30.39,M,M,2.50,M,2200.00,3700.00,M,-SN
FZY,2018-01-01 09:50,-76.3847,43.3497,M,M,M,0.00,0.00,30.39,M,M,2.50,M,2200.00,3500.00,M,-SN
FZY,2018-01-01 09:54,-76.3847,43.3497,-4.00,-9.00,78.48,0.00,0.00,30.39,1030.30,T,2.50,M,2300.00,3500.00,M,-SN
FZY,2018-01-01 09:55,-76.3847,43.3497,M,M,M,70.00,3.00,30.39,M,M,2.50,M,2300.00,3500.00,M,-SN
FZY,2018-01-01 10:00,-76.3847,43.3497,M,M,M,0.00,0.00,30.39,M,M,2.50,M,2300.00,3500.00,M,-SN
FZY,2018-01-01 10:05,-76.3847,43.3497,M,M,M,0.00,0.00,30.39,M,M,4.00,M,2300.00,3600.00,M,-SN BR
FZY,2018-01-01 10:07,-76.3847,43.3497,-4.00,-9.00,78.48,0.00,0.00,30.39,M,T,4.00,M,2300.00,3600.00,M,-SN
FZY,2018-01-01 10:10,-76.3847,43.3497,M,M,M,0.00,0.00,30.38,M,M,4.00,M,2300.00,3600.00,M,-SN
FZY,2018-01-01 10:20,-76.3847,43.3497,-5.10,-9.00,82.74,0.00,0.00,30.38,M,T,2.50,M,2100.00,3600.00,M,-SN BR
FZY,2018-01-01 10:25,-76.3847,43.3497,M,M,M,0.00,0.00,30.39,M,M,3.00,M,2100.00,3600.00,M,-SN
FZY,2018-01-01 10:28,-76.3847,43.3497,-5.10,-9.90,79.16,0.00,0.00,30.39,M,T,3.00,M,2100.00,3600.00,M,-SN
FZY,2018-01-01 10:30,-76.3847,43.3497,M,M,M,0.00,0.00,30.38,M,M,3.00,M,1999.00,M,M,-SN
FZY,2018-01-01 10:35,-76.3847,43.3497,M,M,M,0.00,0.00,30.38,M,M,3.00,M,1999.00,M,M,-SN BR
FZY,2018-01-01 10:40,-76.3847,43.3497,M,M,M,0.00,0.00,30.39,M,M,3.00,M,1999.00,M,M,-SN BR
FZY,2018-01-01 10:45,-76.3847,43.3497,M,M,M,0.00,0.00,30.39,M,M,4.00,M,1999.00,M,M,-SN BR
FZY,2018-01-01 10:54,-76.3847,43.3497,-7.10,-11.90,78.97,0.00,0.00,30.39,1030.50,T,5.00,M,2000.00,M,M,HZ
FZY,2018-01-01 10:55,-76.3847,43.3497,M,M,M,0.00,0.00,30.39,M,M,5.00,M,1999.00,M,M,HZ
FZY,2018-01-01 11:00,-76.3847,43.3497,M,M,M,0.00,0.00,30.39,M,M,6.00,M,1999.00,M,M,BR
FZY,2018-01-01 11:05,-76.3847,43.3497,M,M,M,190.00,3.00,30.39,M,M,5.00,M,1999.00,M,M,BR
FZY,2018-01-01 11:15,-76.3847,43.3497,M,M,M,0.00,0.00,30.39,M,M,6.00,M,1999.00,M,M,BR
FZY,2018-01-01 11:20,-76.3847,43.3497,M,M,M,0.00,0.00,30.39,M,M,8.00,M,1800.00,M,M,M
FZY,2018-01-01 11:30,-76.3847,43.3497,M,M,M,0.00,0.00,30.39,M,M,9.00,M,1800.00,M,M,M
FZY,2018-01-01 11:35,-76.3847,43.3497,M,M,M,0.00,0.00,30.39,M,M,10.00,M,1800.00,M,M,M
FZY,2018-01-01 11:38,-76.3847,43.3497,-13.00,-17.00,81.68,0.00,0.00,30.39,M,0.00,10.00,M,1800.00,M,M,M
FZY,2018-01-01 11:40,-76.3847,43.3497,M,M,M,0.00,0.00,30.40,M,M,10.00,M,1800.00,M,M,M
FZY,2018-01-01 11:50,-76.3847,43.3497,M,M,M,0.00,0.00,30.40,M,M,10.00,M,1999.00,M,M,M
FZY,2018-01-01 11:54,-76.3847,43.3497,-13.00,-17.00,81.68,0.00,0.00,30.40,1030.80,0.00,10.00,M,M,M,M,M
FZY,2018-01-01 11:55,-76.3847,43.3497,M,M,M,0.00,0.00,30.40,M,M,10.00,M,M,M,M,M
FZY,2018-01-01 12:00,-76.3847,43.3497,M,M,M,0.00,0.00,30.39,M,M,10.00,M,M,M,M,M
FZY,2018-01-01 12:10,-76.3847,43.3497,M,M,M,0.00,0.00,30.39,M,M,10.00,M,M,M,M,M
FZY,2018-01-01 12:15,-76.3847,43.3497,M,M,M,0.00,0.00,30.39,M,M,10.00,M,M,M,M,M
FZY,2018-01-01 12:20,-76.3847,43.3497,M,M,M,0.00,0.00,30.40,M,M,10.00,M,M,M,M,M
FZY,2018-01-01 12:30,-76.3847,43.3497,M,M,M,0.00,0.00,30.39,M,M,10.00,M,M,M,M,M
FZY,2018-01-01 12:35,-76.3847,43.3497,M,M,M,0.00,0.00,30.40,M,M,10.00,M,M,M,M,M
FZY,2018-01-01 12:45,-76.3847,43.3497,M,M,M,170.00,3.00,30.39,M,M,10.00,M,M,M,M,M
FZY,2018-01-01 12:50,-76.3847,43.3497,M,M,M,0.00,0.00,30.39,M,M,10.00,M,M,M,M,M
FZY,2018-01-01 12:54,-76.3847,43.3497,-14.10,-18.00,82.01,0.00,0.00,30.39,1030.70,0.00,10.00,M,M,M,M,M
FZY,2018-01-01 12:55,-76.3847,43.3497,M,M,M,0.00,0.00,30.39,M,M,10.00,M,M,M,M,M
FZY,2018-01-01 13:05,-76.3847,43.3497,M,M,M,0.00,0.00,30.40,M,M,10.00,M,M,M,M,M
FZY,2018-01-01 13:10,-76.3847,43.3497,M,M,M,0.00,0.00,30.39,M,M,10.00,M,5000.00,M,M,M
FZY,2018-01-01 13:15,-76.3847,43.3497,M,M,M,0.00,0.00,30.39,M,M,10.00,M,5000.00,M,M,M
FZY,2018-01-01 13:25,-76.3847,43.3497,M,M,M,0.00,0.00,30.40,M,M,3.00,M,2700.00,4800.00,M,HZ
FZY,2018-01-01 13:30,-76.3847,43.3497,M,M,M,60.00,3.00,30.39,M,M,8.00,M,2700.00,4300.00,M,M
FZY,2018-01-01 13:35,-76.3847,43.3497,M,M,M,70.00,3.00,30.40,M,M,10.00,M,2700.00,4300.00,4900.00,M
FZY,2018-01-01 13:40,-76.3847,43.3497,M,M,M,90.00,3.00,30.40,M,M,8.00,M,2800.00,4100.00,M,M
FZY,2018-01-01 13:45,-76.3847,43.3497,M,M,M,110.00,3.00,30.40,M,M,6.00,M,2800.00,3900.00,M,HZ
FZY,2018-01-01 13:50,-76.3847,43.3497,M,M,M,130.00,3.00,30.39,M,M,5.00,M,3700.00,M,M,-SN
FZY,2018-01-01 13:54,-76.3847,43.3497,-9.00,-14.10,77.61,0.00,0.00,30.39,1030.70,T,4.00,M,3300.00,4500.00,M,-SN
FZY,2018-01-01 13:55,-76.3847,43.3497,M,M,M,0.00,0.00,30.39,M,M,4.00,M,3300.00,4500.00,M,-SN
FZY,2018-01-01 14:00,-76.3847,43.3497,M,M,M,0.00,0.00,30.39,M,M,4.00,M,3300.00,M,M,-SN BR
FZY,2018-01-01 14:05,-76.3847,43.3497,M,M,M,90.00,3.00,30.39,M,M,4.00,M,3300.00,M,M,-SN
FZY,2018-01-01 14:15,-76.3847,43.3497,M,M,M,0.00,0.00,30.39,M,M,4.00,M,3300.00,4200.00,M,BR
FZY,2018-01-01 14:20,-76.3847,43.3497,M,M,M,90.00,3.00,30.39,M,M,5.00,M,3300.00,4200.00,M,HZ
FZY,2018-01-01 14:25,-76.3847,43.3497,M,M,M,120.00,3.00,30.39,M,M,5.00,M,3300.00,M,M,HZ
FZY,2018-01-01 14:35,-76.3847,43.3497,M,M,M,0.00,0.00,30.39,M,M,5.00,M,3100.00,M,M,BR
FZY,2018-01-01 14:40,-76.3847,43.3497,M,M,M,0.00,0.00,30.39,M,M,5.00,M,3100.00,M,M,BR
FZY,2018-01-01 14:45,-76.3847,43.3497,M,M,M,0.00,0.00,30.39,M,M,5.00,M,2900.00,M,M,HZ
FZY,2018-01-01 14:50,-76.3847,43.3497,-2.20,-9.40,70.63,0.00,0.00,30.39,M,T,4.00,M,2900.00,M,M,HZ
FZY,2018-01-01 14:54,-76.3847,43.3497,-2.90,-9.00,74.47,0.00,0.00,30.39,1030.50,T,5.00,M,2900.00,M,M,HZ
FZY,2018-01-01 14:55,-76.3847,43.3497,M,M,M,130.00,3.00,30.39,M,M,5.00,M,2900.00,M,M,HZ
FZY,2018-01-01 15:00,-76.3847,43.3497,M,M,M,130.00,4.00,30.39,M,M,5.00,M,2800.00,M,M,HZ
FZY,2018-01-01 15:10,-76.3847,43.3497,M,M,M,120.00,3.00,30.39,M,M,6.00,M,3000.00,M,M,HZ
FZY,2018-01-01 15:15,-76.3847,43.3497,M,M,M,110.00,4.00,30.39,M,M,7.00,M,3200.00,M,M,M
FZY,2018-01-01 15:20,-76.3847,43.3497,M,M,M,120.00,5.00,30.39,M,M,7.00,M,3200.00,M,M,M
FZY,2018-01-01 15:30,-76.3847,43.3497,M,M,M,120.00,3.00,30.39,M,M,8.00,M,3700.00,4800.00,M,M
FZY,2018-01-01 15:35,-76.3847,43.3497,M,M,M,120.00,3.00,30.39,M,M,8.00,M,3700.00,4800.00,M,M
FZY,2018-01-01 15:40,-76.3847,43.3497,M,M,M,120.00,3.00,30.38,M,M,8.00,M,3500.00,4600.00,M,M
FZY,2018-01-01 15:50,-76.3847,43.3497,M,M,M,130.00,3.00,30.38,M,M,8.00,M,3300.00,M,M,M
FZY,2018-01-01 15:54,-76.3847,43.3497,1.00,-5.10,74.89,150.00,3.00,30.37,1029.90,0.00,8.00,M,3300.00,M,M,M
FZY,2018-01-01 15:55,-76.3847,43.3497,M,M,M,140.00,3.00,30.37,M,M,8.00,M,3300.00,M,M,M
FZY,2018-01-01 16:05,-76.3847,43.3497,M,M,M,0.00,0.00,30.37,M,M,10.00,M,3700.00,5000.00,M,M
FZY,2018-01-01 16:10,-76.3847,43.3497,M,M,M,140.00,3.00,30.36,M,M,10.00,M,3500.00,5000.00,M,M
FZY,2018-01-01 16:15,-76.3847,43.3497,M,M,M,0.00,0.00,30.36,M,M,10.00,M,3100.00,M,M,M
FZY,2018-01-01 16:25,-76.3847,43.3497,M,M,M,130.00,4.00,30.35,M,M,9.00,M,3100.00,5000.00,6500.00,-SN
FZY,2018-01-01 16:30,-76.3847,43.3497,M,M,M,0.00,0.00,30.35,M,M,9.00,M,3100.00,6500.00,M,-SN
FZY,2018-01-01 16:35,-76.3847,43.3497,M,M,M,150.00,4.00,30.35,M,M,9.00,M,2700.00,6500.00,M,M
FZY,2018-01-01 16:45,-76.3847,43.3497,M,M,M,140.00,3.00,30.35,M,M,10.00,M,6500.00,M,M,M
FZY,2018-01-01 16:50,-76.3847,43.3497,M,M,M,160.00,4.00,30.34,M,M,10.00,M,6500.00,M,M,M
FZY,2018-01-01 16:54,-76.3847,43.3497,5.00,-2.00,72.18,170.00,3.00,30.34,1028.70,T,10.00,M,3100.00,M,M,M
FZY,2018-01-01 16:55,-76.3847,43.3497,M,M,M,170.00,4.00,30.34,M,M,10.00,M,3100.00,M,M,M
FZY,2018-01-01 17:00,-76.3847,43.3497,M,M,M,170.00,5.00,30.33,M,M,10.00,M,3100.00,3800.00,M,M
FZY,2018-01-01 17:05,-76.3847,43.3497,M,M,M,170.00,5.00,30.33,M,M,10.00,M,3100.00,3800.00,M,M
FZY,2018-01-01 17:10,-76.3847,43.3497,M,M,M,160.00,5.00,30.32,M,M,10.00,M,2100.00,2700.00,3500.00,M
FZY,2018-01-01 17:19,-76.3847,43.3497,7.00,-0.90,69.41,170.00,6.00,30.32,M,0.00,9.00,M,2500.00,3100.00,M,M
FZY,2018-01-01 17:20,-76.3847,43.3497,M,M,M,170.00,7.00,30.32,M,M,9.00,M,2500.00,3100.00,M,M
FZY,2018-01-01 17:25,-76.3847,43.3497,M,M,M,170.00,7.00,30.32,M,M,10.00,M,2500.00,3100.00,3800.00,M
FZY,2018-01-01 17:30,-76.3847,43.3497,M,M,M,170.00,7.00,30.31,M,M,10.00,M,2500.00,3100.00,M,M
FZY,2018-01-01 17:34,-76.3847,43.3497,8.10,0.00,68.89,180.00,7.00,30.31,M,0.00,10.00,M,2300.00,3100.00,M,M
FZY,2018-01-01 17:40,-76.3847,43.3497,M,M,M,170.00,8.00,30.31,M,M,10.00,M,2100.00,3100.00,3900.00,M
FZY,2018-01-01 17:45,-76.3847,43.3497,M,M,M,160.00,5.00,30.30,M,M,10.00,M,3000.00,3800.00,M,M
FZY,2018-01-01 17:50,-76.3847,43.3497,M,M,M,140.00,3.00,30.30,M,M,10.00,M,3100.00,3800.00,M,M
FZY,2018-01-01 17:54,-76.3847,43.3497,9.00,0.00,66.16,150.00,7.00,30.30,1027.20,0.00,10.00,M,3800.00,10000.00,M,M
FZY,2018-01-01 17:55,-76.3847,43.3497,M,M,M,160.00,7.00,30.30,M,M,10.00,M,3800.00,11000.00,M,M
FZY,2018-01-01 18:00,-76.3847,43.3497,M,M,M,170.00,9.00,30.30,M,M,10.00,M,3800.00,11000.00,M,M
FZY,2018-01-01 18:05,-76.3847,43.3497,M,M,M,180.00,8.00,30.29,M,M,10.00,M,10000.00,M,M,M
FZY,2018-01-01 18:15,-76.3847,43.3497,M,M,M,170.00,6.00,30.29,M,M,10.00,M,10000.00,M,M,M
FZY,2018-01-01 18:20,-76.3847,43.3497,M,M,M,160.00,6.00,30.28,M,M,10.00,M,10000.00,M,M,M
FZY,2018-01-01 18:25,-76.3847,43.3497,M,M,M,180.00,8.00,30.28,M,M,10.00,M,10000.00,M,M,M
FZY,2018-01-01 18:30,-76.3847,43.3497,M,M,M,170.00,7.00,30.28,M,M,10.00,M,10000.00,M,M,M
FZY,2018-01-01 18:35,-76.3847,43.3497,M,M,M,180.00,7.00,30.28,M,M,10.00,M,3800.00,M,M,M
FZY,2018-01-01 18:40,-76.3847,43.3497,M,M,M,180.00,8.00,30.28,M,M,10.00,M,3600.00,M,M,M
FZY,2018-01-01 18:50,-76.3847,43.3497,M,M,M,190.00,8.00,30.27,M,M,10.00,M,3100.00,M,M,M
FZY,2018-01-01 18:54,-76.3847,43.3497,10.90,1.90,66.41,180.00,7.00,30.27,1026.10,0.00,10.00,M,3100.00,3800.00,M,M
FZY,2018-01-01 18:55,-76.3847,43.3497,M,M,M,180.00,8.00,30.27,M,M,10.00,M,3100.00,3800.00,M,M
FZY,2018-01-01 19:00,-76.3847,43.3497,M,M,M,190.00,9.00,30.27,M,M,10.00,M,3100.00,M,M,M
FZY,2018-01-01 19:05,-76.3847,43.3497,M,M,M,200.00,9.00,30.27,M,M,10.00,M,3100.00,M,M,M
FZY,2018-01-01 19:10,-76.3847,43.3497,M,M,M,180.00,9.00,30.27,M,M,10.00,M,3100.00,4400.00,M,M
FZY,2018-01-01 19:15,-76.3847,43.3497,M,M,M,190.00,11.00,30.26,M,M,10.00,M,3300.00,4400.00,5500.00,M
FZY,2018-01-01 19:20,-76.3847,43.3497,M,M,M,170.00,9.00,30.26,M,M,10.00,M,3900.00,4600.00,5500.00,M
FZY,2018-01-01 19:25,-76.3847,43.3497,M,M,M,170.00,9.00,30.26,M,M,10.00,M,4400.00,5500.00,M,M
FZY,2018-01-01 19:30,-76.3847,43.3497,M,M,M,170.00,9.00,30.26,M,M,10.00,M,4400.00,6000.00,M,M
FZY,2018-01-01 19:35,-76.3847,43.3497,M,M,M,180.00,9.00,30.25,M,M,10.00,M,4600.00,5000.00,6500.00,M
FZY,2018-01-01 19:40,-76.3847,43.3497,M,M,M,180.00,8.00,30.25,M,M,8.00,M,4500.00,6000.00,M,M
FZY,2018-01-01 19:45,-76.3847,43.3497,M,M,M,170.00,8.00,30.25,M,M,6.00,M,4500.00,5000.00,M,HZ
FZY,2018-01-01 19:50,-76.3847,43.3497,M,M,M,170.00,9.00,30.25,M,M,7.00,M,4100.00,5000.00,M,M
FZY,2018-01-01 19:54,-76.3847,43.3497,12.00,3.00,66.56,160.00,8.00,30.25,1025.40,0.00,9.00,M,4100.00,5000.00,M,M
FZY,2018-01-01 19:55,-76.3847,43.3497,M,M,M,170.00,8.00,30.25,M,M,9.00,M,3800.00,4700.00,M,M
FZY,2018-01-01 20:00,-76.3847,43.3497,M,M,M,170.00,6.00,30.25,M,M,10.00,M,3700.00,4700.00,M,M
FZY,2018-01-01 20:05,-76.3847,43.3497,M,M,M,170.00,7.00,30.24,M,M,10.00,M,3900.00,4900.00,M,M
FZY,2018-01-01 20:15,-76.3847,43.3497,M,M,M,170.00,6.00,30.24,M,M,10.00,M,3700.00,4900.00,M,M
FZY,2018-01-01 20:20,-76.3847,43.3497,M,M,M,180.00,6.00,30.24,M,M,10.00,M,3700.00,4700.00,M,M
FZY,2018-01-01 20:25,-76.3847,43.3497,M,M,M,180.00,6.00,30.24,M,M,10.00,M,3900.00,4900.00,M,M
FZY,2018-01-01 20:35,-76.3847,43.3497,M,M,M,180.00,6.00,30.24,M,M,10.00,M,3900.00,M,M,M
FZY,2018-01-01 20:40,-76.3847,43.3497,M,M,M,190.00,6.00,30.24,M,M,10.00,M,3700.00,M,M,M
FZY,2018-01-01 20:45,-76.3847,43.3497,M,M,M,190.00,6.00,30.24,M,M,10.00,M,3700.00,M,M,M
FZY,2018-01-01 20:54,-76.3847,43.3497,14.00,1.00,55.54,200.00,7.00,30.24,1025.00,0.00,10.00,M,3700.00,M,M,M
FZY,2018-01-01 20:55,-76.3847,43.3497,M,M,M,190.00,7.00,30.24,M,M,10.00,M,3700.00,M,M,M
FZY,2018-01-01 21:00,-76.3847,43.3497,M,M,M,210.00,7.00,30.23,M,M,10.00,M,3700.00,M,M,M
FZY,2018-01-01 21:05,-76.3847,43.3497,M,M,M,220.00,7.00,30.23,M,M,10.00,M,3500.00,M,M,M
FZY,2018-01-01 21:15,-76.3847,43.3497,M,M,M,210.00,7.00,30.23,M,M,10.00,M,3300.00,M,M,M
FZY,2018-01-01 21:20,-76.3847,43.3497,M,M,M,200.00,10.00,30.23,M,M,10.00,M,3300.00,M,M,M
FZY,2018-01-01 21:25,-76.3847,43.3497,M,M,M,220.00,7.00,30.23,M,M,10.00,M,3100.00,M,M,M
FZY,2018-01-01 21:35,-76.3847,43.3497,M,M,M,230.00,6.00,30.23,M,M,10.00,M,3300.00,M,M,M
FZY,2018-01-01 21:40,-76.3847,43.3497,M,M,M,230.00,7.00,30.23,M,M,10.00,M,3300.00,M,M,M
FZY,2018-01-01 21:45,-76.3847,43.3497,M,M,M,220.00,5.00,30.23,M,M,10.00,M,3100.00,M,M,M
FZY,2018-01-01 21:54,-76.3847,43.3497,14.00,1.90,57.91,250.00,8.00,30.23,1024.90,T,5.00,M,1500.00,2700.00,M,-SN
FZY,2018-01-01 21:55,-76.3847,43.3497,M,M,M,240.00,9.00,30.23,M,M,5.00,M,1500.00,2700.00,M,-SN
FZY,2018-01-01 22:00,-76.3847,43.3497,M,M,M,230.00,6.00,30.23,M,M,5.00,M,1500.00,2500.00,M,-SN
FZY,2018-01-01 22:05,-76.3847,43.3497,M,M,M,250.00,7.00,30.23,M,M,5.00,M,1500.00,2300.00,M,-SN
FZY,2018-01-01 22:15,-76.3847,43.3497,M,M,M,250.00,8.00,30.23,M,M,3.00,M,1400.00,2100.00,M,-SN
FZY,2018-01-01 22:20,-76.3847,43.3497,M,M,M,260.00,8.00,30.23,M,M,2.00,M,1400.00,1900.00,M,-SN
FZY,2018-01-01 22:21,-76.3847,43.3497,14.00,5.00,66.82,260.00,7.00,30.23,M,T,1.75,M,1400.00,1900.00,M,-SN
FZY,2018-01-01 22:27,-76.3847,43.3497,14.00,6.10,70.26,250.00,13.00,30.23,M,T,1.00,18.00,800.00,1700.00,M,-SN
FZY,2018-01-01 22:30,-76.3847,43.3497,14.00,7.00,73.19,250.00,14.00,30.23,M,T,0.50,18.00,800.00,1300.00,M,SN
FZY,2018-01-01 22:35,-76.3847,43.3497,M,M,M,260.00,11.00,30.23,M,M,0.25,M,999.00,M,M,+SN
FZY,2018-01-01 22:40,-76.3847,43.3497,M,M,M,260.00,8.00,30.23,M,M,0.25,M,800.00,M,M,+SN FZFG
FZY,2018-01-01 22:42,-76.3847,43.3497,12.90,9.00,84.07,270.00,7.00,30.23,M,T,0.25,16.00,700.00,M,M,+SN FZFG
FZY,2018-01-01 22:50,-76.3847,43.3497,M,M,M,260.00,6.00,30.23,M,M,0.75,M,900.00,M,M,-SN BR
FZY,2018-01-01 22:54,-76.3847,43.3497,12.90,8.10,80.74,260.00,8.00,30.23,1024.90,T,1.00,M,900.00,M,M,-SN
FZY,2018-01-01 22:55,-76.3847,43.3497,M,M,M,270.00,9.00,30.23,M,M,1.00,M,800.00,M,M,-SN
FZY,2018-01-01 23:00,-76.3847,43.3497,M,M,M,270.00,5.00,30.23,M,M,0.75,M,900.00,M,M,-SN
FZY,2018-01-01 23:03,-76.3847,43.3497,14.00,7.00,73.19,260.00,10.00,30.23,M,T,0.75,M,1000.00,M,M,-SN
FZY,2018-01-01 23:06,-76.3847,43.3497,14.00,6.10,70.26,270.00,7.00,30.23,M,T,1.25,14.00,1100.00,M,M,-SN
FZY,2018-01-01 23:10,-76.3847,43.3497,M,M,M,280.00,8.00,30.23,M,M,1.75,M,1300.00,1999.00,M,-SN
FZY,2018-01-01 23:15,-76.3847,43.3497,M,M,M,270.00,10.00,30.24,M,M,2.50,15.00,1300.00,1999.00,M,-SN
FZY,2018-01-01 23:17,-76.3847,43.3497,14.00,6.10,70.26,270.00,11.00,30.24,M,T,2.50,15.00,1600.00,2300.00,M,-SN
FZY,2018-01-01 23:20,-76.3847,43.3497,M,M,M,280.00,10.00,30.24,M,M,2.00,M,1600.00,2300.00,M,-SN
FZY,2018-01-01 23:25,-76.3847,43.3497,M,M,M,270.00,10.00,30.24,M,M,1.50,M,1600.00,M,M,-SN
FZY,2018-01-01 23:28,-76.3847,43.3497,14.00,7.00,73.19,280.00,10.00,30.24,M,T,1.25,19.00,1600.00,M,M,-SN
FZY,2018-01-01 23:30,-76.3847,43.3497,M,M,M,290.00,10.00,30.24,M,M,1.00,M,1600.00,2100.00,M,-SN
FZY,2018-01-01 23:32,-76.3847,43.3497,14.00,7.00,73.19,290.00,9.00,30.23,M,T,1.00,M,1400.00,2100.00,M,-SN
FZY,2018-01-01 23:35,-76.3847,43.3497,M,M,M,290.00,8.00,30.23,M,M,0.75,M,1400.00,2100.00,M,-SN
FZY,2018-01-01 23:40,-76.3847,43.3497,12.90,8.10,80.74,280.00,7.00,30.23,M,T,0.75,M,1400.00,M,M,-SN
FZY,2018-01-01 23:45,-76.3847,43.3497,14.00,8.10,76.92,260.00,7.00,30.23,M,T,1.25,M,1500.00,M,M,-SN
FZY,2018-01-01 23:50,-76.3847,43.3497,M,M,M,250.00,8.00,30.23,M,M,1.50,M,1500.00,M,M,-SN
FZY,2018-01-01 23:54,-76.3847,43.3497,14.00,8.10,76.92,260.00,12.00,30.23,1025.10,T,1.50,15.00,1500.00,M,M,-SN
FZY,2018-01-01 23:55,-76.3847,43.3497,M,M,M,270.00,12.00,30.23,M,M,1.25,M,1500.00,M,M,-SN
FZY,2018-01-02 00:02,-76.3847,43.3497,14.00,8.10,76.92,290.00,8.00,30.24,M,T,0.75,M,1300.00,M,M,-SN
FZY,2018-01-02 00:05,-76.3847,43.3497,M,M,M,300.00,9.00,30.24,M,M,0.50,16.00,1200.00,M,M,SN
FZY,2018-01-02 00:10,-76.3847,43.3497,M,M,M,310.00,7.00,30.24,M,M,0.25,M,900.00,M,M,+SN FZFG
FZY,2018-01-02 00:15,-76.3847,43.3497,12.90,10.00,87.92,300.00,8.00,30.24,M,T,0.25,M,700.00,M,M,+SN FZFG
FZY,2018-01-02 00:20,-76.3847,43.3497,M,M,M,280.00,12.00,30.24,M,M,0.24,M,499.00,M,M,+SN FZFG
FZY,2018-01-02 00:25,-76.3847,43.3497,12.90,10.00,87.92,290.00,10.00,30.24,M,T,0.25,M,400.00,M,M,+SN FZFG
FZY,2018-01-02 00:30,-76.3847,43.3497,M,M,M,280.00,7.00,30.24,M,M,0.24,M,300.00,M,M,+SN FZFG
FZY,2018-01-02 00:35,-76.3847,43.3497,M,M,M,270.00,8.00,30.24,M,M,0.24,M,300.00,M,M,+SN FZFG
FZY,2018-01-02 00:40,-76.3847,43.3497,M,M,M,270.00,10.00,30.24,M,M,0.25,M,300.00,M,M,+SN FZFG
FZY,2018-01-02 00:45,-76.3847,43.3497,M,M,M,310.00,10.00,30.24,M,M,0.25,M,400.00,M,M,+SN FZFG
FZY,2018-01-02 00:50,-76.3847,43.3497,M,M,M,330.00,13.00,30.24,M,M,0.25,M,400.00,M,M,+SN FZFG
FZY,2018-01-02 00:54,-76.3847,43.3497,14.00,10.00,83.77,320.00,10.00,30.24,1025.40,T,0.25,18.00,400.00,M,M,+SN FZFG
FZY,2018-01-02 01:00,-76.3847,43.3497,M,M,M,320.00,9.00,30.24,M,M,0.25,M,400.00,M,M,+SN FZFG
FZY,2018-01-02 01:05,-76.3847,43.3497,M,M,M,300.00,11.00,30.24,M,M,0.25,16.00,400.00,M,M,+SN FZFG
FZY,2018-01-02 01:09,-76.3847,43.3497,14.00,10.00,83.77,290.00,9.00,30.24,M,T,0.50,16.00,600.00,M,M,SN FZFG
FZY,2018-01-02 01:10,-76.3847,43.3497,M,M,M,280.00,9.00,30.24,M,M,0.50,M,600.00,M,M,SN FZFG
FZY,2018-01-02 01:18,-76.3847,43.3497,14.00,10.00,83.77,300.00,16.00,30.25,M,T,1.00,28.00,1000.00,M,M,-SN BR
FZY,2018-01-02 01:20,-76.3847,43.3497,M,M,M,290.00,16.00,30.25,M,M,1.00,M,1200.00,M,M,-SN
FZY,2018-01-02 01:25,-76.3847,43.3497,M,M,M,310.00,15.00,30.25,M,M,1.00,M,1400.00,M,M,-SN
FZY,2018-01-02 01:35,-76.3847,43.3497,12.90,8.10,80.74,310.00,22.00,30.25,M,T,1.00,28.00,1600.00,2100.00,M,-SN
FZY,2018-01-02 01:40,-76.3847,43.3497,M,M,M,310.00,16.00,30.25,M,M,1.75,M,1900.00,2400.00,3700.00,-SN
FZY,2018-01-02 01:42,-76.3847,43.3497,14.00,6.10,70.26,310.00,19.00,30.25,M,T,1.75,28.00,1900.00,2600.00,4000.00,-SN
FZY,2018-01-02 01:45,-76.3847,43.3497,M,M,M,M,M,30.25,M,M,2.00,M,2600.00,3999.00,M,-SN
FZY,2018-01-02 01:48,-76.3847,43.3497,12.20,5.00,72.33,310.00,16.00,30.25,M,T,3.00,24.00,2600.00,4100.00,M,-SN
FZY,2018-01-02 01:49,-76.3847,43.3497,12.20,5.00,72.33,310.00,17.00,30.25,M,T,2.50,24.00,2600.00,4100.00,M,-SN
FZY,2018-01-02 01:50,-76.3847,43.3497,M,M,M,300.00,17.00,30.25,M,M,2.00,M,2600.00,4100.00,M,-SN
FZY,2018-01-02 01:54,-76.3847,43.3497,12.90,6.10,73.74,300.00,21.00,30.25,1025.80,T,1.50,30.00,2600.00,3900.00,M,-SN
FZY,2018-01-02 01:55,-76.3847,43.3497,M,M,M,M,M,30.26,M,M,1.25,M,2600.00,3900.00,M,-SN
FZY,2018-01-02 01:58,-76.3847,43.3497,12.90,6.10,73.74,300.00,22.00,30.26,M,T,0.75,30.00,2600.00,3900.00,M,-SN
FZY,2018-01-02 02:00,-76.3847,43.3497,M,M,M,M,M,30.26,M,M,0.75,M,2400.00,2800.00,3900.00,-SN
FZY,2018-01-02 02:05,-76.3847,43.3497,M,M,M,290.00,20.00,30.26,M,M,0.50,27.00,1999.00,3999.00,M,SN
FZY,2018-01-02 02:10,-76.3847,43.3497,M,M,M,M,M,30.27,M,M,0.50,M,1699.00,M,M,SN
FZY,2018-01-02 02:15,-76.3847,43.3497,M,M,M,300.00,19.00,30.27,M,M,0.50,M,1800.00,M,M,SN
FZY,2018-01-02 02:25,-76.3847,43.3497,M,M,M,M,M,30.28,M,M,0.50,M,1900.00,M,M,SN
FZY,2018-01-02 02:30,-76.3847,43.3497,M,M,M,300.00,21.00,30.28,M,M,0.50,M,1999.00,M,M,SN
FZY,2018-01-02 02:35,-76.3847,43.3497,M,M,M,300.00,16.00,30.28,M,M,0.50,M,1999.00,M,M,SN
FZY,2018-01-02 02:45,-76.3847,43.3497,M,M,M,300.00,16.00,30.28,M,M,0.75,M,2200.00,M,M,-SN
FZY,2018-01-02 02:50,-76.3847,43.3497,M,M,M,300.00,21.00,30.28,M,M,1.00,M,2400.00,M,M,-SN
FZY,2018-01-02 02:54,-76.3847,43.3497,10.90,1.90,66.41,300.00,22.00,30.28,1026.70,T,1.00,30.00,2600.00,M,M,-SN
FZY,2018-01-02 02:55,-76.3847,43.3497,M,M,M,M,M,30.28,M,M,1.00,M,2600.00,3700.00,M,-SN
FZY,2018-01-02 03:05,-76.3847,43.3497,M,M,M,300.00,18.00,30.29,M,M,1.00,M,3200.00,4200.00,M,M
FZY,2018-01-02 03:07,-76.3847,43.3497,10.00,1.00,66.29,300.00,16.00,30.29,M,T,1.00,30.00,3200.00,4200.00,M,BLSN
FZY,2018-01-02 03:10,-76.3847,43.3497,M,M,M,300.00,19.00,30.29,M,M,1.25,24.00,3399.00,M,M,M
FZY,2018-01-02 03:14,-76.3847,43.3497,10.00,0.00,63.26,300.00,17.00,30.29,M,T,2.00,27.00,3600.00,M,M,BLSN
FZY,2018-01-02 03:20,-76.3847,43.3497,M,M,M,300.00,17.00,30.29,M,M,1.75,M,3900.00,M,M,M
FZY,2018-01-02 03:25,-76.3847,43.3497,M,M,M,300.00,17.00,30.29,M,M,2.00,M,3900.00,M,M,M
FZY,2018-01-02 03:30,-76.3847,43.3497,M,M,M,M,M,30.29,M,M,3.00,M,3700.00,M,M,M
FZY,2018-01-02 03:34,-76.3847,43.3497,10.00,0.00,63.26,300.00,15.00,30.30,M,T,3.00,26.00,3900.00,M,M,BLSN
FZY,2018-01-02 03:40,-76.3847,43.3497,M,M,M,310.00,17.00,30.30,M,M,3.00,M,3600.00,4400.00,M,-SN
FZY,2018-01-02 03:45,-76.3847,43.3497,M,M,M,310.00,17.00,30.30,M,M,2.50,M,3600.00,4300.00,M,-SN
FZY,2018-01-02 03:50,-76.3847,43.3497,M,M,M,310.00,16.00,30.30,M,M,2.50,M,3200.00,4100.00,M,-SN
FZY,2018-01-02 03:51,-76.3847,43.3497,8.60,1.40,71.92,310.00,16.00,30.30,M,T,2.50,23.00,3200.00,4100.00,M,-SN
FZY,2018-01-02 03:54,-76.3847,43.3497,9.00,1.00,69.33,310.00,17.00,30.30,1027.50,T,2.00,23.00,2900.00,3500.00,4300.00,-SN
FZY,2018-01-02 03:55,-76.3847,43.3497,M,M,M,310.00,15.00,30.31,M,M,2.00,M,2900.00,3500.00,4300.00,-SN
FZY,2018-01-02 04:00,-76.3847,43.3497,M,M,M,310.00,14.00,30.31,M,M,2.00,M,2700.00,3300.00,M,-SN
FZY,2018-01-02 04:05,-76.3847,43.3497,M,M,M,310.00,15.00,30.31,M,M,2.50,M,2500.00,M,M,-SN
FZY,2018-01-02 04:15,-76.3847,43.3497,M,M,M,320.00,14.00,30.31,M,M,2.00,M,2300.00,M,M,-SN
FZY,2018-01-02 04:20,-76.3847,43.3497,M,M,M,320.00,16.00,30.31,M,M,2.50,M,2300.00,M,M,-SN
FZY,2018-01-02 04:25,-76.3847,43.3497,M,M,M,310.00,12.00,30.32,M,M,3.50,M,2300.00,3999.00,M,-SN
FZY,2018-01-02 04:27,-76.3847,43.3497,8.10,0.00,68.89,320.00,12.00,30.32,M,T,4.00,20.00,2300.00,3600.00,M,-SN
FZY,2018-01-02 04:30,-76.3847,43.3497,M,M,M,320.00,13.00,30.32,M,M,5.00,19.00,2500.00,3000.00,3800.00,-SN
FZY,2018-01-02 04:35,-76.3847,43.3497,M,M,M,310.00,13.00,30.32,M,M,8.00,18.00,2500.00,3000.00,3800.00,M
FZY,2018-01-02 04:40,-76.3847,43.3497,M,M,M,310.00,16.00,30.32,M,M,8.00,M,2500.00,3300.00,4100.00,M
FZY,2018-01-02 04:50,-76.3847,43.3497,M,M,M,310.00,12.00,30.32,M,M,10.00,M,2700.00,3399.00,M,-SN
FZY,2018-01-02 04:54,-76.3847,43.3497,8.10,-0.90,66.04,300.00,11.00,30.32,1027.90,T,9.00,M,2700.00,3200.00,M,-SN
FZY,2018-01-02 04:55,-76.3847,43.3497,M,M,M,310.00,11.00,30.32,M,M,9.00,M,2700.00,3200.00,M,-SN
FZY,2018-01-02 05:00,-76.3847,43.3497,M,M,M,310.00,13.00,30.32,M,M,9.00,M,2700.00,3500.00,M,M
FZY,2018-01-02 05:05,-76.3847,43.3497,M,M,M,310.00,10.00,30.32,M,M,10.00,M,2700.00,3300.00,M,M
FZY,2018-01-02 05:10,-76.3847,43.3497,M,M,M,310.00,12.00,30.32,M,M,10.00,M,2700.00,3300.00,M,M
FZY,2018-01-02 05:15,-76.3847,43.3497,M,M,M,310.00,9.00,30.32,M,M,10.00,M,2700.00,3300.00,M,M
FZY,2018-01-02 05:25,-76.3847,43.3497,M,M,M,310.00,10.00,30.32,M,M,10.00,M,3000.00,M,M,M
FZY,2018-01-02 05:30,-76.3847,43.3497,M,M,M,310.00,11.00,30.32,M,M,10.00,M,3000.00,3500.00,M,M
FZY,2018-01-02 05:31,-76.3847,43.3497,7.00,-0.90,69.41,310.00,10.00,30.32,M,T,10.00,M,3000.00,3500.00,M,M
FZY,2018-01-02 05:35,-76.3847,43.3497,M,M,M,310.00,10.00,30.32,M,M,10.00,M,3000.00,3500.00,M,M
FZY,2018-01-02 05:40,-76.3847,43.3497,M,M,M,320.00,12.00,30.32,M,M,8.00,M,2800.00,3500.00,M,-SN
FZY,2018-01-02 05:45,-76.3847,43.3497,M,M,M,310.00,10.00,30.32,M,M,7.00,M,3000.00,3500.00,M,-SN
FZY,2018-01-02 05:50,-76.3847,43.3497,M,M,M,320.00,10.00,30.32,M,M,6.00,M,2900.00,3399.00,M,-SN
FZY,2018-01-02 05:54,-76.3847,43.3497,7.00,-0.90,69.41,310.00,10.00,30.33,1028.10,T,5.00,M,2400.00,3200.00,M,-SN
FZY,2018-01-02 05:55,-76.3847,43.3497,M,M,M,310.00,10.00,30.33,M,M,5.00,M,2400.00,3200.00,M,-SN
FZY,2018-01-02 06:00,-76.3847,43.3497,M,M,M,310.00,10.00,30.33,M,M,4.00,M,2400.00,3200.00,M,-SN
FZY,2018-01-02 06:05,-76.3847,43.3497,M,M,M,310.00,10.00,30.33,M,M,4.00,M,2300.00,3200.00,M,-SN
FZY,2018-01-02 06:10,-76.3847,43.3497,M,M,M,310.00,9.00,30.33,M,M,4.00,M,2600.00,3200.00,M,-SN
FZY,2018-01-02 06:15,-76.3847,43.3497,M,M,M,320.00,9.00,30.33,M,M,4.00,M,2600.00,3200.00,M,-SN
FZY,2018-01-02 06:19,-76.3847,43.3497,7.00,0.00,72.41,320.00,8.00,30.33,M,T,4.00,M,2800.00,3200.00,M,-SN
FZY,2018-01-02 06:20,-76.3847,43.3497,M,M,M,310.00,8.00,30.33,M,M,4.00,M,2800.00,M,M,-SN
FZY,2018-01-02 06:30,-76.3847,43.3497,M,M,M,310.00,11.00,30.33,M,M,3.00,M,2300.00,2800.00,M,-SN
FZY,2018-01-02 06:35,-76.3847,43.3497,M,M,M,310.00,9.00,30.33,M,M,2.50,M,2800.00,M,M,-SN
FZY,2018-01-02 06:40,-76.3847,43.3497,M,M,M,310.00,8.00,30.33,M,M,3.50,M,1900.00,2800.00,M,-SN
FZY,2018-01-02 06:45,-76.3847,43.3497,M,M,M,310.00,9.00,30.33,M,M,3.50,M,1500.00,2700.00,M,-SN
FZY,2018-01-02 06:50,-76.3847,43.3497,M,M,M,310.00,8.00,30.33,M,M,3.00,M,1500.00,2700.00,M,-SN
FZY,2018-01-02 06:54,-76.3847,43.3497,6.10,0.00,75.43,300.00,8.00,30.33,1028.20,T,3.00,M,1500.00,2700.00,M,-SN
FZY,2018-01-02 06:55,-76.3847,43.3497,M,M,M,310.00,9.00,30.33,M,M,3.00,M,1500.00,2700.00,M,-SN
FZY,2018-01-02 07:00,-76.3847,43.3497,M,M,M,310.00,8.00,30.33,M,M,3.00,M,1600.00,2700.00,M,-SN
FZY,2018-01-02 07:05,-76.3847,43.3497,M,M,M,320.00,8.00,30.33,M,M,4.00,M,1600.00,2700.00,M,-SN
FZY,2018-01-02 07:15,-76.3847,43.3497,M,M,M,300.00,8.00,30.34,M,M,5.00,M,1600.00,2300.00,2800.00,-SN
FZY,2018-01-02 07:20,-76.3847,43.3497,M,M,M,310.00,8.00,30.34,M,M,6.00,M,1600.00,2300.00,2800.00,-SN
FZY,2018-01-02 07:25,-76.3847,43.3497,M,M,M,310.00,9.00,30.34,M,M,5.00,M,1600.00,2500.00,M,-SN
FZY,2018-01-02 07:35,-76.3847,43.3497,M,M,M,320.00,8.00,30.34,M,M,5.00,M,1500.00,2300.00,M,-SN
FZY,2018-01-02 07:40,-76.3847,43.3497,M,M,M,310.00,7.00,30.34,M,M,5.00,M,1300.00,2300.00,M,-SN
FZY,2018-01-02 07:44,-76.3847,43.3497,3.90,-0.90,79.97,310.00,6.00,30.34,M,T,5.00,M,1300.00,2100.00,2700.00,-SN
FZY,2018-01-02 07:45,-76.3847,43.3497,M,M,M,310.00,6.00,30.34,M,M,5.00,M,1300.00,2100.00,2700.00,-SN
FZY,2018-01-02 07:50,-76.3847,43.3497,M,M,M,320.00,6.00,30.34,M,M,7.00,M,1300.00,1900.00,2300.00,-SN
FZY,2018-01-02 07:54,-76.3847,43.3497,3.90,-0.90,79.97,320.00,6.00,30.34,1028.60,T,8.00,M,1300.00,2100.00,M,M
FZY,2018-01-02 07:55,-76.3847,43.3497,M,M,M,320.00,7.00,30.34,M,M,8.00,M,1300.00,2100.00,M,M
FZY,2018-01-02 08:00,-76.3847,43.3497,M,M,M,310.00,5.00,30.34,M,M,10.00,M,1300.00,M,M,M
FZY,2018-01-02 08:03,-76.3847,43.3497,3.00,-2.00,79.14,320.00,5.00,30.34,M,0.00,10.00,M,1300.00,M,M,M
FZY,2018-01-02 08:10,-76.3847,43.3497,M,M,M,290.00,5.00,30.34,M,M,10.00,M,1300.00,M,M,M
FZY,2018-01-02 08:15,-76.3847,43.3497,M,M,M,280.00,6.00,30.34,M,M,10.00,M,1300.00,M,M,M
FZY,2018-01-02 08:20,-76.3847,43.3497,M,M,M,290.00,5.00,30.34,M,M,10.00,M,4600.00,M,M,M
FZY,2018-01-02 08:25,-76.3847,43.3497,M,M,M,300.00,5.00,30.34,M,M,10.00,M,4600.00,M,M,M
FZY,2018-01-02 08:30,-76.3847,43.3497,M,M,M,300.00,5.00,30.34,M,M,10.00,M,4600.00,M,M,M
FZY,2018-01-02 08:40,-76.3847,43.3497,M,M,M,300.00,5.00,30.34,M,M,10.00,M,4700.00,M,M,M
FZY,2018-01-02 08:45,-76.3847,43.3497,M,M,M,310.00,5.00,30.34,M,M,10.00,M,4700.00,M,M,M
FZY,2018-01-02 08:50,-76.3847,43.3497,M,M,M,310.00,4.00,30.34,M,M,10.00,M,4700.00,M,M,M
FZY,2018-01-02 08:54,-76.3847,43.3497,5.00,-0.90,76.03,310.00,5.00,30.34,1028.50,0.00,10.00,M,4700.00,M,M,M
FZY,2018-01-02 09:00,-76.3847,43.3497,M,M,M,300.00,4.00,30.34,M,M,8.00,M,3999.00,4800.00,M,-SN
FZY,2018-01-02 09:05,-76.3847,43.3497,M,M,M,300.00,4.00,30.34,M,M,6.00,M,3999.00,4800.00,M,-SN
FZY,2018-01-02 09:15,-76.3847,43.3497,M,M,M,310.00,5.00,30.34,M,M,6.00,M,3999.00,4800.00,M,-SN
FZY,2018-01-02 09:20,-76.3847,43.3497,M,M,M,310.00,5.00,30.34,M,M,8.00,M,3800.00,4800.00,M,-SN
FZY,2018-01-02 09:25,-76.3847,43.3497,M,M,M,320.00,5.00,30.33,M,M,9.00,M,3800.00,4800.00,M,M
FZY,2018-01-02 09:35,-76.3847,43.3497,M,M,M,310.00,5.00,30.33,M,M,10.00,M,3700.00,4800.00,M,M
FZY,2018-01-02 09:40,-76.3847,43.3497,M,M,M,310.00,4.00,30.33,M,M,10.00,M,3700.00,4700.00,M,M
FZY,2018-01-02 09:45,-76.3847,43.3497,M,M,M,300.00,5.00,30.33,M,M,10.00,M,4700.00,M,M,M
FZY,2018-01-02 09:50,-76.3847,43.3497,M,M,M,310.00,4.00,30.33,M,M,10.00,M,4800.00,M,M,M
FZY,2018-01-02 09:54,-76.3847,43.3497,8.10,1.90,75.29,310.00,5.00,30.33,1028.00,T,6.00,M,4800.00,M,M,-SN
FZY,2018-01-02 09:55,-76.3847,43.3497,M,M,M,300.00,4.00,30.33,M,M,6.00,M,4600.00,M,M,-SN
FZY,2018-01-02 10:00,-76.3847,43.3497,M,M,M,310.00,4.00,30.33,M,M,4.00,M,4400.00,M,M,-SN
FZY,2018-01-02 10:05,-76.3847,43.3497,M,M,M,310.00,5.00,30.33,M,M,4.00,M,4400.00,M,M,-SN
FZY,2018-01-02 10:15,-76.3847,43.3497,M,M,M,300.00,5.00,30.33,M,M,4.00,M,3800.00,4800.00,M,-SN
FZY,2018-01-02 10:20,-76.3847,43.3497,M,M,M,290.00,4.00,30.32,M,M,5.00,M,3600.00,4800.00,M,-SN
FZY,2018-01-02 10:25,-76.3847,43.3497,M,M,M,310.00,3.00,30.32,M,M,4.00,M,3200.00,4600.00,M,-SN
FZY,2018-01-02 10:35,-76.3847,43.3497,M,M,M,290.00,3.00,30.32,M,M,2.50,M,2600.00,4600.00,M,-SN
FZY,2018-01-02 10:36,-76.3847,43.3497,8.10,3.00,79.23,300.00,4.00,30.32,M,T,2.50,M,2600.00,4600.00,M,-SN
FZY,2018-01-02 10:40,-76.3847,43.3497,M,M,M,300.00,3.00,30.32,M,M,2.50,M,2400.00,4600.00,M,-SN
FZY,2018-01-02 10:45,-76.3847,43.3497,M,M,M,0.00,0.00,30.32,M,M,2.50,M,2400.00,4400.00,M,-SN
FZY,2018-01-02 10:54,-76.3847,43.3497,8.10,3.00,79.23,300.00,3.00,30.32,1027.80,T,3.00,M,2600.00,4400.00,M,-SN
FZY,2018-01-02 10:55,-76.3847,43.3497,M,M,M,300.00,3.00,30.32,M,M,3.00,M,2600.00,4400.00,M,-SN
FZY,2018-01-02 11:00,-76.3847,43.3497,M,M,M,300.00,3.00,30.32,M,M,4.00,M,2400.00,4400.00,M,-SN
FZY,2018-01-02 11:05,-76.3847,43.3497,M,M,M,290.00,3.00,30.32,M,M,3.50,M,2400.00,4400.00,M,-SN
FZY,2018-01-02 11:10,-76.3847,43.3497,M,M,M,0.00,0.00,30.32,M,M,3.00,M,2200.00,4400.00,M,-SN BR
FZY,2018-01-02 11:15,-76.3847,43.3497,M,M,M,250.00,3.00,30.32,M,M,2.50,M,2200.00,4500.00,M,-SN BR
FZY,2018-01-02 11:20,-76.3847,43.3497,M,M,M,230.00,4.00,30.32,M,M,2.00,M,1900.00,2400.00,M,-SN BR
FZY,2018-01-02 11:21,-76.3847,43.3497,8.10,3.90,82.58,220.00,4.00,30.32,M,T,2.00,M,1900.00,2400.00,M,-SN BR
FZY,2018-01-02 11:29,-76.3847,43.3497,8.10,3.90,82.58,200.00,4.00,30.32,M,T,1.75,M,1700.00,M,M,-SN BR
FZY,2018-01-02 11:30,-76.3847,43.3497,M,M,M,190.00,4.00,30.32,M,M,1.75,M,1699.00,M,M,-SN BR
FZY,2018-01-02 11:35,-76.3847,43.3497,M,M,M,180.00,5.00,30.32,M,M,2.00,M,1699.00,M,M,-SN BR
FZY,2018-01-02 11:40,-76.3847,43.3497,7.00,3.00,83.27,190.00,5.00,30.32,M,T,2.00,M,1700.00,M,M,-SN BR
FZY,2018-01-02 11:45,-76.3847,43.3497,M,M,M,170.00,5.00,30.32,M,M,2.00,M,1699.00,M,M,-SN BR
FZY,2018-01-02 11:50,-76.3847,43.3497,M,M,M,170.00,5.00,30.32,M,M,2.00,M,1500.00,M,M,-SN BR
FZY,2018-01-02 11:54,-76.3847,43.3497,5.00,1.90,86.68,180.00,5.00,30.32,1027.90,T,2.50,M,1500.00,M,M,-SN BR
FZY,2018-01-02 11:55,-76.3847,43.3497,M,M,M,180.00,5.00,30.32,M,M,2.50,M,1500.00,M,M,-SN BR
FZY,2018-01-02 12:04,-76.3847,43.3497,6.10,1.90,82.43,180.00,6.00,30.32,M,T,3.00,M,1700.00,M,M,-SN BR
FZY,2018-01-02 12:05,-76.3847,43.3497,M,M,M,170.00,6.00,30.32,M,M,4.00,M,1699.00,M,M,-SN BR
FZY,2018-01-02 12:10,-76.3847,43.3497,M,M,M,160.00,4.00,30.32,M,M,4.00,M,1699.00,M,M,-SN BR
FZY,2018-01-02 12:20,-76.3847,43.3497,M,M,M,0.00,0.00,30.32,M,M,5.00,M,1699.00,M,M,-SN BR
FZY,2018-01-02 12:25,-76.3847,43.3497,M,M,M,0.00,0.00,30.32,M,M,5.00,M,1800.00,M,M,-SN BR
FZY,2018-01-02 12:30,-76.3847,43.3497,M,M,M,0.00,0.00,30.31,M,M,3.50,M,1800.00,3500.00,M,-SN BR
FZY,2018-01-02 12:40,-76.3847,43.3497,7.00,3.00,83.27,130.00,3.00,30.31,M,T,2.00,M,1900.00,3000.00,M,-SN BR
FZY,2018-01-02 12:45,-76.3847,43.3497,M,M,M,0.00,0.00,30.31,M,M,2.50,M,1900.00,3000.00,M,-SN BR
FZY,2018-01-02 12:47,-76.3847,43.3497,7.00,3.90,86.80,0.00,0.00,30.31,M,T,3.00,M,1900.00,2800.00,3500.00,-SN BR
FZY,2018-01-02 12:50,-76.3847,43.3497,M,M,M,0.00,0.00,30.31,M,M,4.00,M,1900.00,2800.00,3500.00,BR
FZY,2018-01-02 12:54,-76.3847,43.3497,6.10,3.00,86.74,0.00,0.00,30.31,1027.40,T,4.00,M,1900.00,2800.00,3500.00,-SN BR
FZY,2018-01-02 13:00,-76.3847,43.3497,M,M,M,0.00,0.00,30.31,M,M,2.00,M,2300.00,2900.00,M,-SN BR
FZY,2018-01-02 13:02,-76.3847,43.3497,6.10,3.00,86.74,0.00,0.00,30.31,M,T,1.75,M,2100.00,2900.00,M,-SN BR
FZY,2018-01-02 13:05,-76.3847,43.3497,M,M,M,0.00,0.00,30.31,M,M,1.50,M,2100.00,2900.00,M,-SN BR
FZY,2018-01-02 13:10,-76.3847,43.3497,M,M,M,0.00,0.00,30.31,M,M,1.75,M,1900.00,2900.00,M,-SN BR
FZY,2018-01-02 13:20,-76.3847,43.3497,M,M,M,150.00,3.00,30.30,M,M,1.50,M,1900.00,M,M,-SN BR
FZY,2018-01-02 13:25,-76.3847,43.3497,M,M,M,0.00,0.00,30.30,M,M,1.00,M,1900.00,M,M,-SN BR
FZY,2018-01-02 13:30,-76.3847,43.3497,M,M,M,0.00,0.00,30.30,M,M,1.00,M,1900.00,M,M,-SN BR
FZY,2018-01-02 13:31,-76.3847,43.3497,8.10,3.90,82.58,0.00,0.00,30.30,M,T,1.00,M,1900.00,M,M,-SN BR
FZY,2018-01-02 13:40,-76.3847,43.3497,M,M,M,0.00,0.00,30.29,M,M,0.75,M,1900.00,M,M,-SN BR
FZY,2018-01-02 13:45,-76.3847,43.3497,M,M,M,160.00,3.00,30.29,M,M,1.00,M,1900.00,M,M,-SN BR
FZY,2018-01-02 13:50,-76.3847,43.3497,M,M,M,140.00,3.00,30.29,M,M,0.75,M,1900.00,M,M,-SN BR
FZY,2018-01-02 13:54,-76.3847,43.3497,9.00,5.00,83.41,M,3.00,30.29,1026.60,T,0.75,M,1800.00,M,M,-SN BR
FZY,2018-01-02 13:55,-76.3847,43.3497,M,M,M,150.00,3.00,30.28,M,M,0.75,M,1800.00,M,M,-SN BR
FZY,2018-01-02 14:00,-76.3847,43.3497,M,M,M,140.00,3.00,30.28,M,M,0.75,M,1800.00,M,M,-SN BR
FZY,2018-01-02 14:05,-76.3847,43.3497,M,M,M,130.00,5.00,30.28,M,M,0.75,M,1999.00,M,M,-SN
FZY,2018-01-02 14:15,-76.3847,43.3497,M,M,M,140.00,4.00,30.28,M,M,1.00,M,1999.00,M,M,-SN BR
FZY,2018-01-02 14:18,-76.3847,43.3497,10.00,6.10,83.87,160.00,3.00,30.28,M,T,1.00,M,1900.00,M,M,-SN BR
FZY,2018-01-02 14:20,-76.3847,43.3497,M,M,M,130.00,3.00,30.28,M,M,0.75,M,1900.00,M,M,-SN BR
FZY,2018-01-02 14:25,-76.3847,43.3497,M,M,M,130.00,4.00,30.28,M,M,0.75,M,2100.00,M,M,-SN BR
FZY,2018-01-02 14:26,-76.3847,43.3497,10.00,6.10,83.87,M,4.00,30.28,M,T,0.75,M,2100.00,M,M,-SN BR
FZY,2018-01-02 14:35,-76.3847,43.3497,10.90,7.00,83.93,160.00,6.00,30.27,M,T,1.25,M,2300.00,M,M,-SN BR
FZY,2018-01-02 14:40,-76.3847,43.3497,M,M,M,150.00,6.00,30.27,M,M,1.50,M,2300.00,3600.00,M,-SN
FZY,2018-01-02 14:50,-76.3847,43.3497,M,M,M,180.00,9.00,30.26,M,M,1.75,M,2700.00,3600.00,4800.00,-SN
FZY,2018-01-02 14:54,-76.3847,43.3497,12.90,8.10,80.74,170.00,7.00,30.27,1025.90,T,1.50,M,2700.00,3600.00,4900.00,-SN
FZY,2018-01-02 14:55,-76.3847,43.3497,M,M,M,170.00,8.00,30.27,M,M,1.50,M,2700.00,3600.00,4900.00,-SN BR
FZY,2018-01-02 15:05,-76.3847,43.3497,M,M,M,180.00,7.00,30.26,M,M,1.75,M,2700.00,3600.00,5500.00,-SN
FZY,2018-01-02 15:07,-76.3847,43.3497,14.00,9.00,80.10,190.00,7.00,30.26,M,T,1.75,M,2700.00,3300.00,5000.00,-SN
FZY,2018-01-02 15:10,-76.3847,43.3497,M,M,M,200.00,8.00,30.26,M,M,2.00,M,2700.00,3500.00,5000.00,-SN BR
FZY,2018-01-02 15:14,-76.3847,43.3497,15.10,10.00,79.84,200.00,8.00,30.27,M,T,2.50,M,2700.00,3200.00,5000.00,-SN
FZY,2018-01-02 15:15,-76.3847,43.3497,M,M,M,200.00,8.00,30.26,M,M,2.50,M,2700.00,3399.00,5000.00,-SN
FZY,2018-01-02 15:25,-76.3847,43.3497,15.10,10.00,79.84,200.00,7.00,30.26,M,T,5.00,M,3100.00,5500.00,M,-SN
FZY,2018-01-02 15:30,-76.3847,43.3497,M,M,M,210.00,7.00,30.26,M,M,7.00,M,3300.00,5000.00,M,-SN
FZY,2018-01-02 15:35,-76.3847,43.3497,M,M,M,210.00,8.00,30.25,M,M,9.00,M,3500.00,4100.00,M,M
FZY,2018-01-02 15:45,-76.3847,43.3497,M,M,M,230.00,10.00,30.24,M,M,10.00,M,3900.00,M,M,M
FZY,2018-01-02 15:50,-76.3847,43.3497,M,M,M,240.00,11.00,30.24,M,M,10.00,M,4100.00,M,M,M
FZY,2018-01-02 15:54,-76.3847,43.3497,19.00,10.90,70.22,250.00,14.00,30.24,1025.10,T,10.00,M,4100.00,M,M,M
FZY,2018-01-02 15:55,-76.3847,43.3497,M,M,M,240.00,14.00,30.24,M,M,10.00,M,4100.00,M,M,M
FZY,2018-01-02 16:05,-76.3847,43.3497,M,M,M,250.00,11.00,30.24,M,M,10.00,M,4300.00,M,M,M
FZY,2018-01-02 16:10,-76.3847,43.3497,M,M,M,240.00,15.00,30.24,M,M,10.00,M,4300.00,M,M,M
FZY,2018-01-02 16:15,-76.3847,43.3497,M,M,M,240.00,13.00,30.24,M,M,10.00,M,4300.00,M,M,M
FZY,2018-01-02 16:25,-76.3847,43.3497,M,M,M,M,M,30.23,M,M,10.00,M,2400.00,M,M,M
FZY,2018-01-02 16:30,-76.3847,43.3497,M,M,M,230.00,12.00,30.23,M,M,10.00,M,2400.00,M,M,M
FZY,2018-01-02 16:35,-76.3847,43.3497,M,M,M,240.00,12.00,30.22,M,M,10.00,M,2400.00,M,M,M
FZY,2018-01-02 16:36,-76.3847,43.3497,19.90,12.00,70.95,230.00,10.00,30.22,M,0.00,10.00,22.00,2400.00,M,M,M
FZY,2018-01-02 16:45,-76.3847,43.3497,M,M,M,240.00,12.00,30.22,M,M,10.00,M,2500.00,M,M,M
FZY,2018-01-02 16:50,-76.3847,43.3497,M,M,M,M,M,30.22,M,M,10.00,M,2500.00,M,M,M
FZY,2018-01-02 16:52,-76.3847,43.3497,19.40,12.20,73.13,240.00,13.00,30.21,M,0.00,10.00,22.00,2500.00,M,M,M
FZY,2018-01-02 16:54,-76.3847,43.3497,19.90,12.00,70.95,220.00,12.00,30.21,1024.10,0.00,10.00,22.00,2500.00,M,M,M
FZY,2018-01-02 16:55,-76.3847,43.3497,M,M,M,220.00,12.00,30.21,M,M,10.00,17.00,2500.00,M,M,M
FZY,2018-01-02 17:05,-76.3847,43.3497,M,M,M,230.00,11.00,30.21,M,M,10.00,M,2400.00,M,M,M
FZY,2018-01-02 17:10,-76.3847,43.3497,M,M,M,M,M,30.21,M,M,10.00,M,2400.00,3000.00,M,M
FZY,2018-01-02 17:15,-76.3847,43.3497,M,M,M,230.00,13.00,30.20,M,M,10.00,19.00,2400.00,3200.00,M,M
FZY,2018-01-02 17:25,-76.3847,43.3497,M,M,M,240.00,14.00,30.20,M,M,10.00,M,2800.00,3399.00,M,M
FZY,2018-01-02 17:30,-76.3847,43.3497,M,M,M,M,M,30.20,M,M,9.00,M,3000.00,3800.00,M,M
FZY,2018-01-02 17:35,-76.3847,43.3497,M,M,M,230.00,13.00,30.20,M,M,7.00,M,3000.00,3800.00,M,M
FZY,2018-01-02 17:45,-76.3847,43.3497,M,M,M,240.00,15.00,30.20,M,M,10.00,M,3200.00,3800.00,M,M
FZY,2018-01-02 17:50,-76.3847,43.3497,M,M,M,240.00,18.00,30.19,M,M,10.00,M,3000.00,3800.00,M,M
FZY,2018-01-02 17:54,-76.3847,43.3497,19.90,10.90,67.57,230.00,17.00,30.19,1023.30,0.00,9.00,22.00,3000.00,3700.00,M,M
FZY,2018-01-02 17:55,-76.3847,43.3497,M,M,M,M,M,30.19,M,M,9.00,M,3200.00,M,M,M
FZY,2018-01-02 18:00,-76.3847,43.3497,M,M,M,240.00,15.00,30.19,M,M,9.00,M,3200.00,M,M,M
FZY,2018-01-02 18:05,-76.3847,43.3497,M,M,M,230.00,12.00,30.19,M,M,10.00,M,3200.00,M,M,M
FZY,2018-01-02 18:10,-76.3847,43.3497,M,M,M,M,M,30.18,M,M,9.00,M,3200.00,M,M,M
FZY,2018-01-02 18:15,-76.3847,43.3497,M,M,M,230.00,14.00,30.18,M,M,9.00,M,3200.00,M,M,M
FZY,2018-01-02 18:20,-76.3847,43.3497,M,M,M,250.00,16.00,30.18,M,M,9.00,M,3200.00,M,M,M
FZY,2018-01-02 18:25,-76.3847,43.3497,M,M,M,240.00,16.00,30.18,M,M,7.00,M,3200.00,M,M,M
FZY,2018-01-02 18:30,-76.3847,43.3497,M,M,M,M,M,30.17,M,M,6.00,M,3399.00,M,M,HZ
FZY,2018-01-02 18:35,-76.3847,43.3497,M,M,M,M,M,30.17,M,T,4.00,M,3200.00,M,M,UP
FZY,2018-01-02 18:40,-76.3847,43.3497,M,M,M,240.00,14.00,30.17,M,T,3.50,19.00,3200.00,M,M,UP
FZY,2018-01-02 18:45,-76.3847,43.3497,M,M,M,240.00,14.00,30.17,M,M,7.00,M,3399.00,M,M,M
FZY,2018-01-02 18:50,-76.3847,43.3497,M,M,M,250.00,19.00,30.17,M,M,8.00,M,3399.00,M,M,M
FZY,2018-01-02 18:54,-76.3847,43.3497,21.00,10.90,64.48,240.00,17.00,30.17,1022.40,T,5.00,28.00,3400.00,M,M,HZ
FZY,2018-01-02 18:55,-76.3847,43.3497,M,M,M,230.00,15.00,30.17,M,M,4.00,M,3399.00,M,M,HZ
FZY,2018-01-02 19:05,-76.3847,43.3497,M,M,M,250.00,17.00,30.17,M,M,5.00,M,3200.00,M,M,HZ
FZY,2018-01-02 19:10,-76.3847,43.3497,M,M,M,250.00,17.00,30.17,M,M,5.00,M,3200.00,M,M,HZ
FZY,2018-01-02 19:20,-76.3847,43.3497,M,M,M,260.00,18.00,30.16,M,M,7.00,M,3200.00,M,M,M
FZY,2018-01-02 19:25,-76.3847,43.3497,M,M,M,240.00,15.00,30.16,M,M,7.00,M,3200.00,M,M,M
FZY,2018-01-02 19:30,-76.3847,43.3497,M,M,M,250.00,15.00,30.16,M,M,9.00,M,3200.00,M,M,M
FZY,2018-01-02 19:35,-76.3847,43.3497,M,M,M,240.00,12.00,30.17,M,M,9.00,M,3200.00,M,M,M
FZY,2018-01-02 19:40,-76.3847,43.3497,M,M,M,M,M,30.16,M,M,9.00,M,3200.00,M,M,M
FZY,2018-01-02 19:45,-76.3847,43.3497,M,M,M,M,M,30.16,M,M,7.00,M,3200.00,M,M,M
FZY,2018-01-02 19:54,-76.3847,43.3497,21.00,10.90,64.48,240.00,15.00,30.17,1022.50,T,7.00,M,3200.00,M,M,M
FZY,2018-01-02 19:55,-76.3847,43.3497,M,M,M,240.00,15.00,30.17,M,M,8.00,M,3300.00,M,M,M
FZY,2018-01-02 20:00,-76.3847,43.3497,M,M,M,M,M,30.17,M,M,5.00,M,3300.00,M,M,HZ
FZY,2018-01-02 20:10,-76.3847,43.3497,M,M,M,M,M,30.17,M,M,4.00,M,3300.00,M,M,HZ
FZY,2018-01-02 20:15,-76.3847,43.3497,M,M,M,M,M,30.17,M,M,5.00,M,3500.00,M,M,HZ
FZY,2018-01-02 20:20,-76.3847,43.3497,M,M,M,240.00,14.00,30.17,M,T,3.50,M,3500.00,M,M,UP
FZY,2018-01-02 20:30,-76.3847,43.3497,M,M,M,M,M,30.17,M,M,3.00,M,3500.00,M,M,HZ
FZY,2018-01-02 20:35,-76.3847,43.3497,M,M,M,M,M,30.17,M,M,2.50,M,3500.00,4200.00,M,HZ
FZY,2018-01-02 20:40,-76.3847,43.3497,M,M,M,M,M,30.17,M,M,4.00,M,3500.00,M,M,HZ
FZY,2018-01-02 20:50,-76.3847,43.3497,M,M,M,M,M,30.17,M,M,5.00,M,3500.00,4400.00,M,HZ
FZY,2018-01-02 20:54,-76.3847,43.3497,19.90,10.90,67.57,230.00,18.00,30.17,1022.80,T,4.00,26.00,3300.00,4200.00,5500.00,HZ
FZY,2018-01-02 20:55,-76.3847,43.3497,M,M,M,M,M,30.17,M,M,3.50,M,3300.00,4200.00,5500.00,HZ
FZY,2018-01-02 21:00,-76.3847,43.3497,M,M,M,M,M,30.17,M,M,4.00,23.00,3500.00,4200.00,5000.00,HZ
FZY,2018-01-02 21:05,-76.3847,43.3497,M,M,M,M,M,30.17,M,M,4.00,M,3500.00,4600.00,5500.00,HZ
FZY,2018-01-02 21:10,-76.3847,43.3497,M,M,M,M,M,30.18,M,M,4.00,M,3500.00,4900.00,M,HZ
FZY,2018-01-02 21:15,-76.3847,43.3497,M,M,M,M,M,30.18,M,M,4.00,M,3500.00,4900.00,M,HZ
FZY,2018-01-02 21:20,-76.3847,43.3497,M,M,M,M,M,30.18,M,M,3.00,M,3700.00,5000.00,M,HZ
FZY,2018-01-02 21:25,-76.3847,43.3497,M,M,M,M,M,30.18,M,M,5.00,M,3900.00,5000.00,M,HZ
FZY,2018-01-02 21:30,-76.3847,43.3497,M,M,M,230.00,14.00,30.18,M,M,8.00,M,3900.00,5000.00,M,M
FZY,2018-01-02 21:40,-76.3847,43.3497,M,M,M,230.00,16.00,30.18,M,M,6.00,M,3900.00,M,M,HZ
FZY,2018-01-02 21:45,-76.3847,43.3497,M,M,M,250.00,18.00,30.18,M,M,5.00,M,3900.00,M,M,HZ
FZY,2018-01-02 21:50,-76.3847,43.3497,M,M,M,230.00,15.00,30.18,M,M,6.00,M,3700.00,M,M,HZ
FZY,2018-01-02 21:54,-76.3847,43.3497,19.00,10.00,67.46,240.00,17.00,30.19,1023.10,0.00,7.00,22.00,3700.00,M,M,M
FZY,2018-01-02 22:00,-76.3847,43.3497,M,M,M,230.00,15.00,30.19,M,M,9.00,M,3900.00,M,M,M
FZY,2018-01-02 22:05,-76.3847,43.3497,M,M,M,230.00,13.00,30.19,M,M,9.00,M,3900.00,M,M,M
FZY,2018-01-02 22:10,-76.3847,43.3497,M,M,M,230.00,16.00,30.19,M,M,9.00,M,3900.00,M,M,M
FZY,2018-01-02 22:20,-76.3847,43.3497,M,M,M,240.00,16.00,30.19,M,M,6.00,M,3900.00,M,M,HZ
FZY,2018-01-02 22:25,-76.3847,43.3497,M,M,M,230.00,14.00,30.19,M,M,9.00,M,3700.00,M,M,M
FZY,2018-01-02 22:30,-76.3847,43.3497,M,M,M,230.00,14.00,30.19,M,M,10.00,M,3700.00,M,M,M
FZY,2018-01-02 22:40,-76.3847,43.3497,M,M,M,240.00,15.00,30.19,M,M,5.00,M,3800.00,M,M,HZ
FZY,2018-01-02 22:45,-76.3847,43.3497,M,M,M,250.00,15.00,30.19,M,M,6.00,M,3700.00,M,M,HZ
FZY,2018-01-02 22:50,-76.3847,43.3497,M,M,M,240.00,15.00,30.20,M,M,10.00,M,3700.00,M,M,M
FZY,2018-01-02 22:54,-76.3847,43.3497,18.00,8.10,64.66,240.00,15.00,30.20,1023.60,0.00,10.00,22.00,3700.00,M,M,M
FZY,2018-01-02 23:00,-76.3847,43.3497,M,M,M,M,M,30.20,M,M,10.00,M,3700.00,M,M,M
FZY,2018-01-02 23:05,-76.3847,43.3497,M,M,M,250.00,15.00,30.20,M,M,9.00,M,3700.00,M,M,M
FZY,2018-01-02 23:10,-76.3847,43.3497,M,M,M,M,M,30.20,M,M,9.00,M,3700.00,M,M,M
FZY,2018-01-02 23:15,-76.3847,43.3497,M,M,M,240.00,15.00,30.21,M,M,8.00,M,3800.00,M,M,M
FZY,2018-01-02 23:20,-76.3847,43.3497,M,M,M,230.00,15.00,30.21,M,M,9.00,20.00,3800.00,M,M,M
FZY,2018-01-02 23:25,-76.3847,43.3497,M,M,M,M,M,30.21,M,M,10.00,M,3800.00,M,M,M
FZY,2018-01-02 23:35,-76.3847,43.3497,M,M,M,230.00,13.00,30.21,M,M,8.00,19.00,3999.00,M,M,M
FZY,2018-01-02 23:40,-76.3847,43.3497,M,M,M,230.00,14.00,30.21,M,M,9.00,M,3999.00,M,M,M
FZY,2018-01-02 23:45,-76.3847,43.3497,M,M,M,240.00,15.00,30.21,M,M,10.00,M,3999.00,M,M,M
FZY,2018-01-02 23:54,-76.3847,43.3497,17.10,6.10,61.39,230.00,15.00,30.21,1023.90,0.00,10.00,M,4200.00,M,M,M
FZY,2018-01-02 23:55,-76.3847,43.3497,M,M,M,M,M,30.20,M,M,10.00,M,4200.00,M,M,M
FZY,2018-01-03 00:00,-76.3847,43.3497,M,M,M,230.00,13.00,30.20,M,M,10.00,M,4200.00,M,M,M
FZY,2018-01-03 00:05,-76.3847,43.3497,M,M,M,230.00,12.00,30.20,M,M,10.00,M,3500.00,4200.00,M,M
FZY,2018-01-03 00:15,-76.3847,43.3497,M,M,M,230.00,13.00,30.20,M,M,10.00,M,4200.00,M,M,M
FZY,2018-01-03 00:20,-76.3847,43.3497,M,M,M,230.00,12.00,30.20,M,M,10.00,M,4200.00,M,M,M
FZY,2018-01-03 00:25,-76.3847,43.3497,M,M,M,230.00,13.00,30.20,M,M,10.00,M,4200.00,M,M,M
FZY,2018-01-03 00:35,-76.3847,43.3497,M,M,M,230.00,14.00,30.20,M,M,10.00,M,4200.00,M,M,M
FZY,2018-01-03 00:40,-76.3847,43.3497,M,M,M,230.00,12.00,30.20,M,M,10.00,M,4200.00,M,M,M
FZY,2018-01-03 00:45,-76.3847,43.3497,M,M,M,M,M,30.19,M,M,10.00,M,4100.00,M,M,M
FZY,2018-01-03 00:50,-76.3847,43.3497,M,M,M,230.00,14.00,30.19,M,M,10.00,M,4100.00,M,M,M
FZY,2018-01-03 00:54,-76.3847,43.3497,17.10,6.10,61.39,230.00,12.00,30.19,1023.40,0.00,10.00,M,4100.00,M,M,M
FZY,2018-01-03 00:55,-76.3847,43.3497,M,M,M,230.00,12.00,30.19,M,M,10.00,M,4100.00,M,M,M
FZY,2018-01-03 01:00,-76.3847,43.3497,M,M,M,230.00,12.00,30.19,M,M,10.00,M,4300.00,M,M,M
FZY,2018-01-03 01:10,-76.3847,43.3497,M,M,M,220.00,13.00,30.18,M,M,10.00,M,4300.00,M,M,M
FZY,2018-01-03 01:15,-76.3847,43.3497,M,M,M,220.00,12.00,30.18,M,M,10.00,M,4300.00,M,M,M
FZY,2018-01-03 01:20,-76.3847,43.3497,M,M,M,220.00,13.00,30.18,M,M,10.00,M,4300.00,M,M,M
FZY,2018-01-03 01:25,-76.3847,43.3497,M,M,M,220.00,12.00,30.18,M,M,10.00,M,4400.00,M,M,M
FZY,2018-01-03 01:30,-76.3847,43.3497,M,M,M,230.00,13.00,30.18,M,M,10.00,M,4200.00,M,M,M
FZY,2018-01-03 01:35,-76.3847,43.3497,M,M,M,230.00,13.00,30.18,M,M,10.00,M,4200.00,M,M,M
FZY,2018-01-03 01:45,-76.3847,43.3497,M,M,M,230.00,14.00,30.18,M,M,10.00,M,4200.00,M,M,M
FZY,2018-01-03 01:50,-76.3847,43.3497,M,M,M,220.00,14.00,30.18,M,M,10.00,M,4200.00,M,M,M
FZY,2018-01-03 01:54,-76.3847,43.3497,16.00,5.00,61.23,220.00,12.00,30.18,1022.90,0.00,10.00,M,4200.00,M,M,M
FZY,2018-01-03 01:55,-76.3847,43.3497,M,M,M,230.00,12.00,30.17,M,M,10.00,M,4200.00,M,M,M
FZY,2018-01-03 02:05,-76.3847,43.3497,M,M,M,230.00,13.00,30.17,M,M,10.00,19.00,4400.00,M,M,M
FZY,2018-01-03 02:10,-76.3847,43.3497,M,M,M,210.00,12.00,30.17,M,M,10.00,M,4400.00,M,M,M
FZY,2018-01-03 02:15,-76.3847,43.3497,M,M,M,220.00,12.00,30.17,M,M,10.00,M,4400.00,M,M,M
FZY,2018-01-03 02:25,-76.3847,43.3497,M,M,M,M,M,30.17,M,M,10.00,M,4200.00,M,M,M
FZY,2018-01-03 02:30,-76.3847,43.3497,M,M,M,230.00,14.00,30.17,M,M,10.00,19.00,4200.00,M,M,M
FZY,2018-01-03 02:35,-76.3847,43.3497,M,M,M,240.00,16.00,30.17,M,M,10.00,M,3999.00,M,M,M
FZY,2018-01-03 02:45,-76.3847,43.3497,M,M,M,230.00,14.00,30.17,M,M,10.00,M,3999.00,M,M,M
FZY,2018-01-03 02:50,-76.3847,43.3497,M,M,M,M,M,30.16,M,M,10.00,M,3900.00,M,M,M
FZY,2018-01-03 02:54,-76.3847,43.3497,16.00,6.10,64.39,220.00,12.00,30.16,1022.30,0.00,10.00,20.00,3900.00,M,M,M
FZY,2018-01-03 02:55,-76.3847,43.3497,M,M,M,220.00,14.00,30.16,M,M,10.00,20.00,3900.00,M,M,M
FZY,2018-01-03 03:05,-76.3847,43.3497,M,M,M,230.00,13.00,30.17,M,M,10.00,M,3900.00,M,M,M
FZY,2018-01-03 03:10,-76.3847,43.3497,M,M,M,220.00,14.00,30.17,M,M,10.00,M,3700.00,M,M,M
FZY,2018-01-03 03:15,-76.3847,43.3497,M,M,M,230.00,13.00,30.17,M,M,10.00,M,3700.00,M,M,M
FZY,2018-01-03 03:20,-76.3847,43.3497,M,M,M,230.00,13.00,30.17,M,M,10.00,M,3500.00,M,M,M
FZY,2018-01-03 03:25,-76.3847,43.3497,M,M,M,230.00,13.00,30.17,M,M,10.00,18.00,3200.00,M,M,M
FZY,2018-01-03 03:30,-76.3847,43.3497,M,M,M,220.00,13.00,30.17,M,M,10.00,M,3200.00,M,M,M
FZY,2018-01-03 03:40,-76.3847,43.3497,M,M,M,220.00,11.00,30.18,M,M,10.00,M,3200.00,M,M,M
FZY,2018-01-03 03:45,-76.3847,43.3497,M,M,M,220.00,12.00,30.18,M,M,10.00,M,3200.00,M,M,M
FZY,2018-01-03 03:50,-76.3847,43.3497,M,M,M,220.00,14.00,30.18,M,M,10.00,M,3200.00,M,M,M
FZY,2018-01-03 03:54,-76.3847,43.3497,16.00,5.00,61.23,220.00,11.00,30.18,1022.80,0.00,10.00,M,3200.00,M,M,M
FZY,2018-01-03 04:00,-76.3847,43.3497,M,M,M,230.00,13.00,30.18,M,M,10.00,M,3200.00,M,M,M
FZY,2018-01-03 04:05,-76.3847,43.3497,M,M,M,230.00,13.00,30.18,M,M,10.00,M,3399.00,M,M,M
FZY,2018-01-03 04:10,-76.3847,43.3497,M,M,M,220.00,12.00,30.18,M,M,10.00,M,3399.00,M,M,M
FZY,2018-01-03 04:20,-76.3847,43.3497,M,M,M,220.00,12.00,30.18,M,M,10.00,M,3399.00,M,M,M
FZY,2018-01-03 04:25,-76.3847,43.3497,M,M,M,M,M,30.19,M,M,10.00,M,3399.00,M,M,M
FZY,2018-01-03 04:30,-76.3847,43.3497,M,M,M,220.00,12.00,30.19,M,M,10.00,M,3500.00,M,M,M
FZY,2018-01-03 04:40,-76.3847,43.3497,M,M,M,220.00,11.00,30.19,M,M,10.00,M,2800.00,3700.00,M,M
FZY,2018-01-03 04:45,-76.3847,43.3497,M,M,M,220.00,10.00,30.19,M,M,10.00,M,2800.00,3700.00,M,M
FZY,2018-01-03 04:50,-76.3847,43.3497,M,M,M,220.00,7.00,30.19,M,M,10.00,M,2800.00,3500.00,M,M
FZY,2018-01-03 04:54,-76.3847,43.3497,16.00,6.10,64.39,220.00,7.00,30.19,1023.20,0.00,10.00,M,2800.00,3500.00,M,M
FZY,2018-01-03 04:55,-76.3847,43.3497,M,M,M,220.00,8.00,30.19,M,M,10.00,M,2800.00,3500.00,M,M
FZY,2018-01-03 05:00,-76.3847,43.3497,M,M,M,210.00,9.00,30.19,M,M,10.00,M,2800.00,3500.00,M,M
FZY,2018-01-03 05:05,-76.3847,43.3497,M,M,M,220.00,8.00,30.19,M,M,10.00,M,3300.00,M,M,M
FZY,2018-01-03 05:10,-76.3847,43.3497,M,M,M,210.00,6.00,30.18,M,M,10.00,M,3300.00,M,M,M
FZY,2018-01-03 05:15,-76.3847,43.3497,M,M,M,220.00,8.00,30.18,M,M,10.00,M,3300.00,M,M,M
FZY,2018-01-03 05:20,-76.3847,43.3497,M,M,M,210.00,8.00,30.18,M,M,10.00,M,3399.00,M,M,M
FZY,2018-01-03 05:25,-76.3847,43.3497,M,M,M,210.00,7.00,30.18,M,M,10.00,M,3399.00,M,M,M
FZY,2018-01-03 05:35,-76.3847,43.3497,M,M,M,210.00,8.00,30.18,M,M,10.00,M,3200.00,M,M,M
FZY,2018-01-03 05:45,-76.3847,43.3497,M,M,M,210.00,9.00,30.18,M,M,10.00,M,3200.00,M,M,M
FZY,2018-01-03 05:50,-76.3847,43.3497,M,M,M,210.00,7.00,30.18,M,M,10.00,M,3200.00,M,M,M
FZY,2018-01-03 05:54,-76.3847,43.3497,16.00,5.00,61.23,220.00,11.00,30.18,1022.80,0.00,10.00,18.00,3200.00,M,M,M
FZY,2018-01-03 05:55,-76.3847,43.3497,M,M,M,220.00,12.00,30.18,M,M,10.00,M,3200.00,M,M,M
FZY,2018-01-03 06:05,-76.3847,43.3497,M,M,M,200.00,8.00,30.18,M,M,10.00,M,3100.00,M,M,M
FZY,2018-01-03 06:10,-76.3847,43.3497,M,M,M,210.00,12.00,30.18,M,M,10.00,M,3100.00,M,M,M
FZY,2018-01-03 06:15,-76.3847,43.3497,M,M,M,220.00,11.00,30.17,M,M,10.00,M,3000.00,M,M,M
FZY,2018-01-03 06:25,-76.3847,43.3497,M,M,M,220.00,8.00,30.17,M,M,10.00,M,3000.00,M,M,M
FZY,2018-01-03 06:30,-76.3847,43.3497,M,M,M,220.00,12.00,30.18,M,M,10.00,M,3000.00,M,M,M
FZY,2018-01-03 06:35,-76.3847,43.3497,M,M,M,220.00,11.00,30.17,M,M,10.00,M,3000.00,M,M,M
FZY,2018-01-03 06:45,-76.3847,43.3497,M,M,M,210.00,8.00,30.17,M,M,10.00,M,3000.00,M,M,M
FZY,2018-01-03 06:50,-76.3847,43.3497,M,M,M,230.00,7.00,30.17,M,M,10.00,M,3000.00,M,M,M
FZY,2018-01-03 06:54,-76.3847,43.3497,16.00,3.90,58.22,230.00,8.00,30.17,1022.50,0.00,10.00,M,3000.00,M,M,M
FZY,2018-01-03 07:00,-76.3847,43.3497,M,M,M,230.00,10.00,30.17,M,M,10.00,M,2800.00,M,M,M
FZY,2018-01-03 07:01,-76.3847,43.3497,16.00,3.90,58.22,230.00,10.00,30.17,M,0.00,10.00,M,2800.00,M,M,M
FZY,2018-01-03 07:05,-76.3847,43.3497,M,M,M,220.00,9.00,30.18,M,M,10.00,M,2800.00,M,M,M
FZY,2018-01-03 07:10,-76.3847,43.3497,M,M,M,230.00,9.00,30.18,M,M,10.00,M,2600.00,M,M,M
FZY,2018-01-03 07:15,-76.3847,43.3497,M,M,M,210.00,8.00,30.18,M,M,10.00,M,2600.00,M,M,M
FZY,2018-01-03 07:20,-76.3847,43.3497,M,M,M,220.00,7.00,30.18,M,M,10.00,M,2600.00,M,M,M
FZY,2018-01-03 07:25,-76.3847,43.3497,M,M,M,220.00,7.00,30.18,M,M,10.00,M,2600.00,M,M,M
FZY,2018-01-03 07:35,-76.3847,43.3497,M,M,M,220.00,11.00,30.19,M,M,10.00,M,2600.00,M,M,M
FZY,2018-01-03 07:40,-76.3847,43.3497,M,M,M,220.00,9.00,30.18,M,M,10.00,M,2600.00,M,M,M
FZY,2018-01-03 07:45,-76.3847,43.3497,M,M,M,220.00,13.00,30.18,M,M,10.00,M,2600.00,M,M,M
FZY,2018-01-03 07:54,-76.3847,43.3497,16.00,3.00,55.85,230.00,14.00,30.19,1023.10,0.00,10.00,19.00,2600.00,M,M,M
FZY,2018-01-03 07:55,-76.3847,43.3497,M,M,M,M,M,30.19,M,M,10.00,M,2600.00,M,M,M
FZY,2018-01-03 08:00,-76.3847,43.3497,M,M,M,230.00,12.00,30.19,M,M,10.00,M,2600.00,M,M,M
FZY,2018-01-03 08:05,-76.3847,43.3497,M,M,M,220.00,10.00,30.19,M,M,10.00,M,2600.00,M,M,M
FZY,2018-01-03 08:10,-76.3847,43.3497,M,M,M,220.00,11.00,30.19,M,M,10.00,M,2600.00,M,M,M
FZY,2018-01-03 08:15,-76.3847,43.3497,M,M,M,230.00,11.00,30.19,M,M,10.00,M,2600.00,M,M,M
FZY,2018-01-03 08:20,-76.3847,43.3497,M,M,M,210.00,9.00,30.19,M,M,10.00,M,2600.00,M,M,M
FZY,2018-01-03 08:30,-76.3847,43.3497,M,M,M,210.00,8.00,30.19,M,M,10.00,M,2700.00,M,M,M
FZY,2018-01-03 08:35,-76.3847,43.3497,M,M,M,200.00,8.00,30.19,M,M,10.00,M,2700.00,M,M,M
FZY,2018-01-03 08:40,-76.3847,43.3497,M,M,M,200.00,10.00,30.19,M,M,10.00,M,2700.00,M,M,M
FZY,2018-01-03 08:45,-76.3847,43.3497,M,M,M,200.00,11.00,30.19,M,M,10.00,M,2700.00,M,M,M
FZY,2018-01-03 08:50,-76.3847,43.3497,M,M,M,200.00,10.00,30.19,M,M,10.00,M,2700.00,M,M,M
FZY,2018-01-03 08:54,-76.3847,43.3497,16.00,3.00,55.85,200.00,8.00,30.19,1023.10,0.00,10.00,M,2700.00,M,M,M
FZY,2018-01-03 08:55,-76.3847,43.3497,M,M,M,190.00,8.00,30.19,M,M,10.00,M,2700.00,M,M,M
FZY,2018-01-03 09:05,-76.3847,43.3497,M,M,M,200.00,7.00,30.18,M,M,10.00,M,2700.00,M,M,M
FZY,2018-01-03 09:10,-76.3847,43.3497,M,M,M,200.00,8.00,30.19,M,M,10.00,M,2700.00,M,M,M
FZY,2018-01-03 09:15,-76.3847,43.3497,M,M,M,200.00,8.00,30.18,M,M,10.00,M,2700.00,M,M,M
FZY,2018-01-03 09:25,-76.3847,43.3497,M,M,M,200.00,6.00,30.18,M,M,10.00,M,2700.00,M,M,M
FZY,2018-01-03 09:30,-76.3847,43.3497,M,M,M,200.00,7.00,30.18,M,M,10.00,M,2700.00,M,M,M
FZY,2018-01-03 09:35,-76.3847,43.3497,M,M,M,200.00,9.00,30.18,M,M,10.00,M,2700.00,M,M,M
FZY,2018-01-03 09:45,-76.3847,43.3497,M,M,M,170.00,9.00,30.18,M,M,10.00,M,2700.00,M,M,M
FZY,2018-01-03 09:50,-76.3847,43.3497,M,M,M,180.00,9.00,30.18,M,M,10.00,M,2700.00,M,M,M
FZY,2018-01-03 09:54,-76.3847,43.3497,12.90,1.00,58.29,170.00,10.00,30.18,1023.00,0.00,10.00,M,2700.00,M,M,M
FZY,2018-01-03 09:55,-76.3847,43.3497,M,M,M,170.00,11.00,30.18,M,M,10.00,M,2500.00,M,M,M
FZY,2018-01-03 10:05,-76.3847,43.3497,M,M,M,180.00,10.00,30.18,M,M,10.00,M,2500.00,M,M,M
FZY,2018-01-03 10:10,-76.3847,43.3497,M,M,M,170.00,10.00,30.18,M,M,10.00,M,2500.00,M,M,M
FZY,2018-01-03 10:15,-76.3847,43.3497,M,M,M,180.00,10.00,30.18,M,M,10.00,M,2600.00,M,M,M
FZY,2018-01-03 10:25,-76.3847,43.3497,M,M,M,170.00,10.00,30.17,M,M,10.00,M,2600.00,M,M,M
FZY,2018-01-03 10:30,-76.3847,43.3497,M,M,M,180.00,10.00,30.17,M,M,10.00,M,2600.00,M,M,M
FZY,2018-01-03 10:35,-76.3847,43.3497,M,M,M,180.00,10.00,30.18,M,M,10.00,M,2600.00,M,M,M
FZY,2018-01-03 10:45,-76.3847,43.3497,M,M,M,180.00,9.00,30.17,M,M,10.00,M,2600.00,M,M,M
FZY,2018-01-03 10:50,-76.3847,43.3497,M,M,M,180.00,10.00,30.18,M,M,10.00,M,2600.00,M,M,M
FZY,2018-01-03 10:54,-76.3847,43.3497,10.90,-0.90,58.26,180.00,10.00,30.18,1022.80,0.00,10.00,M,2600.00,M,M,M
FZY,2018-01-03 10:55,-76.3847,43.3497,M,M,M,180.00,9.00,30.18,M,M,10.00,M,2600.00,M,M,M
FZY,2018-01-03 11:05,-76.3847,43.3497,M,M,M,180.00,9.00,30.18,M,M,10.00,M,M,M,M,M
FZY,2018-01-03 11:10,-76.3847,43.3497,M,M,M,180.00,8.00,30.18,M,M,10.00,M,M,M,M,M
FZY,2018-01-03 11:15,-76.3847,43.3497,M,M,M,180.00,7.00,30.18,M,M,10.00,M,M,M,M,M
FZY,2018-01-03 11:25,-76.3847,43.3497,M,M,M,180.00,7.00,30.18,M,M,10.00,M,M,M,M,M
FZY,2018-01-03 11:30,-76.3847,43.3497,M,M,M,180.00,6.00,30.18,M,M,10.00,M,M,M,M,M
FZY,2018-01-03 11:35,-76.3847,43.3497,M,M,M,180.00,7.00,30.18,M,M,10.00,M,M,M,M,M
FZY,2018-01-03 11:45,-76.3847,43.3497,M,M,M,170.00,5.00,30.19,M,M,10.00,M,M,M,M,M
FZY,2018-01-03 11:50,-76.3847,43.3497,M,M,M,160.00,3.00,30.18,M,M,10.00,M,M,M,M,M
FZY,2018-01-03 11:54,-76.3847,43.3497,5.00,-2.90,69.16,0.00,0.00,30.18,1023.10,0.00,10.00,M,M,M,M,M
FZY,2018-01-03 11:55,-76.3847,43.3497,M,M,M,160.00,3.00,30.18,M,M,10.00,M,M,M,M,M
FZY,2018-01-03 12:00,-76.3847,43.3497,M,M,M,160.00,3.00,30.18,M,M,10.00,M,M,M,M,M
FZY,2018-01-03 12:05,-76.3847,43.3497,M,M,M,0.00,0.00,30.18,M,M,10.00,M,M,M,M,M
FZY,2018-01-03 12:15,-76.3847,43.3497,M,M,M,140.00,3.00,30.18,M,M,10.00,M,M,M,M,M
FZY,2018-01-03 12:20,-76.3847,43.3497,M,M,M,0.00,0.00,30.18,M,M,10.00,M,M,M,M,M
FZY,2018-01-03 12:25,-76.3847,43.3497,M,M,M,0.00,0.00,30.18,M,M,10.00,M,M,M,M,M
FZY,2018-01-03 12:30,-76.3847,43.3497,M,M,M,0.00,0.00,30.17,M,M,10.00,M,M,M,M,M
FZY,2018-01-03 12:35,-76.3847,43.3497,M,M,M,0.00,0.00,30.17,M,M,10.00,M,M,M,M,M
FZY,2018-01-03 12:40,-76.3847,43.3497,M,M,M,0.00,0.00,30.17,M,M,10.00,M,M,M,M,M
FZY,2018-01-03 12:50,-76.3847,43.3497,M,M,M,0.00,0.00,30.17,M,M,10.00,M,M,M,M,M
FZY,2018-01-03 12:54,-76.3847,43.3497,3.00,-2.90,75.82,0.00,0.00,30.17,1022.80,0.00,10.00,M,M,M,M,M
FZY,2018-01-03 12:55,-76.3847,43.3497,M,M,M,0.00,0.00,30.17,M,M,10.00,M,M,M,M,M
FZY,2018-01-03 13:05,-76.3847,43.3497,M,M,M,0.00,0.00,30.18,M,M,10.00,M,M,M,M,M
FZY,2018-01-03 13:10,-76.3847,43.3497,M,M,M,140.00,3.00,30.18,M,M,10.00,M,M,M,M,M
FZY,2018-01-03 13:15,-76.3847,43.3497,M,M,M,130.00,3.00,30.18,M,M,10.00,M,M,M,M,M
FZY,2018-01-03 13:25,-76.3847,43.3497,M,M,M,0.00,0.00,30.18,M,M,10.00,M,M,M,M,M
FZY,2018-01-03 13:30,-76.3847,43.3497,M,M,M,140.00,3.00,30.18,M,M,10.00,M,M,M,M,M
FZY,2018-01-03 13:35,-76.3847,43.3497,M,M,M,140.00,4.00,30.18,M,M,10.00,M,M,M,M,M
FZY,2018-01-03 13:40,-76.3847,43.3497,M,M,M,140.00,4.00,30.18,M,M,10.00,M,M,M,M,M
FZY,2018-01-03 13:45,-76.3847,43.3497,M,M,M,160.00,4.00,30.18,M,M,10.00,M,M,M,M,M
FZY,2018-01-03 13:50,-76.3847,43.3497,M,M,M,150.00,3.00,30.19,M,M,10.00,M,M,M,M,M
FZY,2018-01-03 13:54,-76.3847,43.3497,8.10,-2.00,62.70,150.00,4.00,30.19,1023.30,0.00,10.00,M,M,M,M,M
FZY,2018-01-03 13:55,-76.3847,43.3497,M,M,M,160.00,4.00,30.19,M,M,10.00,M,M,M,M,M
FZY,2018-01-03 14:00,-76.3847,43.3497,M,M,M,160.00,5.00,30.19,M,M,10.00,M,M,M,M,M
FZY,2018-01-03 14:05,-76.3847,43.3497,M,M,M,170.00,8.00,30.19,M,M,10.00,M,M,M,M,M
FZY,2018-01-03 14:15,-76.3847,43.3497,M,M,M,170.00,5.00,30.19,M,M,10.00,M,M,M,M,M
FZY,2018-01-03 14:20,-76.3847,43.3497,M,M,M,160.00,7.00,30.18,M,M,10.00,M,M,M,M,M
FZY,2018-01-03 14:25,-76.3847,43.3497,M,M,M,170.00,8.00,30.18,M,M,10.00,M,M,M,M,M
FZY,2018-01-03 14:35,-76.3847,43.3497,M,M,M,170.00,9.00,30.18,M,M,10.00,M,M,M,M,M
FZY,2018-01-03 14:40,-76.3847,43.3497,M,M,M,170.00,10.00,30.18,M,M,10.00,M,M,M,M,M
FZY,2018-01-03 14:45,-76.3847,43.3497,M,M,M,170.00,11.00,30.17,M,M,10.00,M,M,M,M,M
FZY,2018-01-03 14:54,-76.3847,43.3497,12.00,-0.90,55.48,170.00,9.00,30.17,1022.60,0.00,10.00,M,M,M,M,M
FZY,2018-01-03 14:55,-76.3847,43.3497,M,M,M,170.00,10.00,30.17,M,M,10.00,M,M,M,M,M
FZY,2018-01-03 15:00,-76.3847,43.3497,M,M,M,180.00,8.00,30.18,M,M,10.00,M,M,M,M,M
FZY,2018-01-03 15:05,-76.3847,43.3497,M,M,M,190.00,8.00,30.18,M,M,10.00,M,7000.00,M,M,M
FZY,2018-01-03 15:15,-76.3847,43.3497,M,M,M,180.00,7.00,30.18,M,M,10.00,M,7000.00,M,M,M
FZY,2018-01-03 15:20,-76.3847,43.3497,M,M,M,180.00,9.00,30.18,M,M,10.00,M,7000.00,M,M,M
FZY,2018-01-03 15:25,-76.3847,43.3497,M,M,M,180.00,9.00,30.17,M,M,10.00,M,7000.00,M,M,M
FZY,2018-01-03 15:30,-76.3847,43.3497,M,M,M,170.00,9.00,30.18,M,M,10.00,M,7000.00,M,M,M
FZY,2018-01-03 15:35,-76.3847,43.3497,M,M,M,170.00,11.00,30.17,M,M,10.00,M,7000.00,M,M,M
FZY,2018-01-03 15:40,-76.3847,43.3497,M,M,M,160.00,10.00,30.16,M,M,10.00,M,7000.00,M,M,M
FZY,2018-01-03 15:50,-76.3847,43.3497,M,M,M,170.00,9.00,30.16,M,M,10.00,M,7000.00,M,M,M
FZY,2018-01-03 15:54,-76.3847,43.3497,16.00,1.00,50.90,180.00,10.00,30.15,1022.00,0.00,10.00,M,7500.00,M,M,M
FZY,2018-01-03 15:55,-76.3847,43.3497,M,M,M,180.00,11.00,30.15,M,M,10.00,M,7500.00,M,M,M
FZY,2018-01-03 16:00,-76.3847,43.3497,M,M,M,180.00,11.00,30.15,M,M,10.00,M,7500.00,M,M,M
FZY,2018-01-03 16:10,-76.3847,43.3497,M,M,M,160.00,11.00,30.14,M,M,10.00,M,7999.00,M,M,M
FZY,2018-01-03 16:15,-76.3847,43.3497,M,M,M,170.00,10.00,30.14,M,M,10.00,M,7999.00,M,M,M
FZY,2018-01-03 16:20,-76.3847,43.3497,M,M,M,160.00,7.00,30.13,M,M,10.00,M,7999.00,M,M,M
FZY,2018-01-03 16:25,-76.3847,43.3497,M,M,M,170.00,9.00,30.13,M,M,10.00,M,7999.00,M,M,M
FZY,2018-01-03 16:30,-76.3847,43.3497,M,M,M,170.00,8.00,30.12,M,M,10.00,M,7999.00,M,M,M
FZY,2018-01-03 16:35,-76.3847,43.3497,M,M,M,180.00,11.00,30.12,M,M,10.00,M,7999.00,M,M,M
FZY,2018-01-03 16:45,-76.3847,43.3497,M,M,M,190.00,10.00,30.12,M,M,10.00,M,7999.00,M,M,M
FZY,2018-01-03 16:50,-76.3847,43.3497,M,M,M,190.00,11.00,30.11,M,M,10.00,M,7999.00,M,M,M
FZY,2018-01-03 16:54,-76.3847,43.3497,18.00,1.00,46.68,190.00,9.00,30.11,1020.60,0.00,10.00,M,8000.00,M,M,M
FZY,2018-01-03 17:00,-76.3847,43.3497,M,M,M,190.00,8.00,30.11,M,M,10.00,M,7999.00,M,M,M
FZY,2018-01-03 17:05,-76.3847,43.3497,M,M,M,190.00,8.00,30.11,M,M,10.00,M,7999.00,M,M,M
FZY,2018-01-03 17:10,-76.3847,43.3497,M,M,M,180.00,11.00,30.11,M,M,10.00,M,7999.00,M,M,M
FZY,2018-01-03 17:20,-76.3847,43.3497,M,M,M,180.00,9.00,30.11,M,M,10.00,M,7999.00,M,M,M
FZY,2018-01-03 17:25,-76.3847,43.3497,M,M,M,180.00,9.00,30.10,M,M,10.00,M,8500.00,M,M,M
FZY,2018-01-03 17:30,-76.3847,43.3497,M,M,M,180.00,9.00,30.10,M,M,10.00,M,7999.00,M,M,M
FZY,2018-01-03 17:40,-76.3847,43.3497,M,M,M,190.00,8.00,30.11,M,M,10.00,M,7999.00,M,M,M
FZY,2018-01-03 17:45,-76.3847,43.3497,M,M,M,160.00,6.00,30.09,M,M,10.00,M,7999.00,M,M,M
FZY,2018-01-03 17:50,-76.3847,43.3497,M,M,M,150.00,5.00,30.08,M,M,10.00,M,7500.00,M,M,M
FZY,2018-01-03 17:54,-76.3847,43.3497,18.00,1.00,46.68,170.00,9.00,30.08,1019.60,0.00,10.00,M,7500.00,M,M,M
FZY,2018-01-03 18:00,-76.3847,43.3497,M,M,M,170.00,7.00,30.08,M,M,10.00,M,7000.00,M,M,M
FZY,2018-01-03 18:05,-76.3847,43.3497,M,M,M,170.00,8.00,30.08,M,M,10.00,M,7000.00,M,M,M
FZY,2018-01-03 18:15,-76.3847,43.3497,M,M,M,180.00,7.00,30.07,M,M,10.00,M,7000.00,M,M,M
FZY,2018-01-03 18:20,-76.3847,43.3497,M,M,M,180.00,10.00,30.07,M,M,10.00,M,7000.00,M,M,M
FZY,2018-01-03 18:25,-76.3847,43.3497,M,M,M,170.00,9.00,30.06,M,M,10.00,M,7000.00,M,M,M
FZY,2018-01-03 18:30,-76.3847,43.3497,M,M,M,170.00,8.00,30.06,M,M,10.00,M,7000.00,M,M,M
FZY,2018-01-03 18:35,-76.3847,43.3497,M,M,M,170.00,8.00,30.06,M,M,10.00,M,7000.00,M,M,M
FZY,2018-01-03 18:40,-76.3847,43.3497,M,M,M,160.00,7.00,30.06,M,M,10.00,M,7000.00,M,M,M
FZY,2018-01-03 18:50,-76.3847,43.3497,M,M,M,160.00,6.00,30.06,M,M,10.00,M,7000.00,M,M,M
FZY,2018-01-03 18:54,-76.3847,43.3497,19.90,0.00,41.06,170.00,7.00,30.06,1018.70,0.00,10.00,M,7000.00,M,M,M
FZY,2018-01-03 18:55,-76.3847,43.3497,M,M,M,170.00,8.00,30.06,M,M,10.00,M,7000.00,M,M,M
FZY,2018-01-03 19:00,-76.3847,43.3497,M,M,M,180.00,8.00,30.06,M,M,10.00,M,7000.00,M,M,M
FZY,2018-01-03 19:10,-76.3847,43.3497,M,M,M,170.00,8.00,30.05,M,M,10.00,M,7000.00,M,M,M
FZY,2018-01-03 19:15,-76.3847,43.3497,M,M,M,170.00,6.00,30.05,M,M,10.00,M,7000.00,M,M,M
FZY,2018-01-03 19:20,-76.3847,43.3497,M,M,M,160.00,6.00,30.05,M,M,10.00,M,7000.00,M,M,M
FZY,2018-01-03 19:30,-76.3847,43.3497,M,M,M,170.00,6.00,30.04,M,M,10.00,M,6500.00,7999.00,M,M
FZY,2018-01-03 19:35,-76.3847,43.3497,M,M,M,170.00,9.00,30.04,M,M,10.00,M,6500.00,7999.00,M,M
FZY,2018-01-03 19:40,-76.3847,43.3497,M,M,M,170.00,7.00,30.04,M,M,10.00,M,6000.00,7999.00,M,M
FZY,2018-01-03 19:45,-76.3847,43.3497,M,M,M,160.00,3.00,30.04,M,M,10.00,M,6000.00,7999.00,M,M
FZY,2018-01-03 19:50,-76.3847,43.3497,M,M,M,150.00,5.00,30.03,M,M,10.00,M,6000.00,M,M,M
FZY,2018-01-03 19:54,-76.3847,43.3497,21.90,0.00,37.72,170.00,8.00,30.03,1017.70,0.00,10.00,M,6000.00,M,M,M
FZY,2018-01-03 19:55,-76.3847,43.3497,M,M,M,160.00,7.00,30.03,M,M,10.00,M,6000.00,M,M,M
FZY,2018-01-03 20:00,-76.3847,43.3497,M,M,M,150.00,4.00,30.03,M,M,10.00,M,6000.00,M,M,M
FZY,2018-01-03 20:05,-76.3847,43.3497,M,M,M,150.00,4.00,30.03,M,M,10.00,M,6000.00,M,M,M
FZY,2018-01-03 20:10,-76.3847,43.3497,M,M,M,160.00,5.00,30.02,M,M,10.00,M,6000.00,M,M,M
FZY,2018-01-03 20:20,-76.3847,43.3497,M,M,M,150.00,3.00,30.02,M,M,10.00,M,6000.00,M,M,M
FZY,2018-01-03 20:25,-76.3847,43.3497,M,M,M,140.00,3.00,30.02,M,M,10.00,M,6000.00,M,M,M
FZY,2018-01-03 20:30,-76.3847,43.3497,M,M,M,0.00,0.00,30.02,M,M,10.00,M,6000.00,M,M,M
FZY,2018-01-03 20:40,-76.3847,43.3497,M,M,M,0.00,0.00,30.01,M,M,10.00,M,6000.00,7999.00,M,M
FZY,2018-01-03 20:45,-76.3847,43.3497,M,M,M,120.00,3.00,30.01,M,M,10.00,M,6000.00,7999.00,M,M
FZY,2018-01-03 20:50,-76.3847,43.3497,M,M,M,140.00,3.00,30.01,M,M,10.00,M,6000.00,7999.00,M,M
FZY,2018-01-03 20:54,-76.3847,43.3497,23.00,0.00,36.01,0.00,0.00,30.01,1017.10,0.00,10.00,M,7000.00,8000.00,M,M
FZY,2018-01-03 20:55,-76.3847,43.3497,M,M,M,0.00,0.00,30.01,M,M,10.00,M,7000.00,7999.00,M,M
FZY,2018-01-03 21:00,-76.3847,43.3497,M,M,M,0.00,0.00,30.01,M,M,10.00,M,7000.00,8500.00,M,M
FZY,2018-01-03 21:05,-76.3847,43.3497,M,M,M,100.00,4.00,30.01,M,M,10.00,M,7500.00,M,M,M
FZY,2018-01-03 21:15,-76.3847,43.3497,M,M,M,100.00,3.00,30.00,M,M,10.00,M,7500.00,M,M,M
FZY,2018-01-03 21:20,-76.3847,43.3497,M,M,M,0.00,0.00,30.00,M,M,10.00,M,7000.00,M,M,M
FZY,2018-01-03 21:25,-76.3847,43.3497,M,M,M,100.00,3.00,30.00,M,M,10.00,M,7000.00,M,M,M
FZY,2018-01-03 21:30,-76.3847,43.3497,M,M,M,0.00,0.00,30.00,M,M,10.00,M,7000.00,M,M,M
FZY,2018-01-03 21:35,-76.3847,43.3497,M,M,M,0.00,0.00,30.00,M,M,10.00,M,M,M,M,M
FZY,2018-01-03 21:40,-76.3847,43.3497,M,M,M,110.00,3.00,30.00,M,M,10.00,M,M,M,M,M
FZY,2018-01-03 21:50,-76.3847,43.3497,M,M,M,0.00,0.00,30.00,M,M,10.00,M,M,M,M,M
FZY,2018-01-03 21:54,-76.3847,43.3497,19.00,3.00,49.07,110.00,3.00,30.00,1016.70,0.00,10.00,M,M,M,M,M
FZY,2018-01-03 21:55,-76.3847,43.3497,M,M,M,110.00,3.00,30.00,M,M,10.00,M,M,M,M,M
FZY,2018-01-03 22:00,-76.3847,43.3497,M,M,M,110.00,3.00,30.00,M,M,10.00,M,M,M,M,M
FZY,2018-01-03 22:10,-76.3847,43.3497,M,M,M,0.00,0.00,30.00,M,M,10.00,M,11000.00,M,M,M
FZY,2018-01-03 22:20,-76.3847,43.3497,M,M,M,0.00,0.00,30.00,M,M,10.00,M,7000.00,9000.00,M,M
FZY,2018-01-03 22:25,-76.3847,43.3497,M,M,M,0.00,0.00,30.01,M,M,10.00,M,7000.00,9000.00,M,M
FZY,2018-01-03 22:30,-76.3847,43.3497,M,M,M,110.00,3.00,30.01,M,M,10.00,M,7000.00,9000.00,M,M
FZY,2018-01-03 22:40,-76.3847,43.3497,M,M,M,130.00,3.00,30.01,M,M,10.00,M,6500.00,9000.00,M,M
FZY,2018-01-03 22:45,-76.3847,43.3497,M,M,M,130.00,3.00,30.02,M,M,10.00,M,6500.00,M,M,M
FZY,2018-01-03 22:50,-76.3847,43.3497,M,M,M,130.00,4.00,30.02,M,M,10.00,M,6000.00,7000.00,M,M
FZY,2018-01-03 22:54,-76.3847,43.3497,21.00,1.90,42.82,120.00,3.00,30.02,1017.40,0.00,10.00,M,6000.00,M,M,M
FZY,2018-01-03 22:55,-76.3847,43.3497,M,M,M,120.00,3.00,30.02,M,M,10.00,M,6000.00,M,M,M
FZY,2018-01-03 23:00,-76.3847,43.3497,M,M,M,120.00,3.00,30.02,M,M,10.00,M,6000.00,M,M,M
FZY,2018-01-03 23:05,-76.3847,43.3497,M,M,M,0.00,0.00,30.02,M,M,10.00,M,6000.00,M,M,M
FZY,2018-01-03 23:15,-76.3847,43.3497,M,M,M,120.00,3.00,30.02,M,M,10.00,M,5500.00,M,M,M
FZY,2018-01-03 23:20,-76.3847,43.3497,M,M,M,120.00,3.00,30.02,M,M,10.00,M,5500.00,M,M,M
FZY,2018-01-03 23:25,-76.3847,43.3497,M,M,M,130.00,3.00,30.02,M,M,10.00,M,5500.00,M,M,M
FZY,2018-01-03 23:35,-76.3847,43.3497,M,M,M,130.00,3.00,30.02,M,M,10.00,M,5500.00,M,M,M
FZY,2018-01-03 23:40,-76.3847,43.3497,M,M,M,120.00,3.00,30.02,M,M,10.00,M,5500.00,M,M,M
FZY,2018-01-03 23:45,-76.3847,43.3497,M,M,M,0.00,0.00,30.02,M,M,10.00,M,5500.00,M,M,M
FZY,2018-01-03 23:50,-76.3847,43.3497,M,M,M,0.00,0.00,30.02,M,M,10.00,M,5500.00,7000.00,M,M
FZY,2018-01-03 23:54,-76.3847,43.3497,21.90,1.00,39.53,M,3.00,30.02,1017.40,0.00,10.00,M,6000.00,7000.00,M,M
FZY,2018-01-03 23:55,-76.3847,43.3497,M,M,M,130.00,3.00,30.02,M,M,10.00,M,6000.00,M,M,M
IAG,2018-01-01 00:00,-78.9462,43.1073,M,M,M,240.00,5.00,30.40,M,M,10.00,M,4200.00,M,M,M
IAG,2018-01-01 00:05,-78.9462,43.1073,M,M,M,250.00,7.00,30.40,M,M,10.00,M,3399.00,4200.00,M,M
IAG,2018-01-01 00:10,-78.9462,43.1073,M,M,M,250.00,6.00,30.40,M,M,10.00,M,4200.00,M,M,M
IAG,2018-01-01 00:15,-78.9462,43.1073,M,M,M,250.00,6.00,30.40,M,M,10.00,M,3500.00,4400.00,M,M
IAG,2018-01-01 00:20,-78.9462,43.1073,M,M,M,240.00,6.00,30.40,M,M,10.00,M,3500.00,4400.00,M,M
IAG,2018-01-01 00:25,-78.9462,43.1073,M,M,M,240.00,6.00,30.40,M,M,10.00,M,3500.00,4400.00,M,M
IAG,2018-01-01 00:30,-78.9462,43.1073,M,M,M,250.00,8.00,30.40,M,M,10.00,M,3500.00,4600.00,M,M
IAG,2018-01-01 00:35,-78.9462,43.1073,M,M,M,240.00,7.00,30.40,M,M,10.00,M,3600.00,4600.00,M,M
IAG,2018-01-01 00:40,-78.9462,43.1073,M,M,M,240.00,6.00,30.40,M,M,10.00,M,3600.00,4600.00,M,M
IAG,2018-01-01 00:45,-78.9462,43.1073,M,M,M,240.00,9.00,30.39,M,M,10.00,M,3600.00,4600.00,M,M
IAG,2018-01-01 00:50,-78.9462,43.1073,M,M,M,250.00,9.00,30.39,M,M,10.00,M,3600.00,4600.00,M,M
IAG,2018-01-01 00:53,-78.9462,43.1073,6.10,-2.90,65.77,250.00,8.00,30.39,1032.00,0.00,10.00,M,3600.00,4600.00,M,M
IAG,2018-01-01 00:55,-78.9462,43.1073,M,M,M,250.00,8.00,30.39,M,M,10.00,M,3600.00,4600.00,M,M
IAG,2018-01-01 01:00,-78.9462,43.1073,M,M,M,260.00,8.00,30.39,M,M,9.00,M,3300.00,4400.00,M,M
IAG,2018-01-01 01:05,-78.9462,43.1073,M,M,M,250.00,7.00,30.39,M,M,9.00,M,3300.00,4400.00,M,M
IAG,2018-01-01 01:10,-78.9462,43.1073,M,M,M,260.00,8.00,30.39,M,M,10.00,M,3300.00,4400.00,M,M
IAG,2018-01-01 01:15,-78.9462,43.1073,M,M,M,260.00,9.00,30.39,M,M,10.00,M,3300.00,4400.00,M,M
IAG,2018-01-01 01:20,-78.9462,43.1073,M,M,M,250.00,8.00,30.39,M,M,10.00,M,3300.00,4300.00,M,M
IAG,2018-01-01 01:25,-78.9462,43.1073,M,M,M,250.00,9.00,30.39,M,M,10.00,M,3600.00,M,M,M
IAG,2018-01-01 01:30,-78.9462,43.1073,M,M,M,260.00,8.00,30.39,M,M,10.00,M,2600.00,3800.00,M,M
IAG,2018-01-01 01:35,-78.9462,43.1073,M,M,M,260.00,9.00,30.39,M,M,10.00,M,2400.00,3800.00,M,M
IAG,2018-01-01 01:40,-78.9462,43.1073,M,M,M,260.00,9.00,30.39,M,M,10.00,M,2400.00,3800.00,M,M
IAG,2018-01-01 01:45,-78.9462,43.1073,M,M,M,270.00,9.00,30.39,M,M,10.00,M,2400.00,3800.00,M,M
IAG,2018-01-01 01:50,-78.9462,43.1073,M,M,M,270.00,10.00,30.39,M,M,10.00,M,2600.00,3800.00,M,M
IAG,2018-01-01 01:53,-78.9462,43.1073,6.10,-4.00,62.41,270.00,10.00,30.39,1031.80,0.00,10.00,M,2600.00,3800.00,M,M
IAG,2018-01-01 01:55,-78.9462,43.1073,M,M,M,260.00,8.00,30.39,M,M,10.00,M,2600.00,3800.00,M,M
IAG,2018-01-01 02:00,-78.9462,43.1073,M,M,M,270.00,10.00,30.39,M,M,10.00,M,2500.00,3700.00,M,M
IAG,2018-01-01 02:05,-78.9462,43.1073,M,M,M,260.00,9.00,30.39,M,M,10.00,M,2500.00,3500.00,M,M
IAG,2018-01-01 02:10,-78.9462,43.1073,M,M,M,260.00,10.00,30.39,M,M,10.00,M,2500.00,3300.00,M,M
IAG,2018-01-01 02:15,-78.9462,43.1073,M,M,M,270.00,9.00,30.39,M,M,10.00,M,2900.00,M,M,M
IAG,2018-01-01 02:20,-78.9462,43.1073,M,M,M,270.00,9.00,30.39,M,M,10.00,M,2400.00,3200.00,M,M
IAG,2018-01-01 02:25,-78.9462,43.1073,M,M,M,270.00,9.00,30.39,M,M,6.00,M,1900.00,3200.00,M,-SN
IAG,2018-01-01 02:30,-78.9462,43.1073,M,M,M,270.00,9.00,30.39,M,M,5.00,M,1900.00,3100.00,M,-SN
IAG,2018-01-01 02:35,-78.9462,43.1073,M,M,M,270.00,9.00,30.39,M,M,8.00,M,1900.00,3100.00,M,-SN
IAG,2018-01-01 02:40,-78.9462,43.1073,M,M,M,270.00,10.00,30.39,M,M,9.00,M,1900.00,3100.00,M,M
IAG,2018-01-01 02:45,-78.9462,43.1073,M,M,M,270.00,9.00,30.39,M,M,10.00,M,1900.00,M,M,M
IAG,2018-01-01 02:50,-78.9462,43.1073,M,M,M,260.00,8.00,30.39,M,M,9.00,M,1699.00,M,M,M
IAG,2018-01-01 02:53,-78.9462,43.1073,3.90,-6.00,62.69,270.00,9.00,30.39,1032.00,T,8.00,M,1500.00,M,M,-SN
IAG,2018-01-01 02:55,-78.9462,43.1073,M,M,M,270.00,9.00,30.39,M,M,8.00,M,1500.00,M,M,-SN
IAG,2018-01-01 03:00,-78.9462,43.1073,M,M,M,270.00,10.00,30.39,M,M,4.00,M,1500.00,M,M,-SN
IAG,2018-01-01 03:05,-78.9462,43.1073,M,M,M,270.00,9.00,30.40,M,M,2.50,M,1500.00,M,M,-SN
IAG,2018-01-01 03:10,-78.9462,43.1073,M,M,M,270.00,9.00,30.40,M,M,3.00,M,1500.00,M,M,-SN
IAG,2018-01-01 03:15,-78.9462,43.1073,M,M,M,270.00,9.00,30.40,M,M,3.00,M,1500.00,3300.00,M,-SN
IAG,2018-01-01 03:20,-78.9462,43.1073,M,M,M,260.00,9.00,30.40,M,M,3.00,M,1500.00,3300.00,M,-SN
IAG,2018-01-01 03:25,-78.9462,43.1073,M,M,M,260.00,9.00,30.40,M,M,3.00,M,600.00,1500.00,3300.00,-SN
IAG,2018-01-01 03:28,-78.9462,43.1073,5.00,-4.00,65.62,260.00,9.00,30.40,M,T,3.00,M,600.00,1500.00,3300.00,-SN
IAG,2018-01-01 03:30,-78.9462,43.1073,M,M,M,260.00,9.00,30.40,M,M,3.00,M,1500.00,3399.00,M,-SN
IAG,2018-01-01 03:35,-78.9462,43.1073,M,M,M,260.00,9.00,30.40,M,M,3.00,M,1500.00,3399.00,M,HZ
IAG,2018-01-01 03:40,-78.9462,43.1073,M,M,M,260.00,10.00,30.40,M,M,9.00,M,1500.00,3399.00,M,M
IAG,2018-01-01 03:42,-78.9462,43.1073,3.00,-6.00,65.35,270.00,11.00,30.40,M,T,9.00,M,1500.00,3400.00,M,M
IAG,2018-01-01 03:45,-78.9462,43.1073,M,M,M,270.00,10.00,30.40,M,M,9.00,M,1300.00,3399.00,M,M
IAG,2018-01-01 03:50,-78.9462,43.1073,M,M,M,270.00,10.00,30.40,M,M,9.00,M,1300.00,3399.00,M,M
IAG,2018-01-01 03:53,-78.9462,43.1073,3.00,-6.00,65.35,260.00,9.00,30.40,1032.30,T,9.00,M,1500.00,3400.00,M,M
IAG,2018-01-01 03:55,-78.9462,43.1073,M,M,M,260.00,8.00,30.40,M,M,9.00,M,1500.00,3399.00,M,M
IAG,2018-01-01 04:00,-78.9462,43.1073,M,M,M,260.00,9.00,30.40,M,M,10.00,M,1500.00,M,M,M
IAG,2018-01-01 04:03,-78.9462,43.1073,1.90,-7.10,65.20,260.00,9.00,30.40,M,0.00,10.00,M,1500.00,M,M,M
IAG,2018-01-01 04:05,-78.9462,43.1073,M,M,M,260.00,9.00,30.40,M,M,10.00,M,1500.00,M,M,M
IAG,2018-01-01 04:10,-78.9462,43.1073,M,M,M,260.00,9.00,30.41,M,M,10.00,M,1500.00,M,M,M
IAG,2018-01-01 04:15,-78.9462,43.1073,M,M,M,260.00,9.00,30.41,M,M,10.00,M,1500.00,M,M,M
IAG,2018-01-01 04:20,-78.9462,43.1073,M,M,M,260.00,8.00,30.41,M,M,10.00,M,M,M,M,M
IAG,2018-01-01 04:25,-78.9462,43.1073,M,M,M,260.00,8.00,30.40,M,M,10.00,M,3200.00,M,M,M
IAG,2018-01-01 04:30,-78.9462,43.1073,M,M,M,260.00,8.00,30.40,M,M,10.00,M,3100.00,M,M,M
IAG,2018-01-01 04:35,-78.9462,43.1073,M,M,M,260.00,8.00,30.40,M,M,10.00,M,3100.00,M,M,M
IAG,2018-01-01 04:40,-78.9462,43.1073,M,M,M,260.00,8.00,30.40,M,M,10.00,M,3100.00,M,M,M
IAG,2018-01-01 04:45,-78.9462,43.1073,M,M,M,260.00,9.00,30.40,M,M,10.00,M,3100.00,M,M,M
IAG,2018-01-01 04:50,-78.9462,43.1073,M,M,M,260.00,9.00,30.40,M,M,10.00,M,3100.00,M,M,M
IAG,2018-01-01 04:53,-78.9462,43.1073,3.00,-5.10,68.25,260.00,9.00,30.40,1032.40,0.00,10.00,M,3100.00,M,M,M
IAG,2018-01-01 04:55,-78.9462,43.1073,M,M,M,260.00,9.00,30.40,M,M,10.00,M,3100.00,M,M,M
IAG,2018-01-01 05:00,-78.9462,43.1073,M,M,M,260.00,8.00,30.40,M,M,10.00,M,3100.00,M,M,M
IAG,2018-01-01 05:05,-78.9462,43.1073,M,M,M,260.00,8.00,30.40,M,M,10.00,M,2800.00,3300.00,M,M
IAG,2018-01-01 05:10,-78.9462,43.1073,M,M,M,260.00,7.00,30.40,M,M,10.00,M,2600.00,3300.00,M,M
IAG,2018-01-01 05:15,-78.9462,43.1073,M,M,M,260.00,7.00,30.40,M,M,10.00,M,2800.00,3300.00,M,M
IAG,2018-01-01 05:17,-78.9462,43.1073,3.00,-5.10,68.25,260.00,7.00,30.40,M,0.00,10.00,M,2800.00,M,M,M
IAG,2018-01-01 05:20,-78.9462,43.1073,M,M,M,250.00,8.00,30.40,M,M,10.00,M,2600.00,M,M,M
IAG,2018-01-01 05:25,-78.9462,43.1073,M,M,M,260.00,8.00,30.40,M,M,10.00,M,2600.00,3100.00,M,M
IAG,2018-01-01 05:30,-78.9462,43.1073,M,M,M,260.00,7.00,30.40,M,M,10.00,M,2600.00,M,M,M
IAG,2018-01-01 05:35,-78.9462,43.1073,M,M,M,260.00,7.00,30.40,M,M,10.00,M,2600.00,M,M,M
IAG,2018-01-01 05:36,-78.9462,43.1073,-0.90,-8.00,71.14,260.00,7.00,30.40,M,0.00,10.00,M,2600.00,M,M,M
IAG,2018-01-01 05:40,-78.9462,43.1073,M,M,M,260.00,7.00,30.40,M,M,10.00,M,2600.00,M,M,M
IAG,2018-01-01 05:45,-78.9462,43.1073,M,M,M,260.00,7.00,30.40,M,M,10.00,M,2600.00,M,M,M
IAG,2018-01-01 05:50,-78.9462,43.1073,M,M,M,260.00,7.00,30.40,M,M,10.00,M,2600.00,M,M,M
IAG,2018-01-01 05:53,-78.9462,43.1073,-0.90,-8.00,71.14,260.00,6.00,30.40,1032.40,0.00,10.00,M,2600.00,M,M,M
IAG,2018-01-01 05:55,-78.9462,43.1073,M,M,M,250.00,6.00,30.40,M,M,10.00,M,2600.00,M,M,M
IAG,2018-01-01 06:00,-78.9462,43.1073,M,M,M,250.00,6.00,30.40,M,M,10.00,M,2600.00,M,M,M
IAG,2018-01-01 06:05,-78.9462,43.1073,M,M,M,260.00,6.00,30.40,M,M,10.00,M,1999.00,2600.00,M,M
IAG,2018-01-01 06:10,-78.9462,43.1073,M,M,M,260.00,7.00,30.40,M,M,10.00,M,1800.00,2600.00,M,M
IAG,2018-01-01 06:15,-78.9462,43.1073,M,M,M,260.00,7.00,30.40,M,M,10.00,M,1800.00,2600.00,M,M
IAG,2018-01-01 06:20,-78.9462,43.1073,M,M,M,260.00,7.00,30.40,M,M,10.00,M,1999.00,2600.00,M,M
IAG,2018-01-01 06:25,-78.9462,43.1073,M,M,M,260.00,6.00,30.40,M,M,10.00,M,1999.00,2600.00,M,M
IAG,2018-01-01 06:27,-78.9462,43.1073,1.90,-5.10,71.82,260.00,6.00,30.40,M,0.00,10.00,M,2000.00,2600.00,M,M
IAG,2018-01-01 06:30,-78.9462,43.1073,M,M,M,250.00,7.00,30.40,M,M,10.00,M,1999.00,2600.00,M,M
IAG,2018-01-01 06:35,-78.9462,43.1073,M,M,M,260.00,7.00,30.40,M,M,10.00,M,1699.00,2600.00,M,M
IAG,2018-01-01 06:40,-78.9462,43.1073,M,M,M,250.00,7.00,30.40,M,M,10.00,M,2600.00,M,M,M
IAG,2018-01-01 06:45,-78.9462,43.1073,M,M,M,250.00,8.00,30.40,M,M,10.00,M,2600.00,M,M,M
IAG,2018-01-01 06:50,-78.9462,43.1073,M,M,M,250.00,8.00,30.40,M,M,10.00,M,2600.00,M,M,M
IAG,2018-01-01 06:53,-78.9462,43.1073,3.00,-5.10,68.25,260.00,9.00,30.40,1032.40,0.00,10.00,M,2800.00,M,M,M
IAG,2018-01-01 06:55,-78.9462,43.1073,M,M,M,260.00,9.00,30.40,M,M,10.00,M,2800.00,3200.00,M,M
IAG,2018-01-01 07:00,-78.9462,43.1073,M,M,M,260.00,8.00,30.41,M,M,10.00,M,2800.00,3200.00,M,M
IAG,2018-01-01 07:05,-78.9462,43.1073,M,M,M,270.00,7.00,30.41,M,M,10.00,M,2800.00,M,M,M
IAG,2018-01-01 07:10,-78.9462,43.1073,M,M,M,270.00,6.00,30.41,M,M,10.00,M,2800.00,M,M,M
IAG,2018-01-01 07:15,-78.9462,43.1073,M,M,M,280.00,7.00,30.41,M,M,10.00,M,2600.00,M,M,M
IAG,2018-01-01 07:20,-78.9462,43.1073,M,M,M,280.00,7.00,30.41,M,M,10.00,M,2600.00,M,M,M
IAG,2018-01-01 07:25,-78.9462,43.1073,M,M,M,280.00,6.00,30.41,M,M,10.00,M,2700.00,M,M,M
IAG,2018-01-01 07:30,-78.9462,43.1073,M,M,M,270.00,5.00,30.41,M,M,10.00,M,2700.00,M,M,M
IAG,2018-01-01 07:35,-78.9462,43.1073,M,M,M,270.00,6.00,30.41,M,M,10.00,M,2700.00,M,M,M
IAG,2018-01-01 07:40,-78.9462,43.1073,M,M,M,270.00,5.00,30.41,M,M,10.00,M,2700.00,M,M,M
IAG,2018-01-01 07:45,-78.9462,43.1073,M,M,M,260.00,5.00,30.41,M,M,10.00,M,2700.00,M,M,M
IAG,2018-01-01 07:50,-78.9462,43.1073,M,M,M,270.00,3.00,30.41,M,M,10.00,M,2700.00,M,M,M
IAG,2018-01-01 07:53,-78.9462,43.1073,3.90,-2.90,72.74,280.00,4.00,30.41,1032.60,0.00,10.00,M,2700.00,M,M,M
IAG,2018-01-01 07:55,-78.9462,43.1073,M,M,M,290.00,4.00,30.41,M,M,10.00,M,2700.00,M,M,M
IAG,2018-01-01 08:00,-78.9462,43.1073,M,M,M,0.00,0.00,30.41,M,M,10.00,M,2700.00,M,M,M
IAG,2018-01-01 08:05,-78.9462,43.1073,M,M,M,290.00,3.00,30.41,M,M,10.00,M,2700.00,M,M,M
IAG,2018-01-01 08:10,-78.9462,43.1073,M,M,M,0.00,0.00,30.40,M,M,10.00,M,2700.00,M,M,M
IAG,2018-01-01 08:15,-78.9462,43.1073,M,M,M,0.00,0.00,30.40,M,M,10.00,M,2700.00,M,M,M
IAG,2018-01-01 08:20,-78.9462,43.1073,M,M,M,0.00,0.00,30.40,M,M,10.00,M,2700.00,M,M,M
IAG,2018-01-01 08:25,-78.9462,43.1073,M,M,M,240.00,3.00,30.40,M,M,10.00,M,2700.00,M,M,M
IAG,2018-01-01 08:30,-78.9462,43.1073,M,M,M,250.00,4.00,30.40,M,M,10.00,M,2700.00,M,M,M
IAG,2018-01-01 08:35,-78.9462,43.1073,M,M,M,250.00,5.00,30.40,M,M,10.00,M,2700.00,M,M,M
IAG,2018-01-01 08:40,-78.9462,43.1073,M,M,M,260.00,5.00,30.40,M,M,10.00,M,2700.00,M,M,M
IAG,2018-01-01 08:45,-78.9462,43.1073,M,M,M,260.00,6.00,30.40,M,M,10.00,M,2700.00,M,M,M
IAG,2018-01-01 08:50,-78.9462,43.1073,M,M,M,260.00,5.00,30.40,M,M,10.00,M,2700.00,M,M,M
IAG,2018-01-01 08:53,-78.9462,43.1073,1.90,-6.00,68.77,250.00,5.00,30.40,1032.20,0.00,10.00,M,2700.00,M,M,M
IAG,2018-01-01 08:55,-78.9462,43.1073,M,M,M,250.00,5.00,30.40,M,M,10.00,M,2700.00,M,M,M
IAG,2018-01-01 09:00,-78.9462,43.1073,M,M,M,250.00,5.00,30.39,M,M,10.00,M,2700.00,M,M,M
IAG,2018-01-01 09:05,-78.9462,43.1073,M,M,M,240.00,5.00,30.40,M,M,10.00,M,2700.00,M,M,M
IAG,2018-01-01 09:10,-78.9462,43.1073,M,M,M,240.00,5.00,30.39,M,M,10.00,M,2700.00,M,M,M
IAG,2018-01-01 09:15,-78.9462,43.1073,M,M,M,240.00,6.00,30.39,M,M,10.00,M,2500.00,M,M,M
IAG,2018-01-01 09:20,-78.9462,43.1073,M,M,M,240.00,6.00,30.40,M,M,10.00,M,2500.00,M,M,M
IAG,2018-01-01 09:25,-78.9462,43.1073,M,M,M,250.00,7.00,30.39,M,M,10.00,M,2500.00,M,M,M
IAG,2018-01-01 09:30,-78.9462,43.1073,M,M,M,260.00,6.00,30.40,M,M,10.00,M,2600.00,M,M,M
IAG,2018-01-01 09:35,-78.9462,43.1073,M,M,M,250.00,6.00,30.39,M,M,10.00,M,2600.00,M,M,M
IAG,2018-01-01 09:40,-78.9462,43.1073,M,M,M,260.00,6.00,30.40,M,M,10.00,M,2600.00,M,M,M
IAG,2018-01-01 09:45,-78.9462,43.1073,M,M,M,260.00,6.00,30.39,M,M,10.00,M,2600.00,M,M,M
IAG,2018-01-01 09:50,-78.9462,43.1073,M,M,M,260.00,7.00,30.39,M,M,10.00,M,2600.00,M,M,M
IAG,2018-01-01 09:53,-78.9462,43.1073,3.00,-4.00,71.95,260.00,7.00,30.39,1032.20,0.00,10.00,M,2600.00,M,M,M
IAG,2018-01-01 09:55,-78.9462,43.1073,M,M,M,260.00,7.00,30.39,M,M,10.00,M,2600.00,M,M,M
IAG,2018-01-01 10:00,-78.9462,43.1073,M,M,M,260.00,6.00,30.39,M,M,10.00,M,2600.00,M,M,M
IAG,2018-01-01 10:05,-78.9462,43.1073,M,M,M,250.00,6.00,30.39,M,M,10.00,M,2600.00,M,M,M
IAG,2018-01-01 10:10,-78.9462,43.1073,M,M,M,240.00,6.00,30.39,M,M,10.00,M,2600.00,M,M,M
IAG,2018-01-01 10:15,-78.9462,43.1073,M,M,M,250.00,7.00,30.39,M,M,10.00,M,M,M,M,M
IAG,2018-01-01 10:20,-78.9462,43.1073,M,M,M,240.00,6.00,30.39,M,M,10.00,M,M,M,M,M
IAG,2018-01-01 10:25,-78.9462,43.1073,M,M,M,240.00,6.00,30.39,M,M,10.00,M,M,M,M,M
IAG,2018-01-01 10:30,-78.9462,43.1073,M,M,M,240.00,5.00,30.39,M,M,10.00,M,M,M,M,M
IAG,2018-01-01 10:35,-78.9462,43.1073,M,M,M,240.00,4.00,30.39,M,M,10.00,M,5500.00,M,M,M
IAG,2018-01-01 10:40,-78.9462,43.1073,M,M,M,240.00,4.00,30.39,M,M,10.00,M,5000.00,M,M,M
IAG,2018-01-01 10:45,-78.9462,43.1073,M,M,M,230.00,4.00,30.39,M,M,10.00,M,5000.00,M,M,M
IAG,2018-01-01 10:50,-78.9462,43.1073,M,M,M,230.00,5.00,30.39,M,M,10.00,M,5000.00,M,M,M
IAG,2018-01-01 10:53,-78.9462,43.1073,1.00,-6.00,71.71,230.00,5.00,30.39,1032.00,0.00,10.00,M,5500.00,M,M,M
IAG,2018-01-01 10:55,-78.9462,43.1073,M,M,M,240.00,5.00,30.39,M,M,10.00,M,5500.00,M,M,M
IAG,2018-01-01 11:00,-78.9462,43.1073,M,M,M,250.00,5.00,30.38,M,M,10.00,M,5500.00,M,M,M
IAG,2018-01-01 11:05,-78.9462,43.1073,M,M,M,250.00,4.00,30.38,M,M,10.00,M,5000.00,6000.00,M,M
IAG,2018-01-01 11:10,-78.9462,43.1073,M,M,M,250.00,4.00,30.38,M,M,10.00,M,5500.00,M,M,M
IAG,2018-01-01 11:15,-78.9462,43.1073,M,M,M,250.00,3.00,30.38,M,M,10.00,M,6000.00,M,M,M
IAG,2018-01-01 11:20,-78.9462,43.1073,M,M,M,260.00,3.00,30.38,M,M,10.00,M,6000.00,M,M,M
IAG,2018-01-01 11:25,-78.9462,43.1073,M,M,M,260.00,3.00,30.38,M,M,10.00,M,4200.00,5000.00,6000.00,M
IAG,2018-01-01 11:30,-78.9462,43.1073,M,M,M,0.00,0.00,30.38,M,M,10.00,M,4200.00,5000.00,6000.00,M
IAG,2018-01-01 11:35,-78.9462,43.1073,M,M,M,0.00,0.00,30.38,M,M,10.00,M,6000.00,M,M,M
IAG,2018-01-01 11:40,-78.9462,43.1073,M,M,M,0.00,0.00,30.38,M,M,10.00,M,6000.00,M,M,M
IAG,2018-01-01 11:45,-78.9462,43.1073,M,M,M,0.00,0.00,30.38,M,M,10.00,M,5500.00,M,M,M
IAG,2018-01-01 11:50,-78.9462,43.1073,M,M,M,180.00,3.00,30.38,M,M,10.00,M,4400.00,5500.00,M,M
IAG,2018-01-01 11:53,-78.9462,43.1073,1.00,-6.00,71.71,190.00,3.00,30.38,1031.80,0.00,10.00,M,6000.00,M,M,M
IAG,2018-01-01 11:55,-78.9462,43.1073,M,M,M,180.00,4.00,30.38,M,M,10.00,M,6000.00,M,M,M
IAG,2018-01-01 12:00,-78.9462,43.1073,M,M,M,190.00,4.00,30.38,M,M,10.00,M,6000.00,M,M,M
IAG,2018-01-01 12:05,-78.9462,43.1073,M,M,M,190.00,5.00,30.38,M,M,10.00,M,5500.00,M,M,M
IAG,2018-01-01 12:10,-78.9462,43.1073,M,M,M,190.00,5.00,30.38,M,M,10.00,M,5500.00,M,M,M
IAG,2018-01-01 12:15,-78.9462,43.1073,M,M,M,190.00,6.00,30.38,M,M,10.00,M,4400.00,M,M,M
IAG,2018-01-01 12:20,-78.9462,43.1073,M,M,M,190.00,6.00,30.37,M,M,10.00,M,4400.00,M,M,M
IAG,2018-01-01 12:25,-78.9462,43.1073,M,M,M,190.00,5.00,30.37,M,M,10.00,M,4400.00,M,M,M
IAG,2018-01-01 12:30,-78.9462,43.1073,M,M,M,190.00,5.00,30.37,M,M,10.00,M,3500.00,4400.00,M,M
IAG,2018-01-01 12:35,-78.9462,43.1073,M,M,M,190.00,5.00,30.37,M,M,10.00,M,3700.00,4400.00,M,M
IAG,2018-01-01 12:40,-78.9462,43.1073,M,M,M,190.00,6.00,30.37,M,M,10.00,M,4200.00,M,M,M
IAG,2018-01-01 12:45,-78.9462,43.1073,M,M,M,200.00,7.00,30.37,M,M,10.00,M,4200.00,M,M,M
IAG,2018-01-01 12:50,-78.9462,43.1073,M,M,M,200.00,7.00,30.37,M,M,10.00,M,3700.00,4500.00,M,M
IAG,2018-01-01 12:53,-78.9462,43.1073,3.90,-2.90,72.74,200.00,6.00,30.37,1031.40,0.00,10.00,M,3700.00,4500.00,M,M
IAG,2018-01-01 12:55,-78.9462,43.1073,M,M,M,200.00,7.00,30.37,M,M,10.00,M,3700.00,4500.00,M,M
IAG,2018-01-01 13:00,-78.9462,43.1073,M,M,M,210.00,7.00,30.37,M,M,10.00,M,3700.00,M,M,M
IAG,2018-01-01 13:05,-78.9462,43.1073,M,M,M,220.00,7.00,30.37,M,M,10.00,M,M,M,M,M
IAG,2018-01-01 13:10,-78.9462,43.1073,M,M,M,220.00,7.00,30.37,M,M,10.00,M,M,M,M,M
IAG,2018-01-01 13:15,-78.9462,43.1073,M,M,M,210.00,7.00,30.37,M,M,10.00,M,M,M,M,M
IAG,2018-01-01 13:20,-78.9462,43.1073,M,M,M,210.00,8.00,30.37,M,M,10.00,M,M,M,M,M
IAG,2018-01-01 13:25,-78.9462,43.1073,M,M,M,220.00,9.00,30.37,M,M,10.00,M,M,M,M,M
IAG,2018-01-01 13:30,-78.9462,43.1073,M,M,M,220.00,9.00,30.37,M,M,10.00,M,M,M,M,M
IAG,2018-01-01 13:35,-78.9462,43.1073,M,M,M,230.00,9.00,30.37,M,M,10.00,M,M,M,M,M
IAG,2018-01-01 13:40,-78.9462,43.1073,M,M,M,230.00,10.00,30.37,M,M,10.00,M,M,M,M,M
IAG,2018-01-01 13:45,-78.9462,43.1073,M,M,M,230.00,10.00,30.37,M,M,10.00,M,M,M,M,M
IAG,2018-01-01 13:50,-78.9462,43.1073,M,M,M,230.00,11.00,30.36,M,M,10.00,M,M,M,M,M
IAG,2018-01-01 13:53,-78.9462,43.1073,6.10,0.00,75.43,230.00,10.00,30.36,1031.00,0.00,10.00,M,M,M,M,M
IAG,2018-01-01 13:55,-78.9462,43.1073,M,M,M,230.00,9.00,30.36,M,M,10.00,M,M,M,M,M
IAG,2018-01-01 14:00,-78.9462,43.1073,M,M,M,240.00,8.00,30.36,M,M,10.00,M,M,M,M,M
IAG,2018-01-01 14:05,-78.9462,43.1073,M,M,M,240.00,7.00,30.36,M,M,10.00,M,M,M,M,M
IAG,2018-01-01 14:10,-78.9462,43.1073,M,M,M,240.00,8.00,30.36,M,M,10.00,M,M,M,M,M
IAG,2018-01-01 14:15,-78.9462,43.1073,M,M,M,250.00,9.00,30.36,M,M,10.00,M,M,M,M,M
IAG,2018-01-01 14:20,-78.9462,43.1073,M,M,M,250.00,9.00,30.36,M,M,10.00,M,M,M,M,M
IAG,2018-01-01 14:25,-78.9462,43.1073,M,M,M,250.00,9.00,30.36,M,M,10.00,M,M,M,M,M
IAG,2018-01-01 14:30,-78.9462,43.1073,M,M,M,260.00,10.00,30.36,M,M,10.00,M,M,M,M,M
IAG,2018-01-01 14:35,-78.9462,43.1073,M,M,M,250.00,10.00,30.36,M,M,10.00,M,M,M,M,M
IAG,2018-01-01 14:40,-78.9462,43.1073,M,M,M,260.00,12.00,30.35,M,M,10.00,M,M,M,M,M
IAG,2018-01-01 14:45,-78.9462,43.1073,M,M,M,250.00,13.00,30.35,M,M,10.00,M,M,M,M,M
IAG,2018-01-01 14:50,-78.9462,43.1073,M,M,M,260.00,12.00,30.35,M,M,10.00,M,M,M,M,M
IAG,2018-01-01 14:53,-78.9462,43.1073,9.00,1.00,69.33,260.00,11.00,30.35,1030.70,0.00,10.00,M,M,M,M,M
IAG,2018-01-01 14:55,-78.9462,43.1073,M,M,M,250.00,12.00,30.35,M,M,10.00,M,M,M,M,M
IAG,2018-01-01 15:00,-78.9462,43.1073,M,M,M,260.00,12.00,30.35,M,M,10.00,M,M,M,M,M
IAG,2018-01-01 15:05,-78.9462,43.1073,M,M,M,260.00,12.00,30.35,M,M,10.00,M,M,M,M,M
IAG,2018-01-01 15:10,-78.9462,43.1073,M,M,M,250.00,11.00,30.35,M,M,10.00,M,M,M,M,M
IAG,2018-01-01 15:15,-78.9462,43.1073,M,M,M,260.00,14.00,30.35,M,M,10.00,M,M,M,M,M
IAG,2018-01-01 15:20,-78.9462,43.1073,M,M,M,260.00,14.00,30.35,M,M,10.00,M,11000.00,M,M,M
IAG,2018-01-01 15:25,-78.9462,43.1073,M,M,M,260.00,16.00,30.35,M,M,10.00,M,11000.00,M,M,M
IAG,2018-01-01 15:30,-78.9462,43.1073,M,M,M,M,M,30.35,M,M,10.00,M,10000.00,M,M,M
IAG,2018-01-01 15:35,-78.9462,43.1073,M,M,M,M,M,30.35,M,M,10.00,M,11000.00,M,M,M
IAG,2018-01-01 15:40,-78.9462,43.1073,M,M,M,250.00,17.00,30.35,M,M,10.00,M,6000.00,11000.00,M,M
IAG,2018-01-01 15:45,-78.9462,43.1073,M,M,M,M,M,30.35,M,M,10.00,M,6000.00,11000.00,M,M
IAG,2018-01-01 15:50,-78.9462,43.1073,M,M,M,260.00,16.00,30.35,M,M,10.00,M,11000.00,M,M,M
IAG,2018-01-01 15:53,-78.9462,43.1073,12.90,1.00,58.29,260.00,18.00,30.35,1030.40,0.00,10.00,M,11000.00,M,M,M
IAG,2018-01-01 15:55,-78.9462,43.1073,M,M,M,260.00,16.00,30.35,M,M,10.00,M,10000.00,M,M,M
IAG,2018-01-01 16:00,-78.9462,43.1073,M,M,M,260.00,18.00,30.35,M,M,10.00,M,11000.00,M,M,M
IAG,2018-01-01 16:05,-78.9462,43.1073,M,M,M,M,M,30.35,M,M,8.00,M,11000.00,M,M,M
IAG,2018-01-01 16:10,-78.9462,43.1073,M,M,M,260.00,17.00,30.34,M,M,8.00,M,10000.00,M,M,M
IAG,2018-01-01 16:15,-78.9462,43.1073,M,M,M,260.00,16.00,30.34,M,M,10.00,M,M,M,M,M
IAG,2018-01-01 16:20,-78.9462,43.1073,M,M,M,260.00,18.00,30.34,M,M,10.00,M,M,M,M,M
IAG,2018-01-01 16:25,-78.9462,43.1073,M,M,M,260.00,14.00,30.34,M,M,10.00,M,6000.00,M,M,M
IAG,2018-01-01 16:30,-78.9462,43.1073,M,M,M,260.00,18.00,30.34,M,M,10.00,M,6000.00,M,M,M
IAG,2018-01-01 16:35,-78.9462,43.1073,M,M,M,270.00,16.00,30.34,M,M,10.00,M,6000.00,M,M,M
IAG,2018-01-01 16:40,-78.9462,43.1073,M,M,M,260.00,14.00,30.33,M,M,10.00,M,6000.00,M,M,M
IAG,2018-01-01 16:45,-78.9462,43.1073,M,M,M,260.00,19.00,30.33,M,M,10.00,M,6000.00,M,M,M
IAG,2018-01-01 16:50,-78.9462,43.1073,M,M,M,260.00,15.00,30.33,M,M,10.00,M,6000.00,M,M,M
IAG,2018-01-01 16:53,-78.9462,43.1073,12.90,1.90,60.78,260.00,16.00,30.33,1029.70,0.00,10.00,M,6000.00,M,M,M
IAG,2018-01-01 16:55,-78.9462,43.1073,M,M,M,260.00,14.00,30.33,M,M,10.00,M,6000.00,M,M,M
IAG,2018-01-01 17:00,-78.9462,43.1073,M,M,M,260.00,16.00,30.32,M,M,10.00,M,6000.00,M,M,M
IAG,2018-01-01 17:05,-78.9462,43.1073,M,M,M,260.00,16.00,30.32,M,M,10.00,M,M,M,M,M
IAG,2018-01-01 17:10,-78.9462,43.1073,M,M,M,M,M,30.32,M,M,10.00,M,M,M,M,M
IAG,2018-01-01 17:15,-78.9462,43.1073,M,M,M,250.00,16.00,30.32,M,M,10.00,M,M,M,M,M
IAG,2018-01-01 17:20,-78.9462,43.1073,M,M,M,250.00,19.00,30.31,M,M,10.00,M,M,M,M,M
IAG,2018-01-01 17:25,-78.9462,43.1073,M,M,M,250.00,15.00,30.31,M,M,9.00,M,7999.00,M,M,M
IAG,2018-01-01 17:30,-78.9462,43.1073,M,M,M,250.00,15.00,30.31,M,M,9.00,M,7999.00,M,M,M
IAG,2018-01-01 17:35,-78.9462,43.1073,M,M,M,260.00,17.00,30.31,M,M,10.00,M,7000.00,7999.00,M,M
IAG,2018-01-01 17:40,-78.9462,43.1073,M,M,M,260.00,17.00,30.31,M,M,10.00,M,7000.00,7999.00,M,M
IAG,2018-01-01 17:45,-78.9462,43.1073,M,M,M,250.00,17.00,30.31,M,M,10.00,M,7999.00,M,M,M
IAG,2018-01-01 17:50,-78.9462,43.1073,M,M,M,260.00,18.00,30.30,M,M,10.00,M,7999.00,M,M,M
IAG,2018-01-01 17:53,-78.9462,43.1073,14.00,1.90,57.91,250.00,16.00,30.30,1029.00,0.00,9.00,M,8000.00,M,M,M
IAG,2018-01-01 17:55,-78.9462,43.1073,M,M,M,250.00,17.00,30.30,M,M,9.00,M,7999.00,M,M,M
IAG,2018-01-01 18:00,-78.9462,43.1073,M,M,M,260.00,18.00,30.30,M,M,10.00,M,7999.00,M,M,M
IAG,2018-01-01 18:05,-78.9462,43.1073,M,M,M,260.00,17.00,30.30,M,M,9.00,M,7999.00,M,M,M
IAG,2018-01-01 18:10,-78.9462,43.1073,M,M,M,260.00,18.00,30.30,M,M,9.00,M,7999.00,M,M,M
IAG,2018-01-01 18:15,-78.9462,43.1073,M,M,M,M,M,30.30,M,M,10.00,M,7999.00,M,M,M
IAG,2018-01-01 18:20,-78.9462,43.1073,M,M,M,260.00,15.00,30.30,M,M,10.00,M,7999.00,M,M,M
IAG,2018-01-01 18:25,-78.9462,43.1073,M,M,M,260.00,17.00,30.29,M,M,10.00,M,5500.00,7999.00,M,M
IAG,2018-01-01 18:30,-78.9462,43.1073,M,M,M,260.00,18.00,30.29,M,M,10.00,M,5500.00,7999.00,M,M
IAG,2018-01-01 18:35,-78.9462,43.1073,M,M,M,260.00,16.00,30.29,M,M,10.00,M,5500.00,7999.00,M,M
IAG,2018-01-01 18:40,-78.9462,43.1073,M,M,M,250.00,18.00,30.29,M,M,10.00,M,5500.00,7999.00,M,M
IAG,2018-01-01 18:45,-78.9462,43.1073,M,M,M,260.00,18.00,30.29,M,M,10.00,M,4900.00,5500.00,7999.00,M
IAG,2018-01-01 18:50,-78.9462,43.1073,M,M,M,260.00,16.00,30.29,M,M,10.00,M,5500.00,M,M,M
IAG,2018-01-01 18:53,-78.9462,43.1073,15.10,3.00,58.08,260.00,14.00,30.29,1028.40,0.00,10.00,24.00,4700.00,5500.00,M,M
IAG,2018-01-01 18:55,-78.9462,43.1073,M,M,M,260.00,15.00,30.29,M,M,10.00,M,4700.00,5500.00,M,M
IAG,2018-01-01 19:00,-78.9462,43.1073,M,M,M,250.00,18.00,30.29,M,M,10.00,M,4700.00,5500.00,M,M
IAG,2018-01-01 19:05,-78.9462,43.1073,M,M,M,240.00,17.00,30.29,M,M,10.00,M,4700.00,5500.00,9500.00,M
IAG,2018-01-01 19:10,-78.9462,43.1073,M,M,M,260.00,17.00,30.28,M,M,8.00,M,5000.00,6000.00,9000.00,M
IAG,2018-01-01 19:15,-78.9462,43.1073,M,M,M,260.00,17.00,30.29,M,M,8.00,M,5000.00,9000.00,M,M
IAG,2018-01-01 19:20,-78.9462,43.1073,M,M,M,250.00,17.00,30.29,M,M,9.00,M,5000.00,7500.00,9000.00,M
IAG,2018-01-01 19:25,-78.9462,43.1073,M,M,M,250.00,16.00,30.29,M,M,10.00,M,5000.00,7500.00,9000.00,M
IAG,2018-01-01 19:30,-78.9462,43.1073,M,M,M,250.00,18.00,30.29,M,M,10.00,M,5500.00,7000.00,9000.00,M
IAG,2018-01-01 19:35,-78.9462,43.1073,M,M,M,250.00,15.00,30.28,M,M,9.00,M,7000.00,9000.00,M,M
IAG,2018-01-01 19:40,-78.9462,43.1073,M,M,M,250.00,19.00,30.28,M,M,8.00,M,7500.00,9000.00,M,M
IAG,2018-01-01 19:45,-78.9462,43.1073,M,M,M,250.00,18.00,30.29,M,M,7.00,M,7500.00,9000.00,M,M
IAG,2018-01-01 19:50,-78.9462,43.1073,M,M,M,260.00,20.00,30.29,M,M,6.00,M,7500.00,9000.00,M,HZ
IAG,2018-01-01 19:53,-78.9462,43.1073,15.10,1.90,55.19,260.00,18.00,30.29,1028.20,0.00,7.00,26.00,7000.00,9000.00,M,M
IAG,2018-01-01 19:55,-78.9462,43.1073,M,M,M,250.00,18.00,30.29,M,M,7.00,M,9000.00,M,M,M
IAG,2018-01-01 20:00,-78.9462,43.1073,M,M,M,250.00,19.00,30.29,M,M,9.00,M,9000.00,M,M,M
IAG,2018-01-01 20:05,-78.9462,43.1073,M,M,M,250.00,18.00,30.29,M,M,9.00,M,9000.00,M,M,M
IAG,2018-01-01 20:10,-78.9462,43.1073,M,M,M,260.00,19.00,30.29,M,M,7.00,M,9000.00,M,M,M
IAG,2018-01-01 20:15,-78.9462,43.1073,M,M,M,260.00,19.00,30.29,M,M,6.00,M,9000.00,M,M,HZ
IAG,2018-01-01 20:20,-78.9462,43.1073,M,M,M,250.00,17.00,30.29,M,M,8.00,M,9000.00,M,M,M
IAG,2018-01-01 20:25,-78.9462,43.1073,M,M,M,260.00,18.00,30.29,M,M,7.00,M,9500.00,M,M,M
IAG,2018-01-01 20:30,-78.9462,43.1073,M,M,M,260.00,20.00,30.30,M,M,6.00,M,9000.00,M,M,HZ
IAG,2018-01-01 20:35,-78.9462,43.1073,M,M,M,M,M,30.30,M,M,6.00,M,9000.00,M,M,HZ
IAG,2018-01-01 20:40,-78.9462,43.1073,M,M,M,250.00,17.00,30.30,M,M,6.00,M,6000.00,9000.00,M,HZ
IAG,2018-01-01 20:45,-78.9462,43.1073,M,M,M,250.00,19.00,30.30,M,M,8.00,M,6000.00,9000.00,M,M
IAG,2018-01-01 20:50,-78.9462,43.1073,M,M,M,260.00,19.00,30.30,M,M,8.00,M,5500.00,9000.00,M,M
IAG,2018-01-01 20:53,-78.9462,43.1073,14.00,1.90,57.91,260.00,17.00,30.30,1028.80,0.00,8.00,M,5500.00,9000.00,M,M
IAG,2018-01-01 20:55,-78.9462,43.1073,M,M,M,250.00,17.00,30.30,M,M,8.00,M,5500.00,9000.00,M,M
IAG,2018-01-01 21:00,-78.9462,43.1073,M,M,M,260.00,17.00,30.30,M,M,9.00,M,5500.00,9000.00,M,M
IAG,2018-01-01 21:05,-78.9462,43.1073,M,M,M,260.00,20.00,30.30,M,M,7.00,M,5500.00,M,M,M
IAG,2018-01-01 21:10,-78.9462,43.1073,M,M,M,250.00,15.00,30.30,M,M,7.00,M,5500.00,M,M,M
IAG,2018-01-01 21:15,-78.9462,43.1073,M,M,M,250.00,15.00,30.30,M,M,10.00,M,5500.00,10000.00,M,M
IAG,2018-01-01 21:20,-78.9462,43.1073,M,M,M,250.00,19.00,30.30,M,M,10.00,M,10000.00,M,M,M
IAG,2018-01-01 21:25,-78.9462,43.1073,M,M,M,250.00,14.00,30.30,M,M,10.00,M,M,M,M,M
IAG,2018-01-01 21:30,-78.9462,43.1073,M,M,M,250.00,16.00,30.30,M,M,10.00,M,M,M,M,M
IAG,2018-01-01 21:35,-78.9462,43.1073,M,M,M,250.00,15.00,30.30,M,M,9.00,M,M,M,M,M
IAG,2018-01-01 21:40,-78.9462,43.1073,M,M,M,M,M,30.30,M,M,8.00,M,2600.00,M,M,M
IAG,2018-01-01 21:45,-78.9462,43.1073,M,M,M,260.00,16.00,30.30,M,M,8.00,M,2400.00,M,M,M
IAG,2018-01-01 21:50,-78.9462,43.1073,M,M,M,M,M,30.31,M,M,7.00,M,2400.00,M,M,M
IAG,2018-01-01 21:53,-78.9462,43.1073,12.90,1.90,60.78,260.00,21.00,30.31,1029.10,0.00,6.00,29.00,2400.00,M,M,HZ
IAG,2018-01-01 21:55,-78.9462,43.1073,M,M,M,M,M,30.31,M,M,5.00,M,2400.00,M,M,HZ
IAG,2018-01-01 22:00,-78.9462,43.1073,M,M,M,M,M,30.31,M,M,3.50,M,2400.00,M,M,HZ
IAG,2018-01-01 22:05,-78.9462,43.1073,M,M,M,260.00,20.00,30.31,M,M,2.00,M,2200.00,M,M,-SN
IAG,2018-01-01 22:06,-78.9462,43.1073,12.90,3.00,63.96,260.00,22.00,30.31,M,T,1.75,28.00,2200.00,M,M,-SN
IAG,2018-01-01 22:10,-78.9462,43.1073,M,M,M,M,M,30.31,M,M,1.00,M,1900.00,M,M,-SN
IAG,2018-01-01 22:15,-78.9462,43.1073,M,M,M,250.00,19.00,30.31,M,M,1.00,M,1900.00,M,M,-SN
IAG,2018-01-01 22:16,-78.9462,43.1073,12.90,3.90,66.67,250.00,17.00,30.31,M,T,1.00,27.00,1900.00,M,M,-SN
IAG,2018-01-01 22:20,-78.9462,43.1073,M,M,M,260.00,18.00,30.31,M,M,1.00,M,2100.00,M,M,-SN
IAG,2018-01-01 22:25,-78.9462,43.1073,M,M,M,M,M,30.31,M,M,1.00,M,2100.00,M,M,-SN
IAG,2018-01-01 22:30,-78.9462,43.1073,M,M,M,260.00,17.00,30.32,M,M,1.00,M,2100.00,M,M,-SN
IAG,2018-01-01 22:35,-78.9462,43.1073,M,M,M,260.00,17.00,30.32,M,M,1.00,M,2100.00,M,M,-SN
IAG,2018-01-01 22:40,-78.9462,43.1073,M,M,M,M,M,30.32,M,M,1.00,M,2300.00,M,M,-SN
IAG,2018-01-01 22:45,-78.9462,43.1073,M,M,M,M,M,30.32,M,M,1.00,M,2300.00,4600.00,M,-SN
IAG,2018-01-01 22:50,-78.9462,43.1073,M,M,M,250.00,18.00,30.33,M,M,0.75,M,2300.00,3300.00,4600.00,-SN
IAG,2018-01-01 22:53,-78.9462,43.1073,12.90,7.00,76.82,250.00,17.00,30.33,1029.80,T,0.75,M,2500.00,3300.00,4600.00,-SN
IAG,2018-01-01 22:55,-78.9462,43.1073,M,M,M,M,M,30.33,M,M,0.75,M,2500.00,3300.00,4300.00,-SN
IAG,2018-01-01 23:00,-78.9462,43.1073,M,M,M,M,M,30.33,M,M,0.75,M,2500.00,3800.00,4500.00,-SN
IAG,2018-01-01 23:05,-78.9462,43.1073,M,M,M,250.00,16.00,30.33,M,M,0.75,M,2800.00,3800.00,4500.00,-SN
IAG,2018-01-01 23:10,-78.9462,43.1073,M,M,M,250.00,17.00,30.33,M,M,0.75,M,2800.00,3800.00,4500.00,-SN
IAG,2018-01-01 23:15,-78.9462,43.1073,M,M,M,250.00,16.00,30.33,M,M,0.75,M,2800.00,3800.00,4500.00,-SN
IAG,2018-01-01 23:20,-78.9462,43.1073,M,M,M,250.00,17.00,30.34,M,M,0.75,M,2800.00,3800.00,4500.00,-SN
IAG,2018-01-01 23:25,-78.9462,43.1073,M,M,M,250.00,13.00,30.34,M,M,0.75,M,2800.00,3800.00,4500.00,-SN
IAG,2018-01-01 23:30,-78.9462,43.1073,M,M,M,250.00,16.00,30.34,M,M,0.75,M,2800.00,3800.00,4500.00,-SN
IAG,2018-01-01 23:35,-78.9462,43.1073,M,M,M,250.00,17.00,30.34,M,M,0.75,M,2800.00,3800.00,4500.00,-SN
IAG,2018-01-01 23:40,-78.9462,43.1073,M,M,M,250.00,17.00,30.34,M,M,0.75,M,2800.00,3800.00,4500.00,-SN
IAG,2018-01-01 23:45,-78.9462,43.1073,M,M,M,M,M,30.35,M,M,0.75,M,2800.00,3800.00,4500.00,-SN
IAG,2018-01-01 23:50,-78.9462,43.1073,M,M,M,260.00,17.00,30.35,M,M,1.75,M,2800.00,3600.00,M,-SN
IAG,2018-01-01 23:53,-78.9462,43.1073,12.90,7.00,76.82,260.00,17.00,30.35,1030.50,T,1.50,26.00,2800.00,3600.00,M,-SN
IAG,2018-01-01 23:55,-78.9462,43.1073,M,M,M,260.00,17.00,30.35,M,M,1.75,M,2800.00,3399.00,M,-SN
IAG,2018-01-02 00:00,-78.9462,43.1073,M,M,M,260.00,17.00,30.35,M,M,1.50,M,2300.00,3000.00,3700.00,-SN
IAG,2018-01-02 00:05,-78.9462,43.1073,M,M,M,260.00,16.00,30.35,M,M,1.50,M,2300.00,3000.00,3700.00,-SN
IAG,2018-01-02 00:10,-78.9462,43.1073,M,M,M,260.00,16.00,30.35,M,M,1.75,M,2300.00,3000.00,3700.00,-SN
IAG,2018-01-02 00:15,-78.9462,43.1073,M,M,M,260.00,16.00,30.35,M,M,1.75,M,2300.00,3000.00,3700.00,-SN
IAG,2018-01-02 00:20,-78.9462,43.1073,M,M,M,260.00,14.00,30.35,M,M,1.75,M,2300.00,3000.00,3700.00,-SN
IAG,2018-01-02 00:25,-78.9462,43.1073,M,M,M,260.00,16.00,30.36,M,M,1.75,M,2300.00,3000.00,3700.00,-SN
IAG,2018-01-02 00:30,-78.9462,43.1073,M,M,M,260.00,15.00,30.36,M,M,1.75,M,2300.00,3000.00,3700.00,-SN
IAG,2018-01-02 00:35,-78.9462,43.1073,M,M,M,260.00,15.00,30.36,M,M,1.75,M,2300.00,3000.00,3700.00,-SN
IAG,2018-01-02 00:40,-78.9462,43.1073,M,M,M,260.00,15.00,30.36,M,M,2.00,M,2500.00,3000.00,M,-SN
IAG,2018-01-02 00:43,-78.9462,43.1073,12.90,7.00,76.82,260.00,14.00,30.36,M,T,3.00,M,2200.00,2800.00,M,-SN
IAG,2018-01-02 00:45,-78.9462,43.1073,M,M,M,260.00,15.00,30.36,M,M,3.00,M,2200.00,2800.00,M,-SN
IAG,2018-01-02 00:50,-78.9462,43.1073,M,M,M,260.00,15.00,30.36,M,M,3.50,M,1999.00,2800.00,M,-SN
IAG,2018-01-02 00:53,-78.9462,43.1073,12.90,7.00,76.82,270.00,15.00,30.36,1030.80,T,3.00,M,1800.00,2600.00,M,-SN
IAG,2018-01-02 00:55,-78.9462,43.1073,M,M,M,260.00,16.00,30.36,M,M,3.00,M,1800.00,2600.00,M,-SN
IAG,2018-01-02 01:00,-78.9462,43.1073,M,M,M,270.00,13.00,30.36,M,M,3.00,M,1800.00,2400.00,M,-SN
IAG,2018-01-02 01:05,-78.9462,43.1073,M,M,M,270.00,14.00,30.36,M,M,4.00,M,1800.00,2400.00,M,-SN
IAG,2018-01-02 01:10,-78.9462,43.1073,M,M,M,260.00,16.00,30.36,M,M,4.00,M,1800.00,M,M,-SN
IAG,2018-01-02 01:15,-78.9462,43.1073,M,M,M,270.00,13.00,30.37,M,M,4.00,M,1800.00,2400.00,M,-SN
IAG,2018-01-02 01:20,-78.9462,43.1073,M,M,M,260.00,13.00,30.37,M,M,3.50,M,1800.00,2400.00,M,-SN
IAG,2018-01-02 01:25,-78.9462,43.1073,M,M,M,260.00,15.00,30.37,M,M,2.50,M,1699.00,2400.00,M,-SN
IAG,2018-01-02 01:30,-78.9462,43.1073,M,M,M,260.00,12.00,30.37,M,M,2.00,M,1699.00,2400.00,M,-SN
IAG,2018-01-02 01:31,-78.9462,43.1073,12.90,6.10,73.74,260.00,12.00,30.37,M,T,2.00,M,1700.00,2400.00,M,-SN
IAG,2018-01-02 01:35,-78.9462,43.1073,M,M,M,260.00,14.00,30.37,M,M,2.00,M,2100.00,M,M,-SN
IAG,2018-01-02 01:40,-78.9462,43.1073,M,M,M,260.00,13.00,30.38,M,M,2.50,M,2300.00,M,M,-SN
IAG,2018-01-02 01:45,-78.9462,43.1073,M,M,M,260.00,12.00,30.38,M,M,2.50,M,2300.00,M,M,-SN
IAG,2018-01-02 01:50,-78.9462,43.1073,M,M,M,260.00,12.00,30.38,M,M,3.00,M,2300.00,M,M,-SN
IAG,2018-01-02 01:53,-78.9462,43.1073,12.90,6.10,73.74,260.00,15.00,30.38,1031.50,T,3.00,M,2300.00,M,M,-SN
IAG,2018-01-02 01:55,-78.9462,43.1073,M,M,M,260.00,14.00,30.38,M,M,3.00,M,2300.00,M,M,-SN
IAG,2018-01-02 02:00,-78.9462,43.1073,M,M,M,250.00,13.00,30.38,M,M,4.00,M,2300.00,2700.00,M,-SN
IAG,2018-01-02 02:05,-78.9462,43.1073,M,M,M,260.00,12.00,30.38,M,M,4.00,M,2300.00,M,M,-SN
IAG,2018-01-02 02:10,-78.9462,43.1073,M,M,M,260.00,15.00,30.38,M,M,5.00,M,2100.00,2600.00,M,HZ
IAG,2018-01-02 02:15,-78.9462,43.1073,M,M,M,260.00,12.00,30.38,M,M,6.00,M,2100.00,2600.00,M,HZ
IAG,2018-01-02 02:20,-78.9462,43.1073,M,M,M,270.00,11.00,30.38,M,M,7.00,M,2300.00,M,M,M
IAG,2018-01-02 02:25,-78.9462,43.1073,M,M,M,270.00,11.00,30.39,M,M,10.00,M,2300.00,M,M,M
IAG,2018-01-02 02:30,-78.9462,43.1073,M,M,M,260.00,11.00,30.39,M,M,10.00,M,2300.00,M,M,M
IAG,2018-01-02 02:35,-78.9462,43.1073,M,M,M,260.00,13.00,30.39,M,M,8.00,M,2300.00,M,M,-SN
IAG,2018-01-02 02:40,-78.9462,43.1073,M,M,M,260.00,11.00,30.39,M,M,5.00,M,2300.00,M,M,-SN
IAG,2018-01-02 02:45,-78.9462,43.1073,M,M,M,260.00,12.00,30.39,M,M,4.00,M,2300.00,M,M,-SN
IAG,2018-01-02 02:50,-78.9462,43.1073,M,M,M,260.00,13.00,30.39,M,M,3.00,M,2300.00,M,M,-SN
IAG,2018-01-02 02:53,-78.9462,43.1073,12.90,6.10,73.74,260.00,12.00,30.39,1031.80,T,3.00,M,2300.00,2800.00,M,-SN
IAG,2018-01-02 02:55,-78.9462,43.1073,M,M,M,260.00,13.00,30.39,M,M,3.00,M,2300.00,2800.00,M,-SN
IAG,2018-01-02 03:00,-78.9462,43.1073,M,M,M,250.00,11.00,30.39,M,M,3.50,M,2300.00,2800.00,M,-SN
IAG,2018-01-02 03:05,-78.9462,43.1073,M,M,M,260.00,12.00,30.39,M,M,3.00,M,2300.00,M,M,-SN
IAG,2018-01-02 03:10,-78.9462,43.1073,M,M,M,260.00,11.00,30.39,M,M,2.50,M,2300.00,M,M,-SN
IAG,2018-01-02 03:15,-78.9462,43.1073,M,M,M,260.00,12.00,30.39,M,M,2.00,M,2100.00,M,M,-SN
IAG,2018-01-02 03:20,-78.9462,43.1073,M,M,M,260.00,12.00,30.39,M,M,2.00,M,1900.00,2400.00,M,-SN
IAG,2018-01-02 03:25,-78.9462,43.1073,M,M,M,260.00,11.00,30.39,M,M,2.00,M,2100.00,M,M,-SN
IAG,2018-01-02 03:30,-78.9462,43.1073,M,M,M,250.00,12.00,30.39,M,M,2.00,M,1900.00,2700.00,M,-SN
IAG,2018-01-02 03:35,-78.9462,43.1073,M,M,M,250.00,12.00,30.39,M,M,2.00,M,2300.00,M,M,-SN
IAG,2018-01-02 03:40,-78.9462,43.1073,M,M,M,250.00,11.00,30.39,M,M,2.00,M,2200.00,2700.00,M,-SN
IAG,2018-01-02 03:45,-78.9462,43.1073,M,M,M,260.00,11.00,30.39,M,M,2.00,M,2200.00,2700.00,M,-SN
IAG,2018-01-02 03:50,-78.9462,43.1073,M,M,M,260.00,12.00,30.39,M,M,1.25,M,1800.00,2700.00,M,-SN
IAG,2018-01-02 03:53,-78.9462,43.1073,12.90,6.10,73.74,260.00,10.00,30.39,1031.70,T,1.25,M,1800.00,2600.00,M,-SN
IAG,2018-01-02 03:55,-78.9462,43.1073,M,M,M,260.00,10.00,30.39,M,M,1.25,M,1800.00,2600.00,M,-SN
IAG,2018-01-02 04:00,-78.9462,43.1073,M,M,M,260.00,11.00,30.39,M,M,1.00,M,1699.00,2400.00,M,-SN
IAG,2018-01-02 04:05,-78.9462,43.1073,12.90,7.00,76.82,260.00,11.00,30.39,M,T,1.00,M,1500.00,2700.00,M,-SN
IAG,2018-01-02 04:10,-78.9462,43.1073,M,M,M,260.00,10.00,30.39,M,M,1.25,M,1500.00,2700.00,M,-SN
IAG,2018-01-02 04:14,-78.9462,43.1073,12.90,7.00,76.82,250.00,12.00,30.39,M,T,1.25,M,1500.00,M,M,-SN
IAG,2018-01-02 04:15,-78.9462,43.1073,M,M,M,260.00,12.00,30.39,M,M,1.25,M,1500.00,2800.00,M,-SN
IAG,2018-01-02 04:20,-78.9462,43.1073,M,M,M,260.00,14.00,30.39,M,M,1.50,M,1699.00,3500.00,M,-SN
IAG,2018-01-02 04:25,-78.9462,43.1073,12.90,6.10,73.74,260.00,11.00,30.39,M,T,1.50,M,1700.00,3500.00,M,-SN
IAG,2018-01-02 04:30,-78.9462,43.1073,M,M,M,250.00,12.00,30.39,M,M,1.75,M,1699.00,3500.00,M,-SN
IAG,2018-01-02 04:35,-78.9462,43.1073,M,M,M,250.00,11.00,30.39,M,M,1.75,M,1900.00,3500.00,M,-SN
IAG,2018-01-02 04:40,-78.9462,43.1073,M,M,M,250.00,11.00,30.39,M,M,2.00,M,1900.00,3500.00,4100.00,-SN
IAG,2018-01-02 04:43,-78.9462,43.1073,12.90,7.00,76.82,250.00,11.00,30.38,M,T,2.50,M,1900.00,3500.00,4100.00,-SN
IAG,2018-01-02 04:45,-78.9462,43.1073,M,M,M,250.00,11.00,30.38,M,M,2.50,M,1900.00,3500.00,4100.00,-SN
IAG,2018-01-02 04:50,-78.9462,43.1073,M,M,M,250.00,12.00,30.39,M,M,3.50,M,1900.00,3300.00,4100.00,-SN
IAG,2018-01-02 04:53,-78.9462,43.1073,12.90,7.00,76.82,250.00,12.00,30.38,1031.50,T,4.00,M,2000.00,3300.00,4200.00,-SN
IAG,2018-01-02 04:55,-78.9462,43.1073,M,M,M,250.00,13.00,30.39,M,M,4.00,M,1999.00,3300.00,4200.00,-SN
IAG,2018-01-02 04:58,-78.9462,43.1073,12.90,7.00,76.82,250.00,11.00,30.39,M,T,2.50,M,2200.00,3300.00,4200.00,-SN
IAG,2018-01-02 05:00,-78.9462,43.1073,M,M,M,250.00,13.00,30.38,M,M,2.00,M,2400.00,3200.00,4200.00,-SN
IAG,2018-01-02 05:05,-78.9462,43.1073,M,M,M,250.00,12.00,30.38,M,M,1.75,M,2400.00,4200.00,M,-SN
IAG,2018-01-02 05:10,-78.9462,43.1073,M,M,M,250.00,13.00,30.38,M,M,2.00,M,2400.00,4200.00,M,-SN
IAG,2018-01-02 05:15,-78.9462,43.1073,M,M,M,250.00,12.00,30.38,M,M,1.75,M,2800.00,4200.00,M,-SN
IAG,2018-01-02 05:17,-78.9462,43.1073,12.90,7.00,76.82,250.00,13.00,30.38,M,T,2.00,M,3000.00,4200.00,M,-SN
IAG,2018-01-02 05:20,-78.9462,43.1073,M,M,M,250.00,12.00,30.38,M,M,2.50,M,3000.00,4900.00,M,-SN
IAG,2018-01-02 05:25,-78.9462,43.1073,M,M,M,250.00,15.00,30.38,M,M,5.00,M,3200.00,5000.00,M,-SN
IAG,2018-01-02 05:27,-78.9462,43.1073,12.90,7.00,76.82,250.00,15.00,30.38,M,T,6.00,M,3200.00,5000.00,M,HZ
IAG,2018-01-02 05:30,-78.9462,43.1073,M,M,M,260.00,13.00,30.38,M,M,6.00,M,3399.00,5000.00,M,HZ
IAG,2018-01-02 05:35,-78.9462,43.1073,M,M,M,250.00,16.00,30.37,M,M,7.00,M,3700.00,5000.00,M,M
IAG,2018-01-02 05:40,-78.9462,43.1073,M,M,M,260.00,16.00,30.37,M,M,5.00,M,4300.00,5000.00,M,HZ
IAG,2018-01-02 05:45,-78.9462,43.1073,M,M,M,M,M,30.37,M,M,4.00,M,4300.00,5000.00,M,HZ
IAG,2018-01-02 05:50,-78.9462,43.1073,M,M,M,260.00,15.00,30.37,M,M,4.00,M,4500.00,M,M,HZ
IAG,2018-01-02 05:53,-78.9462,43.1073,12.90,6.10,73.74,260.00,16.00,30.37,1031.00,T,4.00,M,4200.00,M,M,HZ
IAG,2018-01-02 05:55,-78.9462,43.1073,M,M,M,260.00,14.00,30.37,M,M,4.00,M,4200.00,M,M,HZ
IAG,2018-01-02 06:00,-78.9462,43.1073,M,M,M,260.00,13.00,30.37,M,M,6.00,M,4200.00,M,M,HZ
IAG,2018-01-02 06:05,-78.9462,43.1073,M,M,M,260.00,15.00,30.37,M,M,6.00,M,3999.00,M,M,HZ
IAG,2018-01-02 06:10,-78.9462,43.1073,M,M,M,260.00,14.00,30.37,M,M,6.00,M,3999.00,M,M,HZ
IAG,2018-01-02 06:15,-78.9462,43.1073,M,M,M,260.00,13.00,30.36,M,M,6.00,M,3999.00,M,M,HZ
IAG,2018-01-02 06:20,-78.9462,43.1073,M,M,M,260.00,16.00,30.36,M,M,5.00,M,3999.00,M,M,-SN
IAG,2018-01-02 06:25,-78.9462,43.1073,M,M,M,260.00,16.00,30.35,M,M,4.00,M,3700.00,M,M,-SN
IAG,2018-01-02 06:30,-78.9462,43.1073,M,M,M,260.00,16.00,30.36,M,M,6.00,M,3500.00,M,M,HZ
IAG,2018-01-02 06:35,-78.9462,43.1073,M,M,M,260.00,15.00,30.35,M,M,6.00,M,3500.00,5000.00,M,HZ
IAG,2018-01-02 06:40,-78.9462,43.1073,M,M,M,M,M,30.36,M,M,4.00,M,3500.00,4100.00,5000.00,-SN
IAG,2018-01-02 06:45,-78.9462,43.1073,M,M,M,260.00,13.00,30.36,M,M,4.00,M,3500.00,M,M,-SN
IAG,2018-01-02 06:50,-78.9462,43.1073,M,M,M,270.00,12.00,30.36,M,M,5.00,M,3300.00,3999.00,M,-SN
IAG,2018-01-02 06:53,-78.9462,43.1073,14.00,6.10,70.26,260.00,13.00,30.36,1030.50,T,6.00,M,3300.00,4000.00,M,HZ
IAG,2018-01-02 06:55,-78.9462,43.1073,M,M,M,260.00,13.00,30.36,M,M,7.00,M,3300.00,3999.00,M,M
IAG,2018-01-02 07:00,-78.9462,43.1073,M,M,M,260.00,15.00,30.36,M,M,7.00,M,2600.00,3300.00,3999.00,-SN
IAG,2018-01-02 07:05,-78.9462,43.1073,M,M,M,270.00,13.00,30.35,M,M,5.00,M,2800.00,3800.00,M,-SN
IAG,2018-01-02 07:10,-78.9462,43.1073,14.00,6.10,70.26,260.00,13.00,30.35,M,T,5.00,M,2800.00,3600.00,M,-SN
IAG,2018-01-02 07:15,-78.9462,43.1073,M,M,M,260.00,12.00,30.36,M,M,4.00,M,2900.00,M,M,-SN
IAG,2018-01-02 07:20,-78.9462,43.1073,M,M,M,260.00,14.00,30.36,M,M,3.00,M,2900.00,M,M,-SN
IAG,2018-01-02 07:25,-78.9462,43.1073,M,M,M,260.00,12.00,30.36,M,M,3.00,M,2100.00,2700.00,3999.00,-SN
IAG,2018-01-02 07:30,-78.9462,43.1073,M,M,M,270.00,13.00,30.36,M,M,3.00,M,1900.00,2700.00,M,-SN
IAG,2018-01-02 07:35,-78.9462,43.1073,15.10,7.00,69.75,270.00,16.00,30.36,M,T,1.75,M,1700.00,2700.00,4100.00,-SN
IAG,2018-01-02 07:40,-78.9462,43.1073,M,M,M,260.00,13.00,30.36,M,M,2.00,M,1699.00,2900.00,4100.00,-SN
IAG,2018-01-02 07:44,-78.9462,43.1073,15.10,7.00,69.75,270.00,16.00,30.36,M,T,2.50,M,1800.00,3100.00,4100.00,-SN
IAG,2018-01-02 07:45,-78.9462,43.1073,M,M,M,270.00,15.00,30.36,M,M,2.50,M,1800.00,3100.00,4100.00,-SN
IAG,2018-01-02 07:50,-78.9462,43.1073,M,M,M,270.00,15.00,30.36,M,M,3.50,M,1800.00,3300.00,M,-SN
IAG,2018-01-02 07:53,-78.9462,43.1073,15.10,7.00,69.75,260.00,14.00,30.36,1030.60,T,3.00,M,1800.00,3500.00,M,-SN
IAG,2018-01-02 07:55,-78.9462,43.1073,M,M,M,270.00,16.00,30.36,M,M,3.00,M,1800.00,3500.00,4100.00,-SN
IAG,2018-01-02 08:00,-78.9462,43.1073,M,M,M,260.00,15.00,30.36,M,M,3.00,M,2600.00,3700.00,M,-SN
IAG,2018-01-02 08:05,-78.9462,43.1073,M,M,M,260.00,15.00,30.36,M,M,3.50,20.00,3600.00,M,M,-SN
IAG,2018-01-02 08:10,-78.9462,43.1073,M,M,M,260.00,17.00,30.36,M,M,2.50,M,3600.00,M,M,-SN
IAG,2018-01-02 08:15,-78.9462,43.1073,15.10,7.00,69.75,260.00,18.00,30.35,M,T,2.00,M,2600.00,3600.00,M,-SN
IAG,2018-01-02 08:20,-78.9462,43.1073,M,M,M,260.00,16.00,30.35,M,M,1.50,M,2100.00,3800.00,M,-SN
IAG,2018-01-02 08:22,-78.9462,43.1073,15.10,7.00,69.75,260.00,17.00,30.35,M,T,1.50,M,1900.00,3800.00,M,-SN
IAG,2018-01-02 08:25,-78.9462,43.1073,M,M,M,M,M,30.35,M,M,1.25,M,2600.00,3800.00,M,-SN
IAG,2018-01-02 08:30,-78.9462,43.1073,M,M,M,M,M,30.36,M,M,1.50,M,3300.00,M,M,-SN
IAG,2018-01-02 08:34,-78.9462,43.1073,15.10,7.00,69.75,260.00,16.00,30.36,M,T,2.00,24.00,2700.00,3600.00,6000.00,-SN
IAG,2018-01-02 08:35,-78.9462,43.1073,M,M,M,M,M,30.35,M,M,2.00,M,3300.00,6000.00,M,-SN
IAG,2018-01-02 08:40,-78.9462,43.1073,M,M,M,M,M,30.35,M,M,2.00,M,3000.00,3500.00,6000.00,-SN
IAG,2018-01-02 08:45,-78.9462,43.1073,M,M,M,M,M,30.35,M,T,2.00,M,3800.00,6000.00,M,UP
IAG,2018-01-02 08:50,-78.9462,43.1073,M,M,M,260.00,19.00,30.35,M,T,2.50,M,3000.00,4300.00,6000.00,UP
IAG,2018-01-02 08:53,-78.9462,43.1073,16.00,7.00,67.08,260.00,19.00,30.35,1030.30,T,3.00,M,3000.00,4300.00,6000.00,HZ
IAG,2018-01-02 08:55,-78.9462,43.1073,M,M,M,260.00,20.00,30.35,M,M,2.50,M,3000.00,4300.00,6000.00,HZ
IAG,2018-01-02 09:00,-78.9462,43.1073,M,M,M,M,M,30.36,M,M,3.00,M,3000.00,4300.00,6000.00,HZ
IAG,2018-01-02 09:05,-78.9462,43.1073,M,M,M,260.00,19.00,30.36,M,M,2.50,26.00,4300.00,5500.00,M,HZ
IAG,2018-01-02 09:10,-78.9462,43.1073,M,M,M,260.00,19.00,30.36,M,T,2.00,M,4100.00,5000.00,M,UP
IAG,2018-01-02 09:11,-78.9462,43.1073,15.10,7.00,69.75,270.00,19.00,30.36,M,T,2.00,26.00,3900.00,5000.00,M,UP
IAG,2018-01-02 09:15,-78.9462,43.1073,M,M,M,270.00,17.00,30.36,M,T,2.00,M,3900.00,M,M,UP
IAG,2018-01-02 09:20,-78.9462,43.1073,M,M,M,270.00,16.00,30.35,M,M,3.00,M,3900.00,4900.00,M,HZ
IAG,2018-01-02 09:25,-78.9462,43.1073,15.10,7.00,69.75,270.00,18.00,30.35,M,T,3.00,M,3700.00,4700.00,M,HZ
IAG,2018-01-02 09:30,-78.9462,43.1073,M,M,M,M,M,30.35,M,M,3.00,M,3700.00,4900.00,M,HZ
IAG,2018-01-02 09:35,-78.9462,43.1073,M,M,M,260.00,17.00,30.35,M,T,2.50,M,3700.00,4900.00,M,UP
IAG,2018-01-02 09:37,-78.9462,43.1073,15.10,7.00,69.75,260.00,19.00,30.35,M,T,2.50,26.00,3700.00,4900.00,M,UP
IAG,2018-01-02 09:40,-78.9462,43.1073,M,M,M,270.00,16.00,30.35,M,T,2.50,M,3700.00,4900.00,M,UP
IAG,2018-01-02 09:45,-78.9462,43.1073,M,M,M,260.00,17.00,30.35,M,M,4.00,M,3700.00,5000.00,M,HZ
IAG,2018-01-02 09:48,-78.9462,43.1073,15.80,6.80,67.05,260.00,19.00,30.36,M,T,4.00,M,3700.00,5000.00,6500.00,HZ
IAG,2018-01-02 09:50,-78.9462,43.1073,M,M,M,270.00,16.00,30.35,M,M,4.00,M,3700.00,5000.00,6500.00,HZ
IAG,2018-01-02 09:53,-78.9462,43.1073,15.10,6.10,66.96,260.00,16.00,30.35,1030.30,T,4.00,M,3500.00,5000.00,6000.00,HZ
IAG,2018-01-02 09:55,-78.9462,43.1073,M,M,M,M,M,30.35,M,M,3.50,M,5500.00,M,M,HZ
IAG,2018-01-02 10:00,-78.9462,43.1073,M,M,M,M,M,30.35,M,M,3.00,M,5500.00,M,M,HZ
IAG,2018-01-02 10:05,-78.9462,43.1073,M,M,M,260.00,16.00,30.35,M,M,4.00,M,6000.00,M,M,HZ
IAG,2018-01-02 10:10,-78.9462,43.1073,M,M,M,260.00,14.00,30.35,M,M,7.00,M,5000.00,6000.00,M,M
IAG,2018-01-02 10:15,-78.9462,43.1073,M,M,M,260.00,15.00,30.35,M,M,8.00,M,3399.00,5500.00,M,M
IAG,2018-01-02 10:20,-78.9462,43.1073,M,M,M,270.00,17.00,30.36,M,M,7.00,M,3399.00,6000.00,M,M
IAG,2018-01-02 10:25,-78.9462,43.1073,M,M,M,260.00,14.00,30.36,M,M,7.00,M,3399.00,5500.00,M,M
IAG,2018-01-02 10:30,-78.9462,43.1073,M,M,M,250.00,15.00,30.35,M,M,7.00,M,3399.00,5000.00,6000.00,M
IAG,2018-01-02 10:35,-78.9462,43.1073,M,M,M,260.00,15.00,30.35,M,M,8.00,M,3399.00,5000.00,M,M
IAG,2018-01-02 10:40,-78.9462,43.1073,M,M,M,250.00,17.00,30.35,M,M,9.00,M,3600.00,5000.00,M,M
IAG,2018-01-02 10:45,-78.9462,43.1073,M,M,M,260.00,15.00,30.35,M,M,7.00,M,3399.00,4300.00,5000.00,M
IAG,2018-01-02 10:50,-78.9462,43.1073,M,M,M,260.00,16.00,30.35,M,M,7.00,M,4300.00,5000.00,M,M
IAG,2018-01-02 10:53,-78.9462,43.1073,15.10,6.10,66.96,260.00,18.00,30.35,1030.20,0.00,8.00,M,4100.00,5000.00,M,M
IAG,2018-01-02 10:55,-78.9462,43.1073,M,M,M,260.00,16.00,30.35,M,M,7.00,M,4100.00,5000.00,M,M
IAG,2018-01-02 11:00,-78.9462,43.1073,M,M,M,260.00,16.00,30.35,M,M,7.00,M,4100.00,5000.00,M,M
IAG,2018-01-02 11:05,-78.9462,43.1073,M,M,M,260.00,14.00,30.35,M,M,9.00,M,4100.00,M,M,M
IAG,2018-01-02 11:10,-78.9462,43.1073,M,M,M,260.00,16.00,30.34,M,M,9.00,M,4100.00,M,M,M
IAG,2018-01-02 11:15,-78.9462,43.1073,M,M,M,260.00,13.00,30.34,M,M,9.00,M,4100.00,5000.00,M,M
IAG,2018-01-02 11:20,-78.9462,43.1073,M,M,M,260.00,12.00,30.34,M,M,10.00,M,4300.00,5500.00,M,M
IAG,2018-01-02 11:25,-78.9462,43.1073,M,M,M,250.00,12.00,30.34,M,M,10.00,M,4300.00,5000.00,M,M
IAG,2018-01-02 11:30,-78.9462,43.1073,M,M,M,250.00,14.00,30.34,M,M,10.00,M,4300.00,5000.00,M,M
IAG,2018-01-02 11:35,-78.9462,43.1073,M,M,M,250.00,13.00,30.34,M,M,10.00,M,5000.00,M,M,M
IAG,2018-01-02 11:40,-78.9462,43.1073,M,M,M,250.00,12.00,30.34,M,M,10.00,M,5000.00,M,M,M
IAG,2018-01-02 11:45,-78.9462,43.1073,M,M,M,260.00,10.00,30.34,M,M,10.00,M,4900.00,M,M,M
IAG,2018-01-02 11:50,-78.9462,43.1073,M,M,M,250.00,12.00,30.34,M,M,10.00,M,4900.00,M,M,M
IAG,2018-01-02 11:53,-78.9462,43.1073,15.10,6.10,66.96,250.00,10.00,30.34,1029.80,0.00,10.00,M,4700.00,M,M,M
IAG,2018-01-02 11:55,-78.9462,43.1073,M,M,M,250.00,10.00,30.34,M,M,10.00,M,4700.00,M,M,M
IAG,2018-01-02 12:00,-78.9462,43.1073,M,M,M,250.00,12.00,30.34,M,M,10.00,M,4700.00,M,M,M
IAG,2018-01-02 12:05,-78.9462,43.1073,M,M,M,250.00,16.00,30.33,M,M,10.00,M,4600.00,M,M,M
IAG,2018-01-02 12:10,-78.9462,43.1073,M,M,M,250.00,17.00,30.33,M,M,7.00,M,4600.00,M,M,M
IAG,2018-01-02 12:15,-78.9462,43.1073,M,M,M,250.00,16.00,30.33,M,M,6.00,M,4600.00,M,M,HZ
IAG,2018-01-02 12:20,-78.9462,43.1073,M,M,M,M,M,30.33,M,M,5.00,M,4600.00,M,M,HZ
IAG,2018-01-02 12:25,-78.9462,43.1073,M,M,M,250.00,17.00,30.33,M,M,4.00,M,4600.00,M,M,HZ
IAG,2018-01-02 12:30,-78.9462,43.1073,M,M,M,240.00,14.00,30.33,M,M,5.00,19.00,4600.00,M,M,HZ
IAG,2018-01-02 12:35,-78.9462,43.1073,M,M,M,250.00,16.00,30.33,M,M,7.00,M,M,M,M,M
IAG,2018-01-02 12:40,-78.9462,43.1073,M,M,M,250.00,17.00,30.34,M,M,6.00,M,M,M,M,HZ
IAG,2018-01-02 12:45,-78.9462,43.1073,M,M,M,250.00,15.00,30.34,M,M,6.00,M,M,M,M,HZ
IAG,2018-01-02 12:50,-78.9462,43.1073,M,M,M,250.00,18.00,30.34,M,M,7.00,M,12000.00,M,M,M
IAG,2018-01-02 12:53,-78.9462,43.1073,12.90,3.90,66.67,250.00,21.00,30.34,1029.90,0.00,5.00,26.00,12000.00,M,M,HZ
IAG,2018-01-02 12:55,-78.9462,43.1073,M,M,M,M,M,30.34,M,M,4.00,M,11000.00,M,M,HZ
IAG,2018-01-02 13:00,-78.9462,43.1073,M,M,M,M,M,30.34,M,M,5.00,M,11000.00,M,M,HZ
IAG,2018-01-02 13:05,-78.9462,43.1073,M,M,M,M,M,30.34,M,M,5.00,M,11000.00,M,M,M
IAG,2018-01-02 13:10,-78.9462,43.1073,M,M,M,M,M,30.34,M,M,5.00,M,11000.00,M,M,M
IAG,2018-01-02 13:15,-78.9462,43.1073,M,M,M,M,M,30.34,M,M,5.00,M,11000.00,M,M,M
IAG,2018-01-02 13:20,-78.9462,43.1073,M,M,M,250.00,17.00,30.34,M,M,5.00,M,11000.00,M,M,M
IAG,2018-01-02 13:25,-78.9462,43.1073,M,M,M,250.00,17.00,30.34,M,M,5.00,M,M,M,M,M
IAG,2018-01-02 13:30,-78.9462,43.1073,M,M,M,250.00,17.00,30.33,M,M,5.00,M,M,M,M,M
IAG,2018-01-02 13:35,-78.9462,43.1073,M,M,M,M,M,30.33,M,M,5.00,M,1999.00,M,M,M
IAG,2018-01-02 13:40,-78.9462,43.1073,M,M,M,M,M,30.32,M,M,5.00,M,1999.00,M,M,M
IAG,2018-01-02 13:45,-78.9462,43.1073,M,M,M,250.00,18.00,30.32,M,M,5.00,M,1999.00,M,M,M
IAG,2018-01-02 13:50,-78.9462,43.1073,12.20,5.00,72.33,250.00,18.00,30.32,M,0.00,5.00,25.00,1900.00,M,M,BLSN
IAG,2018-01-02 13:53,-78.9462,43.1073,14.00,5.00,66.82,250.00,18.00,30.32,1029.20,0.00,5.00,25.00,1900.00,M,M,BLSN
IAG,2018-01-02 13:55,-78.9462,43.1073,M,M,M,250.00,19.00,30.32,M,M,5.00,M,1900.00,M,M,M
IAG,2018-01-02 14:00,-78.9462,43.1073,M,M,M,250.00,18.00,30.32,M,M,5.00,M,1800.00,M,M,M
IAG,2018-01-02 14:05,-78.9462,43.1073,M,M,M,M,M,30.32,M,M,5.00,M,1800.00,M,M,M
IAG,2018-01-02 14:10,-78.9462,43.1073,M,M,M,M,M,30.32,M,M,5.00,M,1800.00,M,M,M
IAG,2018-01-02 14:15,-78.9462,43.1073,M,M,M,M,M,30.31,M,M,5.00,M,1800.00,M,M,M
IAG,2018-01-02 14:20,-78.9462,43.1073,M,M,M,M,M,30.31,M,M,5.00,M,1800.00,M,M,M
IAG,2018-01-02 14:25,-78.9462,43.1073,M,M,M,M,M,30.31,M,M,5.00,M,1800.00,M,M,M
IAG,2018-01-02 14:30,-78.9462,43.1073,M,M,M,M,M,30.31,M,M,5.00,M,1800.00,M,M,M
IAG,2018-01-02 14:35,-78.9462,43.1073,M,M,M,M,M,30.31,M,M,5.00,M,1699.00,M,M,M
IAG,2018-01-02 14:40,-78.9462,43.1073,M,M,M,M,M,30.30,M,M,5.00,M,1699.00,M,M,M
IAG,2018-01-02 14:45,-78.9462,43.1073,M,M,M,M,M,30.30,M,M,5.00,M,1699.00,M,M,-SN
IAG,2018-01-02 14:50,-78.9462,43.1073,M,M,M,250.00,19.00,30.31,M,M,5.00,M,1699.00,M,M,-SN
IAG,2018-01-02 14:53,-78.9462,43.1073,17.10,10.00,73.20,250.00,19.00,30.30,1028.60,T,5.00,28.00,1700.00,M,M,-SN BLSN
IAG,2018-01-02 14:55,-78.9462,43.1073,M,M,M,250.00,19.00,30.31,M,M,5.00,M,1699.00,M,M,-SN
IAG,2018-01-02 15:00,-78.9462,43.1073,M,M,M,M,M,30.30,M,M,5.00,M,1900.00,M,M,-SN
IAG,2018-01-02 15:05,-78.9462,43.1073,M,M,M,250.00,19.00,30.30,M,M,5.00,M,1900.00,M,M,-SN
IAG,2018-01-02 15:10,-78.9462,43.1073,M,M,M,250.00,17.00,30.30,M,M,5.00,M,1900.00,M,M,-SN
IAG,2018-01-02 15:15,-78.9462,43.1073,M,M,M,250.00,19.00,30.30,M,M,5.00,M,1900.00,M,M,-SN
IAG,2018-01-02 15:20,-78.9462,43.1073,M,M,M,M,M,30.30,M,M,5.00,M,1600.00,2100.00,M,M
IAG,2018-01-02 15:25,-78.9462,43.1073,M,M,M,M,M,30.30,M,M,5.00,M,1600.00,2100.00,M,M
IAG,2018-01-02 15:30,-78.9462,43.1073,18.00,10.90,73.30,250.00,23.00,30.30,M,T,5.00,28.00,1300.00,M,M,BLSN
IAG,2018-01-02 15:35,-78.9462,43.1073,M,M,M,250.00,17.00,30.30,M,M,5.00,M,1300.00,M,M,M
IAG,2018-01-02 15:40,-78.9462,43.1073,M,M,M,M,M,30.30,M,M,5.00,M,999.00,M,M,M
IAG,2018-01-02 15:45,-78.9462,43.1073,M,M,M,240.00,16.00,30.29,M,M,5.00,M,700.00,M,M,M
IAG,2018-01-02 15:50,-78.9462,43.1073,M,M,M,250.00,20.00,30.29,M,M,5.00,M,M,M,M,M
IAG,2018-01-02 15:53,-78.9462,43.1073,19.90,12.00,70.95,240.00,18.00,30.28,1027.70,T,5.00,27.00,M,M,M,BLSN
IAG,2018-01-02 15:55,-78.9462,43.1073,M,M,M,M,M,30.28,M,M,2.00,M,M,M,M,M
IAG,2018-01-02 16:00,-78.9462,43.1073,M,M,M,M,M,30.28,M,M,6.00,M,M,M,M,M
IAG,2018-01-02 16:05,-78.9462,43.1073,M,M,M,M,M,30.27,M,M,6.00,M,M,M,M,M
IAG,2018-01-02 16:10,-78.9462,43.1073,M,M,M,240.00,21.00,30.27,M,M,6.00,M,M,M,M,M
IAG,2018-01-02 16:15,-78.9462,43.1073,M,M,M,240.00,21.00,30.26,M,M,6.00,M,M,M,M,M
IAG,2018-01-02 16:20,-78.9462,43.1073,M,M,M,240.00,22.00,30.26,M,M,6.00,M,M,M,M,M
IAG,2018-01-02 16:25,-78.9462,43.1073,M,M,M,M,M,30.25,M,M,6.00,M,M,M,M,M
IAG,2018-01-02 16:30,-78.9462,43.1073,M,M,M,M,M,30.25,M,M,6.00,M,2500.00,M,M,M
IAG,2018-01-02 16:35,-78.9462,43.1073,M,M,M,M,M,30.25,M,M,6.00,M,2500.00,M,M,M
IAG,2018-01-02 16:40,-78.9462,43.1073,M,M,M,M,M,30.25,M,M,6.00,M,2500.00,M,M,M
IAG,2018-01-02 16:45,-78.9462,43.1073,M,M,M,M,M,30.24,M,M,6.00,M,2500.00,M,M,M
IAG,2018-01-02 16:50,-78.9462,43.1073,M,M,M,M,M,30.24,M,M,6.00,M,2500.00,M,M,M
IAG,2018-01-02 16:53,-78.9462,43.1073,21.90,15.10,74.69,240.00,29.00,30.24,1026.20,0.00,6.00,38.00,2500.00,M,M,BLSN
IAG,2018-01-02 16:55,-78.9462,43.1073,M,M,M,M,M,30.24,M,M,0.50,M,200.00,2300.00,M,M
IAG,2018-01-02 17:00,-78.9462,43.1073,M,M,M,230.00,22.00,30.23,M,M,6.00,29.00,2300.00,M,M,M
IAG,2018-01-02 17:05,-78.9462,43.1073,M,M,M,M,M,30.24,M,M,6.00,M,2300.00,M,M,M
IAG,2018-01-02 17:10,-78.9462,43.1073,M,M,M,M,M,30.23,M,M,6.00,M,2300.00,M,M,M
IAG,2018-01-02 17:15,-78.9462,43.1073,M,M,M,M,M,30.23,M,M,6.00,M,2300.00,M,M,M
IAG,2018-01-02 17:20,-78.9462,43.1073,M,M,M,M,M,30.23,M,M,6.00,M,2300.00,M,M,M
IAG,2018-01-02 17:25,-78.9462,43.1073,M,M,M,M,M,30.23,M,M,6.00,M,2300.00,M,M,M
IAG,2018-01-02 17:30,-78.9462,43.1073,M,M,M,250.00,27.00,30.23,M,M,6.00,M,2300.00,M,M,M
IAG,2018-01-02 17:35,-78.9462,43.1073,M,M,M,M,M,30.22,M,M,6.00,M,2300.00,M,M,M
IAG,2018-01-02 17:40,-78.9462,43.1073,M,M,M,M,M,30.23,M,M,6.00,M,2300.00,M,M,M
IAG,2018-01-02 17:45,-78.9462,43.1073,M,M,M,M,M,30.22,M,M,6.00,M,2300.00,M,M,M
IAG,2018-01-02 17:50,-78.9462,43.1073,M,M,M,M,M,30.22,M,M,6.00,M,2300.00,M,M,M
IAG,2018-01-02 17:53,-78.9462,43.1073,21.90,16.00,77.67,250.00,26.00,30.22,1025.60,0.00,6.00,36.00,2300.00,M,M,BLSN
IAG,2018-01-02 17:55,-78.9462,43.1073,21.90,16.00,77.67,250.00,28.00,30.22,M,0.00,1.00,38.00,200.00,2500.00,M,BLSN
IAG,2018-01-02 18:00,-78.9462,43.1073,M,M,M,M,M,30.22,M,M,6.00,35.00,2300.00,M,M,M
IAG,2018-01-02 18:02,-78.9462,43.1073,21.90,15.10,74.69,240.00,26.00,30.21,M,0.00,6.00,41.00,2300.00,M,M,BLSN
IAG,2018-01-02 18:05,-78.9462,43.1073,M,M,M,M,M,30.21,M,M,6.00,34.00,2300.00,M,M,M
IAG,2018-01-02 18:10,-78.9462,43.1073,M,M,M,M,M,30.21,M,M,6.00,M,2300.00,M,M,M
IAG,2018-01-02 18:15,-78.9462,43.1073,M,M,M,M,M,30.21,M,M,6.00,M,2300.00,M,M,M
IAG,2018-01-02 18:20,-78.9462,43.1073,M,M,M,M,M,30.21,M,M,6.00,M,2300.00,M,M,M
IAG,2018-01-02 18:25,-78.9462,43.1073,M,M,M,M,M,30.21,M,M,6.00,M,2300.00,M,M,M
IAG,2018-01-02 18:30,-78.9462,43.1073,M,M,M,M,M,30.21,M,M,6.00,M,2300.00,M,M,M
IAG,2018-01-02 18:35,-78.9462,43.1073,M,M,M,M,M,30.21,M,M,6.00,M,2300.00,M,M,M
IAG,2018-01-02 18:40,-78.9462,43.1073,M,M,M,M,M,30.20,M,M,6.00,M,2300.00,M,M,M
IAG,2018-01-02 18:45,-78.9462,43.1073,M,M,M,M,M,30.21,M,M,6.00,M,2300.00,M,M,M
IAG,2018-01-02 18:50,-78.9462,43.1073,M,M,M,240.00,26.00,30.20,M,M,6.00,M,2300.00,M,M,M
IAG,2018-01-02 18:53,-78.9462,43.1073,21.90,12.90,67.82,240.00,24.00,30.20,1025.00,0.00,6.00,37.00,2300.00,M,M,BLSN
IAG,2018-01-02 18:55,-78.9462,43.1073,M,M,M,250.00,26.00,30.20,M,M,6.00,M,2300.00,M,M,M
IAG,2018-01-02 19:00,-78.9462,43.1073,M,M,M,240.00,20.00,30.20,M,M,6.00,M,2300.00,M,M,M
IAG,2018-01-02 19:05,-78.9462,43.1073,M,M,M,250.00,24.00,30.20,M,M,6.00,M,2300.00,M,M,M
IAG,2018-01-02 19:10,-78.9462,43.1073,M,M,M,M,M,30.20,M,M,6.00,33.00,2300.00,M,M,M
IAG,2018-01-02 19:15,-78.9462,43.1073,M,M,M,M,M,30.20,M,M,6.00,M,2300.00,M,M,-SN
IAG,2018-01-02 19:20,-78.9462,43.1073,M,M,M,240.00,21.00,30.20,M,M,6.00,M,2300.00,M,M,-SN
IAG,2018-01-02 19:25,-78.9462,43.1073,M,M,M,M,M,30.20,M,M,6.00,M,2300.00,M,M,-SN
IAG,2018-01-02 19:30,-78.9462,43.1073,M,M,M,240.00,24.00,30.19,M,M,6.00,M,2300.00,M,M,M
IAG,2018-01-02 19:35,-78.9462,43.1073,M,M,M,M,M,30.19,M,M,6.00,M,2300.00,M,M,-SN
IAG,2018-01-02 19:40,-78.9462,43.1073,M,M,M,250.00,23.00,30.19,M,M,6.00,M,2300.00,M,M,-SN
IAG,2018-01-02 19:45,-78.9462,43.1073,M,M,M,250.00,24.00,30.20,M,M,6.00,M,2300.00,M,M,-SN
IAG,2018-01-02 19:50,-78.9462,43.1073,M,M,M,250.00,27.00,30.20,M,M,6.00,M,2500.00,M,M,-SN
IAG,2018-01-02 19:53,-78.9462,43.1073,21.90,14.00,71.18,250.00,26.00,30.20,1024.80,T,6.00,36.00,2500.00,M,M,BLSN
IAG,2018-01-02 19:55,-78.9462,43.1073,M,M,M,250.00,23.00,30.20,M,M,1.25,M,2500.00,3000.00,M,M
IAG,2018-01-02 20:00,-78.9462,43.1073,M,M,M,M,M,30.20,M,M,6.00,32.00,2500.00,M,M,M
IAG,2018-01-02 20:05,-78.9462,43.1073,M,M,M,240.00,21.00,30.20,M,M,6.00,26.00,2500.00,M,M,M
IAG,2018-01-02 20:10,-78.9462,43.1073,M,M,M,240.00,18.00,30.20,M,M,6.00,24.00,2500.00,M,M,-SN
IAG,2018-01-02 20:15,-78.9462,43.1073,M,M,M,M,M,30.20,M,M,6.00,M,2500.00,M,M,-SN
IAG,2018-01-02 20:20,-78.9462,43.1073,M,M,M,M,M,30.20,M,M,6.00,M,2500.00,M,M,-SN
IAG,2018-01-02 20:25,-78.9462,43.1073,M,M,M,240.00,18.00,30.20,M,M,6.00,M,2500.00,M,M,-SN
IAG,2018-01-02 20:30,-78.9462,43.1073,M,M,M,240.00,22.00,30.20,M,M,6.00,M,2500.00,M,M,-SN
IAG,2018-01-02 20:35,-78.9462,43.1073,M,M,M,240.00,21.00,30.20,M,M,6.00,M,2500.00,M,M,-SN
IAG,2018-01-02 20:40,-78.9462,43.1073,M,M,M,250.00,23.00,30.20,M,M,6.00,M,2500.00,M,M,-SN
IAG,2018-01-02 20:45,-78.9462,43.1073,M,M,M,M,M,30.20,M,M,6.00,M,2500.00,M,M,-SN
IAG,2018-01-02 20:50,-78.9462,43.1073,M,M,M,240.00,24.00,30.20,M,M,4.00,M,1999.00,M,M,-SN
IAG,2018-01-02 20:53,-78.9462,43.1073,21.00,12.90,70.45,230.00,29.00,30.20,1024.80,T,4.00,36.00,2000.00,M,M,-SN BLSN
IAG,2018-01-02 20:55,-78.9462,43.1073,M,M,M,M,M,30.20,M,M,4.00,M,1999.00,2700.00,M,-SN
IAG,2018-01-02 21:00,-78.9462,43.1073,M,M,M,M,M,30.19,M,M,4.00,32.00,2100.00,2700.00,M,-SN
IAG,2018-01-02 21:05,-78.9462,43.1073,M,M,M,M,M,30.19,M,M,4.00,M,2100.00,2700.00,M,-SN
IAG,2018-01-02 21:10,-78.9462,43.1073,M,M,M,240.00,24.00,30.19,M,M,4.00,M,2100.00,2600.00,M,-SN
IAG,2018-01-02 21:15,-78.9462,43.1073,M,M,M,M,M,30.19,M,M,4.00,M,2300.00,M,M,-SN
IAG,2018-01-02 21:20,-78.9462,43.1073,M,M,M,M,M,30.19,M,M,4.00,M,2300.00,M,M,-SN
IAG,2018-01-02 21:25,-78.9462,43.1073,M,M,M,M,M,30.19,M,M,4.00,M,2300.00,M,M,-SN
IAG,2018-01-02 21:30,-78.9462,43.1073,M,M,M,M,M,30.19,M,M,4.00,M,2300.00,M,M,-SN
IAG,2018-01-02 21:35,-78.9462,43.1073,M,M,M,M,M,30.18,M,M,4.00,M,2200.00,M,M,-SN
IAG,2018-01-02 21:40,-78.9462,43.1073,M,M,M,M,M,30.18,M,M,4.00,M,2200.00,M,M,-SN
IAG,2018-01-02 21:45,-78.9462,43.1073,M,M,M,M,M,30.18,M,M,4.00,M,2200.00,M,M,-SN
IAG,2018-01-02 21:50,-78.9462,43.1073,M,M,M,M,M,30.18,M,M,5.00,M,2200.00,M,M,-SN
IAG,2018-01-02 21:53,-78.9462,43.1073,21.00,15.10,77.59,230.00,23.00,30.18,1024.20,T,5.00,37.00,2200.00,M,M,-SN BLSN
IAG,2018-01-02 21:55,-78.9462,43.1073,M,M,M,M,M,30.18,M,M,5.00,M,1999.00,M,M,-SN
IAG,2018-01-02 22:00,-78.9462,43.1073,M,M,M,M,M,30.18,M,M,5.00,M,1999.00,M,M,-SN
IAG,2018-01-02 22:05,-78.9462,43.1073,M,M,M,M,M,30.18,M,M,5.00,M,1999.00,M,M,-SN
IAG,2018-01-02 22:10,-78.9462,43.1073,M,M,M,240.00,21.00,30.18,M,M,5.00,M,1999.00,M,M,-SN
IAG,2018-01-02 22:15,-78.9462,43.1073,M,M,M,M,M,30.18,M,M,5.00,M,2200.00,M,M,-SN
IAG,2018-01-02 22:20,-78.9462,43.1073,M,M,M,M,M,30.18,M,M,5.00,M,2200.00,M,M,-SN
IAG,2018-01-02 22:25,-78.9462,43.1073,M,M,M,M,M,30.18,M,M,5.00,M,2200.00,M,M,-SN
IAG,2018-01-02 22:30,-78.9462,43.1073,M,M,M,240.00,22.00,30.18,M,M,5.00,M,2200.00,M,M,-SN
IAG,2018-01-02 22:35,-78.9462,43.1073,M,M,M,M,M,30.18,M,M,5.00,M,2200.00,M,M,-SN
IAG,2018-01-02 22:40,-78.9462,43.1073,M,M,M,240.00,23.00,30.19,M,M,5.00,M,1999.00,M,M,-SN
IAG,2018-01-02 22:45,-78.9462,43.1073,M,M,M,240.00,23.00,30.18,M,M,5.00,M,2200.00,M,M,-SN
IAG,2018-01-02 22:50,-78.9462,43.1073,M,M,M,240.00,25.00,30.18,M,M,5.00,M,2200.00,M,M,-SN
IAG,2018-01-02 22:53,-78.9462,43.1073,21.00,15.10,77.59,240.00,21.00,30.18,1024.30,T,5.00,32.00,2200.00,M,M,-SN BLSN
IAG,2018-01-02 22:55,-78.9462,43.1073,M,M,M,M,M,30.18,M,M,3.00,M,2200.00,M,M,-SN
IAG,2018-01-02 23:00,-78.9462,43.1073,M,M,M,M,M,30.18,M,M,3.00,M,2200.00,M,M,-SN
IAG,2018-01-02 23:05,-78.9462,43.1073,M,M,M,M,M,30.19,M,M,3.00,29.00,2200.00,M,M,-SN
IAG,2018-01-02 23:10,-78.9462,43.1073,M,M,M,M,M,30.19,M,M,4.00,35.00,2200.00,M,M,-SN
IAG,2018-01-02 23:15,-78.9462,43.1073,M,M,M,M,M,30.19,M,M,4.00,M,2200.00,M,M,-SN
IAG,2018-01-02 23:20,-78.9462,43.1073,M,M,M,M,M,30.19,M,M,4.00,M,2200.00,M,M,-SN
IAG,2018-01-02 23:25,-78.9462,43.1073,M,M,M,240.00,22.00,30.19,M,M,4.00,M,2200.00,M,M,-SN
IAG,2018-01-02 23:30,-78.9462,43.1073,M,M,M,240.00,22.00,30.19,M,M,4.00,M,2200.00,M,M,-SN
IAG,2018-01-02 23:35,-78.9462,43.1073,M,M,M,250.00,21.00,30.19,M,M,4.00,M,2200.00,M,M,-SN
IAG,2018-01-02 23:40,-78.9462,43.1073,M,M,M,M,M,30.19,M,M,4.00,M,2200.00,M,M,M
IAG,2018-01-02 23:45,-78.9462,43.1073,M,M,M,M,M,30.19,M,M,4.00,M,2200.00,M,M,M
IAG,2018-01-02 23:50,-78.9462,43.1073,M,M,M,240.00,20.00,30.19,M,M,6.00,M,2200.00,M,M,M
IAG,2018-01-02 23:53,-78.9462,43.1073,21.00,14.00,73.94,250.00,24.00,30.19,1024.70,T,6.00,30.00,2200.00,M,M,BLSN
IAG,2018-01-02 23:55,-78.9462,43.1073,M,M,M,M,M,30.19,M,M,5.00,M,2200.00,M,M,M
IAG,2018-01-03 00:00,-78.9462,43.1073,M,M,M,250.00,18.00,30.19,M,M,5.00,M,2200.00,M,M,M
IAG,2018-01-03 00:05,-78.9462,43.1073,M,M,M,250.00,18.00,30.19,M,M,7.00,M,2200.00,M,M,M
IAG,2018-01-03 00:10,-78.9462,43.1073,M,M,M,250.00,20.00,30.19,M,M,8.00,M,2200.00,M,M,M
IAG,2018-01-03 00:15,-78.9462,43.1073,M,M,M,M,M,30.19,M,M,7.00,M,2200.00,M,M,M
IAG,2018-01-03 00:20,-78.9462,43.1073,M,M,M,M,M,30.19,M,M,5.00,M,2200.00,M,M,HZ
IAG,2018-01-03 00:25,-78.9462,43.1073,M,M,M,M,M,30.19,M,T,4.00,M,2200.00,M,M,UP
IAG,2018-01-03 00:30,-78.9462,43.1073,M,M,M,250.00,21.00,30.19,M,T,4.00,M,2200.00,M,M,UP
IAG,2018-01-03 00:35,-78.9462,43.1073,M,M,M,250.00,22.00,30.19,M,M,7.00,M,2200.00,M,M,M
IAG,2018-01-03 00:40,-78.9462,43.1073,M,M,M,250.00,22.00,30.18,M,M,6.00,M,2200.00,M,M,HZ
IAG,2018-01-03 00:45,-78.9462,43.1073,M,M,M,M,M,30.18,M,M,7.00,M,2200.00,M,M,M
IAG,2018-01-03 00:50,-78.9462,43.1073,M,M,M,250.00,21.00,30.19,M,M,8.00,M,2200.00,M,M,M
IAG,2018-01-03 00:53,-78.9462,43.1073,19.90,10.90,67.57,240.00,19.00,30.18,1024.30,T,9.00,29.00,2200.00,M,M,M
IAG,2018-01-03 00:55,-78.9462,43.1073,M,M,M,250.00,16.00,30.18,M,M,9.00,M,2200.00,M,M,M
IAG,2018-01-03 01:00,-78.9462,43.1073,M,M,M,240.00,17.00,30.18,M,M,10.00,M,2200.00,M,M,M
IAG,2018-01-03 01:05,-78.9462,43.1073,M,M,M,250.00,15.00,30.18,M,M,10.00,M,2200.00,M,M,M
IAG,2018-01-03 01:10,-78.9462,43.1073,M,M,M,240.00,18.00,30.18,M,M,10.00,M,2200.00,M,M,M
IAG,2018-01-03 01:15,-78.9462,43.1073,M,M,M,M,M,30.18,M,M,9.00,M,2200.00,M,M,M
IAG,2018-01-03 01:20,-78.9462,43.1073,M,M,M,M,M,30.18,M,M,8.00,M,2200.00,M,M,M
IAG,2018-01-03 01:25,-78.9462,43.1073,M,M,M,M,M,30.17,M,M,8.00,M,2200.00,M,M,M
IAG,2018-01-03 01:30,-78.9462,43.1073,M,M,M,240.00,19.00,30.17,M,M,9.00,M,2200.00,M,M,M
IAG,2018-01-03 01:35,-78.9462,43.1073,M,M,M,M,M,30.17,M,M,9.00,M,2200.00,M,M,M
IAG,2018-01-03 01:40,-78.9462,43.1073,M,M,M,M,M,30.17,M,M,8.00,M,2200.00,M,M,M
IAG,2018-01-03 01:45,-78.9462,43.1073,M,M,M,240.00,17.00,30.17,M,M,8.00,M,2200.00,M,M,M
IAG,2018-01-03 01:50,-78.9462,43.1073,M,M,M,240.00,23.00,30.17,M,M,7.00,M,2200.00,M,M,M
IAG,2018-01-03 01:53,-78.9462,43.1073,21.00,12.00,67.71,250.00,24.00,30.16,1023.60,0.00,6.00,31.00,2200.00,M,M,BLSN
IAG,2018-01-03 01:55,-78.9462,43.1073,M,M,M,M,M,30.16,M,M,5.00,M,2200.00,M,M,M
IAG,2018-01-03 02:00,-78.9462,43.1073,M,M,M,M,M,30.16,M,M,6.00,M,2200.00,M,M,HZ
IAG,2018-01-03 02:05,-78.9462,43.1073,M,M,M,M,M,30.16,M,M,8.00,M,2200.00,M,M,M
IAG,2018-01-03 02:10,-78.9462,43.1073,M,M,M,240.00,16.00,30.16,M,M,10.00,M,2200.00,M,M,M
IAG,2018-01-03 02:15,-78.9462,43.1073,M,M,M,240.00,18.00,30.16,M,M,10.00,M,2200.00,M,M,M
IAG,2018-01-03 02:20,-78.9462,43.1073,M,M,M,M,M,30.16,M,M,10.00,M,2200.00,M,M,M
IAG,2018-01-03 02:25,-78.9462,43.1073,M,M,M,M,M,30.15,M,M,7.00,M,2200.00,M,M,M
IAG,2018-01-03 02:30,-78.9462,43.1073,M,M,M,240.00,20.00,30.15,M,M,7.00,M,2200.00,M,M,M
IAG,2018-01-03 02:35,-78.9462,43.1073,M,M,M,M,M,30.15,M,M,7.00,M,2200.00,M,M,M
IAG,2018-01-03 02:40,-78.9462,43.1073,M,M,M,240.00,18.00,30.15,M,M,7.00,M,2200.00,M,M,M
IAG,2018-01-03 02:45,-78.9462,43.1073,M,M,M,M,M,30.15,M,M,7.00,M,2200.00,M,M,M
IAG,2018-01-03 02:50,-78.9462,43.1073,M,M,M,240.00,21.00,30.15,M,M,8.00,M,2200.00,M,M,M
IAG,2018-01-03 02:53,-78.9462,43.1073,21.90,12.00,65.18,240.00,21.00,30.15,1022.90,0.00,8.00,29.00,2200.00,M,M,M
IAG,2018-01-03 02:55,-78.9462,43.1073,M,M,M,230.00,21.00,30.14,M,M,7.00,M,2200.00,M,M,M
IAG,2018-01-03 03:00,-78.9462,43.1073,M,M,M,230.00,20.00,30.14,M,M,7.00,M,2200.00,M,M,M
IAG,2018-01-03 03:05,-78.9462,43.1073,M,M,M,M,M,30.14,M,M,6.00,M,2200.00,M,M,HZ
IAG,2018-01-03 03:10,-78.9462,43.1073,M,M,M,240.00,23.00,30.14,M,T,6.00,M,2200.00,M,M,UP
IAG,2018-01-03 03:15,-78.9462,43.1073,M,M,M,M,M,30.14,M,T,5.00,M,2200.00,M,M,UP
IAG,2018-01-03 03:20,-78.9462,43.1073,M,M,M,240.00,23.00,30.14,M,T,5.00,M,2200.00,M,M,UP
IAG,2018-01-03 03:25,-78.9462,43.1073,M,M,M,M,M,30.14,M,M,5.00,M,2200.00,M,M,HZ
IAG,2018-01-03 03:30,-78.9462,43.1073,M,M,M,240.00,22.00,30.14,M,T,5.00,M,2200.00,M,M,UP
IAG,2018-01-03 03:35,-78.9462,43.1073,M,M,M,M,M,30.14,M,M,8.00,M,2200.00,M,M,M
IAG,2018-01-03 03:40,-78.9462,43.1073,M,M,M,M,M,30.14,M,M,4.00,M,2200.00,M,M,-SN
IAG,2018-01-03 03:45,-78.9462,43.1073,M,M,M,M,M,30.14,M,M,10.00,M,2200.00,M,M,-SN
IAG,2018-01-03 03:50,-78.9462,43.1073,M,M,M,230.00,23.00,30.14,M,M,10.00,M,2200.00,M,M,-SN
IAG,2018-01-03 03:53,-78.9462,43.1073,21.00,12.00,67.71,230.00,21.00,30.14,1022.70,T,10.00,33.00,2200.00,M,M,-SN
IAG,2018-01-03 03:55,-78.9462,43.1073,M,M,M,240.00,22.00,30.14,M,M,5.00,M,2200.00,M,M,HZ
IAG,2018-01-03 04:00,-78.9462,43.1073,M,M,M,230.00,21.00,30.14,M,M,7.00,M,2200.00,M,M,M
IAG,2018-01-03 04:05,-78.9462,43.1073,M,M,M,230.00,20.00,30.14,M,M,7.00,M,2200.00,M,M,M
IAG,2018-01-03 04:10,-78.9462,43.1073,M,M,M,230.00,24.00,30.14,M,M,7.00,M,2300.00,M,M,M
IAG,2018-01-03 04:11,-78.9462,43.1073,21.00,12.00,67.71,230.00,23.00,30.14,M,T,8.00,30.00,2300.00,M,M,M
IAG,2018-01-03 04:15,-78.9462,43.1073,M,M,M,230.00,19.00,30.14,M,M,9.00,M,2300.00,M,M,M
IAG,2018-01-03 04:20,-78.9462,43.1073,M,M,M,M,M,30.14,M,M,8.00,M,2300.00,M,M,M
IAG,2018-01-03 04:25,-78.9462,43.1073,M,M,M,M,M,30.14,M,M,6.00,M,2300.00,M,M,HZ
IAG,2018-01-03 04:30,-78.9462,43.1073,M,M,M,230.00,20.00,30.14,M,M,6.00,M,2300.00,M,M,HZ
IAG,2018-01-03 04:35,-78.9462,43.1073,M,M,M,M,M,30.14,M,M,8.00,M,2300.00,M,M,M
IAG,2018-01-03 04:40,-78.9462,43.1073,M,M,M,M,M,30.14,M,M,6.00,M,2300.00,M,M,HZ
IAG,2018-01-03 04:45,-78.9462,43.1073,M,M,M,M,M,30.14,M,M,5.00,M,2300.00,M,M,HZ
IAG,2018-01-03 04:50,-78.9462,43.1073,M,M,M,M,M,30.14,M,M,6.00,M,2300.00,M,M,HZ
IAG,2018-01-03 04:53,-78.9462,43.1073,21.00,12.00,67.71,230.00,19.00,30.14,1022.70,T,7.00,27.00,2300.00,M,M,M
IAG,2018-01-03 04:55,-78.9462,43.1073,M,M,M,230.00,17.00,30.14,M,M,8.00,M,2300.00,M,M,M
IAG,2018-01-03 05:00,-78.9462,43.1073,M,M,M,230.00,20.00,30.14,M,M,9.00,M,2300.00,M,M,M
IAG,2018-01-03 05:05,-78.9462,43.1073,M,M,M,230.00,20.00,30.14,M,M,9.00,M,2300.00,M,M,M
IAG,2018-01-03 05:10,-78.9462,43.1073,M,M,M,M,M,30.13,M,M,9.00,M,2300.00,M,M,M
IAG,2018-01-03 05:15,-78.9462,43.1073,M,M,M,M,M,30.13,M,M,6.00,M,2400.00,M,M,HZ
IAG,2018-01-03 05:20,-78.9462,43.1073,M,M,M,M,M,30.13,M,M,4.00,M,2400.00,M,M,M
IAG,2018-01-03 05:25,-78.9462,43.1073,M,M,M,230.00,19.00,30.13,M,M,4.00,M,2400.00,M,M,M
IAG,2018-01-03 05:30,-78.9462,43.1073,M,M,M,230.00,19.00,30.13,M,M,6.00,M,2400.00,M,M,M
IAG,2018-01-03 05:35,-78.9462,43.1073,M,M,M,M,M,30.13,M,M,6.00,M,2400.00,M,M,HZ
IAG,2018-01-03 05:40,-78.9462,43.1073,M,M,M,M,M,30.13,M,T,4.00,M,2400.00,M,M,UP
IAG,2018-01-03 05:45,-78.9462,43.1073,M,M,M,230.00,19.00,30.12,M,M,5.00,M,2400.00,M,M,M
IAG,2018-01-03 05:50,-78.9462,43.1073,M,M,M,230.00,19.00,30.12,M,M,7.00,M,2400.00,M,M,M
IAG,2018-01-03 05:53,-78.9462,43.1073,21.00,10.90,64.48,230.00,27.00,30.12,1022.10,T,8.00,34.00,2400.00,M,M,M
IAG,2018-01-03 05:55,-78.9462,43.1073,M,M,M,230.00,21.00,30.12,M,M,7.00,M,2400.00,M,M,M
IAG,2018-01-03 06:00,-78.9462,43.1073,M,M,M,M,M,30.12,M,M,6.00,M,2400.00,M,M,HZ
IAG,2018-01-03 06:03,-78.9462,43.1073,21.00,10.90,64.48,230.00,25.00,30.12,M,0.00,6.00,32.00,2400.00,M,M,HZ
IAG,2018-01-03 06:05,-78.9462,43.1073,M,M,M,220.00,19.00,30.12,M,M,6.00,M,1699.00,2400.00,M,HZ
IAG,2018-01-03 06:10,-78.9462,43.1073,M,M,M,M,M,30.12,M,M,6.00,M,1699.00,2400.00,M,-SN
IAG,2018-01-03 06:11,-78.9462,43.1073,21.00,12.00,67.71,220.00,22.00,30.12,M,T,6.00,32.00,1700.00,2400.00,M,-SN
IAG,2018-01-03 06:15,-78.9462,43.1073,M,M,M,M,M,30.12,M,M,6.00,M,1900.00,2400.00,M,-SN
IAG,2018-01-03 06:20,-78.9462,43.1073,M,M,M,220.00,18.00,30.12,M,M,6.00,M,1900.00,2400.00,M,-SN
IAG,2018-01-03 06:25,-78.9462,43.1073,M,M,M,230.00,19.00,30.12,M,M,6.00,M,1900.00,2400.00,M,-SN
IAG,2018-01-03 06:30,-78.9462,43.1073,M,M,M,230.00,17.00,30.12,M,M,6.00,M,1900.00,2400.00,M,-SN
IAG,2018-01-03 06:35,-78.9462,43.1073,M,M,M,230.00,16.00,30.12,M,M,7.00,M,1900.00,2400.00,M,M
IAG,2018-01-03 06:40,-78.9462,43.1073,M,M,M,240.00,21.00,30.12,M,M,7.00,M,1900.00,2400.00,M,M
IAG,2018-01-03 06:45,-78.9462,43.1073,M,M,M,230.00,18.00,30.12,M,M,8.00,M,1900.00,2400.00,M,M
IAG,2018-01-03 06:50,-78.9462,43.1073,M,M,M,230.00,18.00,30.12,M,M,9.00,M,1900.00,2400.00,M,M
IAG,2018-01-03 06:53,-78.9462,43.1073,21.00,12.00,67.71,230.00,19.00,30.12,1022.00,T,9.00,M,2000.00,2500.00,M,M
IAG,2018-01-03 06:55,-78.9462,43.1073,M,M,M,230.00,17.00,30.12,M,M,8.00,M,1999.00,M,M,-SN
IAG,2018-01-03 07:00,-78.9462,43.1073,M,M,M,M,M,30.12,M,M,6.00,M,1999.00,M,M,-SN
IAG,2018-01-03 07:05,-78.9462,43.1073,M,M,M,M,M,30.12,M,M,5.00,M,2100.00,M,M,-SN
IAG,2018-01-03 07:10,-78.9462,43.1073,M,M,M,M,M,30.12,M,M,4.00,M,1900.00,2400.00,M,-SN
IAG,2018-01-03 07:15,-78.9462,43.1073,M,M,M,M,M,30.13,M,M,3.00,M,1900.00,2400.00,M,-SN
IAG,2018-01-03 07:20,-78.9462,43.1073,M,M,M,M,M,30.13,M,M,2.50,M,1900.00,M,M,-SN
IAG,2018-01-03 07:25,-78.9462,43.1073,M,M,M,M,M,30.13,M,M,3.00,M,1900.00,M,M,-SN
IAG,2018-01-03 07:30,-78.9462,43.1073,M,M,M,M,M,30.13,M,M,4.00,M,1900.00,M,M,-SN
IAG,2018-01-03 07:35,-78.9462,43.1073,M,M,M,M,M,30.13,M,M,4.00,M,1900.00,M,M,-SN
IAG,2018-01-03 07:40,-78.9462,43.1073,M,M,M,M,M,30.12,M,M,4.00,M,1999.00,2500.00,M,-SN
IAG,2018-01-03 07:45,-78.9462,43.1073,M,M,M,M,M,30.12,M,M,3.00,M,2200.00,M,M,-SN
IAG,2018-01-03 07:50,-78.9462,43.1073,M,M,M,220.00,18.00,30.12,M,M,2.50,M,2200.00,M,M,-SN
IAG,2018-01-03 07:53,-78.9462,43.1073,19.90,12.00,70.95,220.00,18.00,30.12,1022.10,T,2.50,29.00,2000.00,2500.00,M,-SN
IAG,2018-01-03 07:55,-78.9462,43.1073,M,M,M,220.00,16.00,30.12,M,M,2.50,M,1999.00,2500.00,M,-SN
IAG,2018-01-03 08:00,-78.9462,43.1073,M,M,M,M,M,30.12,M,M,3.00,M,2200.00,M,M,-SN
IAG,2018-01-03 08:03,-78.9462,43.1073,19.90,12.00,70.95,220.00,22.00,30.12,M,T,3.00,25.00,2200.00,M,M,-SN
IAG,2018-01-03 08:05,-78.9462,43.1073,M,M,M,M,M,30.12,M,M,3.00,M,2200.00,M,M,-SN
IAG,2018-01-03 08:10,-78.9462,43.1073,M,M,M,M,M,30.12,M,M,3.00,M,2200.00,M,M,-SN
IAG,2018-01-03 08:15,-78.9462,43.1073,M,M,M,M,M,30.12,M,M,4.00,M,2200.00,M,M,-SN
IAG,2018-01-03 08:20,-78.9462,43.1073,M,M,M,M,M,30.12,M,M,5.00,M,2100.00,M,M,-SN
IAG,2018-01-03 08:25,-78.9462,43.1073,M,M,M,220.00,17.00,30.12,M,M,5.00,M,2100.00,M,M,-SN
IAG,2018-01-03 08:30,-78.9462,43.1073,M,M,M,210.00,18.00,30.12,M,M,4.00,M,2100.00,M,M,-SN
IAG,2018-01-03 08:35,-78.9462,43.1073,M,M,M,210.00,19.00,30.12,M,M,4.00,M,2100.00,M,M,-SN
IAG,2018-01-03 08:40,-78.9462,43.1073,M,M,M,210.00,17.00,30.12,M,M,4.00,M,2100.00,M,M,-SN
IAG,2018-01-03 08:45,-78.9462,43.1073,M,M,M,210.00,14.00,30.12,M,M,4.00,19.00,2100.00,M,M,-SN
IAG,2018-01-03 08:50,-78.9462,43.1073,M,M,M,220.00,19.00,30.11,M,M,4.00,M,1900.00,2400.00,M,-SN
IAG,2018-01-03 08:53,-78.9462,43.1073,19.90,12.00,70.95,210.00,15.00,30.11,1021.60,T,4.00,23.00,1900.00,M,M,-SN
IAG,2018-01-03 08:55,-78.9462,43.1073,M,M,M,210.00,16.00,30.11,M,M,4.00,M,1900.00,M,M,-SN
IAG,2018-01-03 09:00,-78.9462,43.1073,M,M,M,M,M,30.10,M,M,4.00,M,1900.00,2400.00,M,-SN
IAG,2018-01-03 09:05,-78.9462,43.1073,M,M,M,M,M,30.10,M,M,4.00,M,1699.00,2300.00,M,-SN
IAG,2018-01-03 09:10,-78.9462,43.1073,M,M,M,210.00,16.00,30.11,M,M,3.50,M,1699.00,2300.00,M,-SN
IAG,2018-01-03 09:15,-78.9462,43.1073,M,M,M,M,M,30.11,M,M,4.00,M,1699.00,2300.00,M,-SN
IAG,2018-01-03 09:20,-78.9462,43.1073,M,M,M,220.00,19.00,30.11,M,M,4.00,M,1699.00,2300.00,M,-SN
IAG,2018-01-03 09:25,-78.9462,43.1073,M,M,M,M,M,30.11,M,M,4.00,M,1699.00,2300.00,M,-SN
IAG,2018-01-03 09:30,-78.9462,43.1073,M,M,M,M,M,30.11,M,M,4.00,M,1699.00,2300.00,M,-SN
IAG,2018-01-03 09:35,-78.9462,43.1073,M,M,M,M,M,30.11,M,M,4.00,M,1699.00,M,M,-SN
IAG,2018-01-03 09:40,-78.9462,43.1073,M,M,M,220.00,15.00,30.11,M,M,4.00,M,1699.00,M,M,-SN
IAG,2018-01-03 09:45,-78.9462,43.1073,M,M,M,220.00,18.00,30.12,M,M,4.00,M,1699.00,M,M,-SN
IAG,2018-01-03 09:50,-78.9462,43.1073,M,M,M,230.00,19.00,30.11,M,M,5.00,M,1699.00,M,M,-SN
IAG,2018-01-03 09:53,-78.9462,43.1073,19.00,10.90,70.22,220.00,20.00,30.11,1021.80,T,5.00,26.00,1700.00,M,M,-SN
IAG,2018-01-03 09:55,-78.9462,43.1073,M,M,M,M,M,30.11,M,M,5.00,M,1699.00,M,M,-SN
IAG,2018-01-03 10:00,-78.9462,43.1073,M,M,M,220.00,16.00,30.11,M,M,5.00,M,1699.00,M,M,-SN
IAG,2018-01-03 10:05,-78.9462,43.1073,M,M,M,M,M,30.11,M,M,5.00,M,1800.00,M,M,-SN
IAG,2018-01-03 10:10,-78.9462,43.1073,M,M,M,M,M,30.11,M,M,5.00,M,1800.00,M,M,-SN
IAG,2018-01-03 10:15,-78.9462,43.1073,M,M,M,220.00,19.00,30.11,M,M,4.00,M,1800.00,M,M,-SN
IAG,2018-01-03 10:20,-78.9462,43.1073,M,M,M,220.00,15.00,30.11,M,M,4.00,M,1800.00,M,M,-SN
IAG,2018-01-03 10:25,-78.9462,43.1073,M,M,M,220.00,15.00,30.11,M,M,5.00,M,1800.00,M,M,-SN
IAG,2018-01-03 10:30,-78.9462,43.1073,M,M,M,220.00,18.00,30.11,M,M,5.00,M,1800.00,M,M,-SN
IAG,2018-01-03 10:35,-78.9462,43.1073,M,M,M,220.00,19.00,30.11,M,M,4.00,M,1800.00,M,M,-SN
IAG,2018-01-03 10:40,-78.9462,43.1073,M,M,M,230.00,19.00,30.11,M,M,4.00,M,1800.00,M,M,-SN
IAG,2018-01-03 10:45,-78.9462,43.1073,M,M,M,220.00,17.00,30.11,M,M,5.00,M,1800.00,M,M,-SN
IAG,2018-01-03 10:50,-78.9462,43.1073,M,M,M,220.00,17.00,30.11,M,M,5.00,M,1900.00,M,M,-SN
IAG,2018-01-03 10:53,-78.9462,43.1073,18.00,9.00,67.33,220.00,18.00,30.10,1021.50,T,5.00,24.00,1900.00,M,M,-SN
IAG,2018-01-03 10:55,-78.9462,43.1073,M,M,M,210.00,18.00,30.10,M,M,5.00,M,1900.00,M,M,-SN
IAG,2018-01-03 11:00,-78.9462,43.1073,M,M,M,210.00,19.00,30.10,M,M,4.00,M,1900.00,M,M,-SN
IAG,2018-01-03 11:05,-78.9462,43.1073,M,M,M,210.00,18.00,30.10,M,M,4.00,M,1900.00,M,M,-SN
IAG,2018-01-03 11:10,-78.9462,43.1073,M,M,M,M,M,30.10,M,M,4.00,M,1900.00,M,M,-SN
IAG,2018-01-03 11:15,-78.9462,43.1073,M,M,M,M,M,30.09,M,M,3.50,M,1900.00,M,M,-SN
IAG,2018-01-03 11:20,-78.9462,43.1073,M,M,M,210.00,17.00,30.09,M,M,4.00,M,1999.00,M,M,-SN
IAG,2018-01-03 11:25,-78.9462,43.1073,M,M,M,210.00,16.00,30.09,M,M,4.00,M,1999.00,M,M,-SN
IAG,2018-01-03 11:30,-78.9462,43.1073,M,M,M,210.00,16.00,30.10,M,M,5.00,M,1999.00,M,M,-SN
IAG,2018-01-03 11:35,-78.9462,43.1073,M,M,M,M,M,30.10,M,M,5.00,M,2100.00,M,M,-SN
IAG,2018-01-03 11:40,-78.9462,43.1073,M,M,M,M,M,30.10,M,M,4.00,M,2100.00,M,M,-SN
IAG,2018-01-03 11:45,-78.9462,43.1073,M,M,M,M,M,30.10,M,M,4.00,M,2100.00,M,M,-SN
IAG,2018-01-03 11:50,-78.9462,43.1073,M,M,M,210.00,16.00,30.10,M,M,5.00,M,2100.00,M,M,-SN
IAG,2018-01-03 11:53,-78.9462,43.1073,18.00,9.00,67.33,210.00,18.00,30.10,1021.40,T,5.00,24.00,2100.00,M,M,-SN
IAG,2018-01-03 11:55,-78.9462,43.1073,M,M,M,210.00,17.00,30.10,M,M,5.00,M,2100.00,M,M,-SN
IAG,2018-01-03 12:00,-78.9462,43.1073,M,M,M,210.00,17.00,30.10,M,M,4.00,M,1999.00,M,M,-SN
IAG,2018-01-03 12:05,-78.9462,43.1073,M,M,M,220.00,18.00,30.10,M,M,4.00,M,1999.00,M,M,-SN
IAG,2018-01-03 12:10,-78.9462,43.1073,M,M,M,210.00,15.00,30.10,M,M,4.00,M,1999.00,M,M,-SN
IAG,2018-01-03 12:15,-78.9462,43.1073,M,M,M,M,M,30.10,M,M,4.00,M,1999.00,M,M,-SN
IAG,2018-01-03 12:20,-78.9462,43.1073,M,M,M,210.00,17.00,30.10,M,M,4.00,M,1999.00,M,M,-SN
IAG,2018-01-03 12:25,-78.9462,43.1073,M,M,M,M,M,30.10,M,M,4.00,M,2200.00,M,M,-SN
IAG,2018-01-03 12:30,-78.9462,43.1073,M,M,M,200.00,13.00,30.10,M,M,4.00,M,2200.00,M,M,-SN
IAG,2018-01-03 12:35,-78.9462,43.1073,M,M,M,210.00,14.00,30.09,M,M,6.00,M,2200.00,M,M,-SN
IAG,2018-01-03 12:40,-78.9462,43.1073,M,M,M,200.00,14.00,30.10,M,M,6.00,M,2200.00,M,M,-SN
IAG,2018-01-03 12:45,-78.9462,43.1073,M,M,M,190.00,14.00,30.10,M,M,5.00,M,2200.00,M,M,-SN
IAG,2018-01-03 12:50,-78.9462,43.1073,M,M,M,190.00,13.00,30.09,M,M,5.00,M,2200.00,M,M,-SN
IAG,2018-01-03 12:53,-78.9462,43.1073,16.00,7.00,67.08,190.00,14.00,30.10,1021.30,T,5.00,M,2200.00,M,M,-SN
IAG,2018-01-03 12:55,-78.9462,43.1073,M,M,M,190.00,14.00,30.09,M,M,5.00,M,2200.00,M,M,-SN
IAG,2018-01-03 13:00,-78.9462,43.1073,M,M,M,190.00,14.00,30.10,M,M,5.00,19.00,2400.00,M,M,-SN
IAG,2018-01-03 13:05,-78.9462,43.1073,M,M,M,190.00,14.00,30.10,M,M,5.00,M,2400.00,M,M,-SN
IAG,2018-01-03 13:10,-78.9462,43.1073,M,M,M,190.00,14.00,30.09,M,M,3.00,M,2400.00,M,M,-SN
IAG,2018-01-03 13:15,-78.9462,43.1073,M,M,M,200.00,13.00,30.10,M,M,3.00,M,2400.00,M,M,-SN
IAG,2018-01-03 13:20,-78.9462,43.1073,M,M,M,190.00,16.00,30.10,M,M,3.00,M,2600.00,M,M,-SN
IAG,2018-01-03 13:25,-78.9462,43.1073,M,M,M,200.00,15.00,30.09,M,M,3.00,M,2600.00,M,M,-SN
IAG,2018-01-03 13:30,-78.9462,43.1073,M,M,M,200.00,13.00,30.09,M,M,3.00,M,2600.00,M,M,-SN
IAG,2018-01-03 13:35,-78.9462,43.1073,M,M,M,200.00,16.00,30.09,M,M,3.00,M,2600.00,M,M,-SN
IAG,2018-01-03 13:40,-78.9462,43.1073,M,M,M,200.00,13.00,30.10,M,M,3.00,M,2600.00,M,M,-SN
IAG,2018-01-03 13:45,-78.9462,43.1073,M,M,M,M,M,30.09,M,M,3.00,M,2800.00,M,M,-SN
IAG,2018-01-03 13:50,-78.9462,43.1073,M,M,M,200.00,16.00,30.09,M,M,5.00,M,2800.00,M,M,-SN
IAG,2018-01-03 13:53,-78.9462,43.1073,17.10,7.00,63.95,200.00,15.00,30.09,1021.00,T,5.00,23.00,2800.00,M,M,-SN
IAG,2018-01-03 13:55,-78.9462,43.1073,M,M,M,200.00,14.00,30.09,M,M,6.00,M,2800.00,M,M,-SN
IAG,2018-01-03 14:00,-78.9462,43.1073,M,M,M,M,M,30.09,M,M,7.00,M,2800.00,M,M,M
IAG,2018-01-03 14:05,-78.9462,43.1073,M,M,M,200.00,15.00,30.09,M,M,7.00,M,2900.00,M,M,-SN
IAG,2018-01-03 14:10,-78.9462,43.1073,M,M,M,180.00,12.00,30.09,M,M,7.00,M,2900.00,M,M,-SN
IAG,2018-01-03 14:15,-78.9462,43.1073,M,M,M,180.00,13.00,30.08,M,M,8.00,M,2900.00,M,M,M
IAG,2018-01-03 14:20,-78.9462,43.1073,M,M,M,180.00,12.00,30.09,M,M,10.00,M,2900.00,M,M,M
IAG,2018-01-03 14:25,-78.9462,43.1073,M,M,M,190.00,13.00,30.09,M,M,10.00,M,2900.00,M,M,M
IAG,2018-01-03 14:30,-78.9462,43.1073,M,M,M,190.00,12.00,30.08,M,M,10.00,18.00,2900.00,M,M,M
IAG,2018-01-03 14:35,-78.9462,43.1073,M,M,M,200.00,16.00,30.08,M,M,10.00,M,2900.00,M,M,M
IAG,2018-01-03 14:40,-78.9462,43.1073,M,M,M,190.00,16.00,30.08,M,M,10.00,M,2800.00,M,M,M
IAG,2018-01-03 14:45,-78.9462,43.1073,M,M,M,190.00,15.00,30.08,M,M,10.00,M,2800.00,M,M,M
IAG,2018-01-03 14:50,-78.9462,43.1073,M,M,M,200.00,15.00,30.08,M,M,10.00,M,2800.00,M,M,M
IAG,2018-01-03 14:53,-78.9462,43.1073,17.10,6.10,61.39,200.00,15.00,30.08,1020.60,T,10.00,M,2800.00,M,M,M
IAG,2018-01-03 14:55,-78.9462,43.1073,M,M,M,M,M,30.08,M,M,10.00,M,2700.00,M,M,M
IAG,2018-01-03 15:00,-78.9462,43.1073,M,M,M,190.00,15.00,30.07,M,M,10.00,M,2700.00,M,M,M
IAG,2018-01-03 15:05,-78.9462,43.1073,M,M,M,190.00,15.00,30.07,M,M,10.00,M,2700.00,M,M,M
IAG,2018-01-03 15:10,-78.9462,43.1073,M,M,M,200.00,16.00,30.08,M,M,10.00,M,2700.00,M,M,M
IAG,2018-01-03 15:15,-78.9462,43.1073,M,M,M,200.00,14.00,30.07,M,M,10.00,M,2600.00,M,M,M
IAG,2018-01-03 15:20,-78.9462,43.1073,M,M,M,200.00,17.00,30.07,M,M,10.00,M,2600.00,M,M,M
IAG,2018-01-03 15:25,-78.9462,43.1073,M,M,M,200.00,17.00,30.07,M,M,10.00,M,2600.00,M,M,M
IAG,2018-01-03 15:30,-78.9462,43.1073,M,M,M,M,M,30.07,M,M,10.00,M,2600.00,M,M,M
IAG,2018-01-03 15:35,-78.9462,43.1073,M,M,M,200.00,14.00,30.07,M,M,10.00,M,2600.00,M,M,M
IAG,2018-01-03 15:40,-78.9462,43.1073,M,M,M,M,M,30.07,M,M,10.00,M,2600.00,M,M,M
IAG,2018-01-03 15:45,-78.9462,43.1073,M,M,M,M,M,30.07,M,M,9.00,M,2600.00,M,M,M
IAG,2018-01-03 15:50,-78.9462,43.1073,M,M,M,200.00,20.00,30.07,M,M,9.00,M,2600.00,M,M,M
IAG,2018-01-03 15:53,-78.9462,43.1073,18.00,7.00,61.52,210.00,17.00,30.07,1020.20,0.00,9.00,24.00,2600.00,M,M,M
IAG,2018-01-03 15:55,-78.9462,43.1073,M,M,M,200.00,17.00,30.06,M,M,9.00,M,2200.00,M,M,M
IAG,2018-01-03 16:00,-78.9462,43.1073,M,M,M,200.00,14.00,30.06,M,M,10.00,M,2200.00,M,M,M
IAG,2018-01-03 16:05,-78.9462,43.1073,M,M,M,M,M,30.06,M,M,9.00,M,2200.00,M,M,M
IAG,2018-01-03 16:10,-78.9462,43.1073,M,M,M,M,M,30.05,M,M,9.00,M,2200.00,M,M,M
IAG,2018-01-03 16:15,-78.9462,43.1073,M,M,M,200.00,16.00,30.05,M,M,9.00,M,2200.00,M,M,M
IAG,2018-01-03 16:20,-78.9462,43.1073,M,M,M,M,M,30.05,M,M,10.00,M,2200.00,M,M,M
IAG,2018-01-03 16:25,-78.9462,43.1073,M,M,M,M,M,30.04,M,M,10.00,M,2200.00,M,M,M
IAG,2018-01-03 16:30,-78.9462,43.1073,M,M,M,M,M,30.04,M,M,10.00,M,2200.00,M,M,M
IAG,2018-01-03 16:35,-78.9462,43.1073,M,M,M,M,M,30.03,M,M,9.00,M,2200.00,M,M,M
IAG,2018-01-03 16:40,-78.9462,43.1073,M,M,M,200.00,14.00,30.03,M,M,9.00,M,2200.00,M,M,M
IAG,2018-01-03 16:45,-78.9462,43.1073,M,M,M,M,M,30.03,M,M,10.00,M,2200.00,M,M,M
IAG,2018-01-03 16:50,-78.9462,43.1073,M,M,M,200.00,20.00,30.03,M,M,9.00,M,2500.00,9000.00,M,M
IAG,2018-01-03 16:53,-78.9462,43.1073,19.90,5.00,51.77,210.00,20.00,30.03,1018.90,0.00,9.00,28.00,2500.00,9000.00,M,M
IAG,2018-01-03 16:55,-78.9462,43.1073,M,M,M,210.00,18.00,30.03,M,M,9.00,M,9500.00,M,M,M
IAG,2018-01-03 17:00,-78.9462,43.1073,M,M,M,M,M,30.02,M,M,8.00,M,7000.00,9000.00,M,M
IAG,2018-01-03 17:05,-78.9462,43.1073,M,M,M,M,M,30.02,M,M,7.00,M,6500.00,9000.00,M,M
IAG,2018-01-03 17:10,-78.9462,43.1073,M,M,M,210.00,18.00,30.02,M,M,9.00,M,6500.00,9000.00,M,M
IAG,2018-01-03 17:15,-78.9462,43.1073,M,M,M,M,M,30.01,M,M,10.00,M,6500.00,9000.00,M,M
IAG,2018-01-03 17:20,-78.9462,43.1073,M,M,M,M,M,30.01,M,M,8.00,M,6500.00,8500.00,M,M
IAG,2018-01-03 17:25,-78.9462,43.1073,M,M,M,M,M,30.00,M,M,8.00,M,6500.00,7999.00,M,M
IAG,2018-01-03 17:30,-78.9462,43.1073,M,M,M,210.00,20.00,30.00,M,M,10.00,M,6500.00,7999.00,M,M
IAG,2018-01-03 17:35,-78.9462,43.1073,M,M,M,M,M,30.00,M,M,10.00,M,7500.00,8500.00,M,M
IAG,2018-01-03 17:40,-78.9462,43.1073,M,M,M,M,M,30.00,M,M,10.00,M,7500.00,M,M,M
IAG,2018-01-03 17:45,-78.9462,43.1073,M,M,M,210.00,18.00,29.99,M,M,9.00,M,6500.00,7999.00,M,M
IAG,2018-01-03 17:50,-78.9462,43.1073,M,M,M,M,M,29.99,M,M,10.00,M,6000.00,7999.00,M,M
IAG,2018-01-03 17:53,-78.9462,43.1073,21.90,7.00,52.10,220.00,19.00,29.99,1017.50,0.00,10.00,26.00,6000.00,7500.00,M,M
IAG,2018-01-03 17:55,-78.9462,43.1073,M,M,M,210.00,19.00,29.99,M,M,10.00,M,6000.00,7999.00,M,M
IAG,2018-01-03 18:00,-78.9462,43.1073,M,M,M,M,M,29.98,M,M,10.00,M,6500.00,M,M,M
IAG,2018-01-03 18:05,-78.9462,43.1073,M,M,M,210.00,20.00,29.98,M,M,10.00,M,6500.00,7999.00,M,M
IAG,2018-01-03 18:10,-78.9462,43.1073,M,M,M,M,M,29.98,M,M,9.00,M,6000.00,7999.00,M,M
IAG,2018-01-03 18:15,-78.9462,43.1073,M,M,M,M,M,29.98,M,M,9.00,M,6500.00,7999.00,M,M
IAG,2018-01-03 18:20,-78.9462,43.1073,M,M,M,210.00,17.00,29.98,M,M,10.00,M,6000.00,7500.00,M,M
IAG,2018-01-03 18:25,-78.9462,43.1073,M,M,M,M,M,29.98,M,M,10.00,M,6500.00,7999.00,M,M
IAG,2018-01-03 18:30,-78.9462,43.1073,M,M,M,210.00,19.00,29.97,M,M,10.00,M,5500.00,7500.00,M,M
IAG,2018-01-03 18:35,-78.9462,43.1073,M,M,M,210.00,17.00,29.97,M,M,10.00,M,5000.00,7000.00,9000.00,M
IAG,2018-01-03 18:40,-78.9462,43.1073,M,M,M,M,M,29.97,M,M,10.00,M,5000.00,7000.00,M,M
IAG,2018-01-03 18:45,-78.9462,43.1073,M,M,M,M,M,29.97,M,M,10.00,M,4900.00,6000.00,M,M
IAG,2018-01-03 18:50,-78.9462,43.1073,M,M,M,210.00,17.00,29.97,M,M,10.00,M,4300.00,6000.00,M,M
IAG,2018-01-03 18:53,-78.9462,43.1073,21.90,7.00,52.10,220.00,19.00,29.97,1016.80,0.00,10.00,29.00,4300.00,6000.00,M,M
IAG,2018-01-03 18:55,-78.9462,43.1073,M,M,M,M,M,29.97,M,M,10.00,M,4800.00,M,M,M
IAG,2018-01-03 19:00,-78.9462,43.1073,M,M,M,220.00,19.00,29.96,M,M,10.00,M,4600.00,M,M,M
IAG,2018-01-03 19:05,-78.9462,43.1073,M,M,M,M,M,29.96,M,M,10.00,M,4600.00,M,M,M
IAG,2018-01-03 19:10,-78.9462,43.1073,M,M,M,210.00,15.00,29.96,M,M,10.00,20.00,4600.00,M,M,M
IAG,2018-01-03 19:15,-78.9462,43.1073,M,M,M,230.00,17.00,29.96,M,M,10.00,M,4600.00,M,M,M
IAG,2018-01-03 19:20,-78.9462,43.1073,M,M,M,230.00,18.00,29.96,M,M,10.00,M,4800.00,M,M,M
IAG,2018-01-03 19:25,-78.9462,43.1073,M,M,M,M,M,29.96,M,M,10.00,M,4800.00,M,M,M
IAG,2018-01-03 19:30,-78.9462,43.1073,M,M,M,M,M,29.96,M,M,10.00,M,5000.00,M,M,M
IAG,2018-01-03 19:35,-78.9462,43.1073,M,M,M,M,M,29.96,M,M,10.00,M,5000.00,M,M,M
IAG,2018-01-03 19:40,-78.9462,43.1073,M,M,M,M,M,29.96,M,M,10.00,M,5000.00,6000.00,M,M
IAG,2018-01-03 19:45,-78.9462,43.1073,M,M,M,M,M,29.96,M,M,10.00,M,5000.00,6000.00,M,M
IAG,2018-01-03 19:50,-78.9462,43.1073,M,M,M,220.00,16.00,29.95,M,M,10.00,M,5000.00,M,M,M
IAG,2018-01-03 19:53,-78.9462,43.1073,23.00,8.10,52.27,220.00,16.00,29.95,1016.30,0.00,10.00,22.00,5000.00,M,M,M
IAG,2018-01-03 19:55,-78.9462,43.1073,M,M,M,230.00,17.00,29.95,M,M,10.00,M,5000.00,6000.00,M,M
IAG,2018-01-03 20:00,-78.9462,43.1073,M,M,M,230.00,16.00,29.95,M,M,10.00,M,4800.00,6000.00,M,M
IAG,2018-01-03 20:05,-78.9462,43.1073,M,M,M,220.00,16.00,29.95,M,M,10.00,M,4800.00,6000.00,M,M
IAG,2018-01-03 20:10,-78.9462,43.1073,M,M,M,230.00,21.00,29.95,M,M,10.00,M,5000.00,M,M,M
IAG,2018-01-03 20:15,-78.9462,43.1073,M,M,M,220.00,16.00,29.95,M,M,10.00,M,4800.00,5500.00,M,M
IAG,2018-01-03 20:20,-78.9462,43.1073,M,M,M,230.00,17.00,29.95,M,M,10.00,M,4800.00,M,M,M
IAG,2018-01-03 20:25,-78.9462,43.1073,M,M,M,220.00,17.00,29.95,M,M,10.00,M,4800.00,M,M,M
IAG,2018-01-03 20:30,-78.9462,43.1073,M,M,M,M,M,29.95,M,M,10.00,M,4800.00,M,M,M
IAG,2018-01-03 20:35,-78.9462,43.1073,M,M,M,230.00,14.00,29.95,M,M,10.00,M,4800.00,M,M,M
IAG,2018-01-03 20:40,-78.9462,43.1073,M,M,M,230.00,14.00,29.94,M,M,10.00,M,4800.00,M,M,M
IAG,2018-01-03 20:45,-78.9462,43.1073,M,M,M,210.00,17.00,29.94,M,M,10.00,M,4800.00,M,M,M
IAG,2018-01-03 20:50,-78.9462,43.1073,M,M,M,220.00,17.00,29.95,M,M,10.00,M,4800.00,M,M,M
IAG,2018-01-03 20:53,-78.9462,43.1073,23.00,10.00,56.93,210.00,16.00,29.94,1016.00,0.00,10.00,25.00,4600.00,M,M,M
IAG,2018-01-03 20:55,-78.9462,43.1073,M,M,M,220.00,16.00,29.94,M,M,10.00,M,4600.00,M,M,M
IAG,2018-01-03 21:00,-78.9462,43.1073,M,M,M,M,M,29.94,M,M,10.00,M,4400.00,M,M,M
IAG,2018-01-03 21:05,-78.9462,43.1073,M,M,M,230.00,18.00,29.94,M,M,10.00,M,4200.00,5000.00,M,M
IAG,2018-01-03 21:10,-78.9462,43.1073,M,M,M,230.00,14.00,29.94,M,M,10.00,M,4400.00,M,M,M
IAG,2018-01-03 21:15,-78.9462,43.1073,M,M,M,220.00,14.00,29.94,M,M,10.00,M,4400.00,M,M,M
IAG,2018-01-03 21:20,-78.9462,43.1073,M,M,M,220.00,15.00,29.94,M,M,10.00,M,4200.00,M,M,M
IAG,2018-01-03 21:25,-78.9462,43.1073,M,M,M,210.00,16.00,29.94,M,M,10.00,M,4400.00,11000.00,M,M
IAG,2018-01-03 21:30,-78.9462,43.1073,M,M,M,220.00,17.00,29.94,M,M,10.00,M,4400.00,5000.00,11000.00,M
IAG,2018-01-03 21:35,-78.9462,43.1073,M,M,M,220.00,16.00,29.94,M,M,10.00,M,4600.00,5500.00,11000.00,M
IAG,2018-01-03 21:40,-78.9462,43.1073,M,M,M,220.00,14.00,29.95,M,M,10.00,M,4800.00,6000.00,M,M
IAG,2018-01-03 21:45,-78.9462,43.1073,M,M,M,M,M,29.95,M,M,10.00,M,4600.00,6000.00,M,M
IAG,2018-01-03 21:50,-78.9462,43.1073,M,M,M,220.00,16.00,29.95,M,M,10.00,M,4600.00,M,M,M
IAG,2018-01-03 21:53,-78.9462,43.1073,23.00,10.90,59.26,230.00,15.00,29.95,1016.10,0.00,10.00,23.00,4600.00,M,M,M
IAG,2018-01-03 21:55,-78.9462,43.1073,M,M,M,230.00,15.00,29.95,M,M,10.00,M,4600.00,6000.00,M,M
IAG,2018-01-03 22:00,-78.9462,43.1073,M,M,M,M,M,29.95,M,M,10.00,M,4600.00,6000.00,12000.00,M
IAG,2018-01-03 22:05,-78.9462,43.1073,M,M,M,230.00,17.00,29.95,M,M,10.00,M,4200.00,12000.00,M,M
IAG,2018-01-03 22:10,-78.9462,43.1073,M,M,M,220.00,17.00,29.95,M,T,10.00,M,3999.00,M,M,UP
IAG,2018-01-03 22:15,-78.9462,43.1073,M,M,M,230.00,17.00,29.95,M,M,10.00,M,3999.00,M,M,M
IAG,2018-01-03 22:20,-78.9462,43.1073,M,M,M,220.00,16.00,29.95,M,M,10.00,M,4200.00,M,M,M
IAG,2018-01-03 22:25,-78.9462,43.1073,M,M,M,M,M,29.95,M,M,10.00,M,4400.00,M,M,M
IAG,2018-01-03 22:30,-78.9462,43.1073,M,M,M,230.00,16.00,29.95,M,T,10.00,M,4400.00,M,M,UP
IAG,2018-01-03 22:35,-78.9462,43.1073,M,M,M,230.00,17.00,29.96,M,T,10.00,M,4400.00,M,M,UP
IAG,2018-01-03 22:40,-78.9462,43.1073,M,M,M,230.00,18.00,29.96,M,M,10.00,M,4400.00,M,M,M
IAG,2018-01-03 22:45,-78.9462,43.1073,M,M,M,220.00,15.00,29.96,M,M,9.00,M,4200.00,M,M,M
IAG,2018-01-03 22:50,-78.9462,43.1073,M,M,M,220.00,15.00,29.97,M,M,8.00,M,3999.00,M,M,-SN
IAG,2018-01-03 22:53,-78.9462,43.1073,24.10,12.00,59.42,230.00,18.00,29.97,1016.70,T,6.00,25.00,3800.00,M,M,-SN
IAG,2018-01-03 22:55,-78.9462,43.1073,M,M,M,230.00,18.00,29.97,M,M,5.00,M,3600.00,M,M,-SN
IAG,2018-01-03 23:00,-78.9462,43.1073,M,M,M,230.00,18.00,29.97,M,M,4.00,M,3399.00,M,M,-SN
IAG,2018-01-03 23:05,-78.9462,43.1073,M,M,M,M,M,29.97,M,M,3.50,M,3200.00,M,M,-SN
IAG,2018-01-03 23:10,-78.9462,43.1073,M,M,M,230.00,15.00,29.97,M,M,3.00,M,3000.00,M,M,-SN
IAG,2018-01-03 23:15,-78.9462,43.1073,M,M,M,230.00,17.00,29.97,M,M,4.00,M,3200.00,M,M,-SN
IAG,2018-01-03 23:20,-78.9462,43.1073,M,M,M,230.00,16.00,29.97,M,M,4.00,M,3200.00,M,M,-SN
IAG,2018-01-03 23:25,-78.9462,43.1073,M,M,M,230.00,13.00,29.97,M,M,4.00,M,3200.00,4600.00,M,-SN
IAG,2018-01-03 23:30,-78.9462,43.1073,M,M,M,230.00,13.00,29.98,M,M,6.00,M,3200.00,4600.00,M,-SN
IAG,2018-01-03 23:35,-78.9462,43.1073,M,M,M,220.00,15.00,29.98,M,M,6.00,M,3399.00,4600.00,M,-SN
IAG,2018-01-03 23:40,-78.9462,43.1073,M,M,M,230.00,17.00,29.98,M,M,5.00,M,3399.00,4600.00,M,-SN
IAG,2018-01-03 23:45,-78.9462,43.1073,M,M,M,230.00,16.00,29.98,M,M,4.00,M,3399.00,4600.00,M,-SN
IAG,2018-01-03 23:50,-78.9462,43.1073,M,M,M,220.00,16.00,29.97,M,M,4.00,M,3300.00,4600.00,M,-SN
IAG,2018-01-03 23:53,-78.9462,43.1073,24.10,12.90,61.83,230.00,17.00,29.97,1017.00,T,4.00,M,3300.00,4600.00,M,-SN
IAG,2018-01-03 23:55,-78.9462,43.1073,M,M,M,230.00,15.00,29.97,M,M,4.00,M,3100.00,4600.00,M,-SN
ROC,2018-01-01 00:00,-77.6767,43.1167,M,M,M,260.00,7.00,30.39,M,M,2.00,M,1500.00,M,M,-SN BR
ROC,2018-01-01 00:05,-77.6767,43.1167,M,M,M,260.00,6.00,30.38,M,M,2.00,M,1500.00,M,M,-SN BR
ROC,2018-01-01 00:10,-77.6767,43.1167,M,M,M,270.00,7.00,30.38,M,M,2.00,M,1300.00,M,M,-SN BR
ROC,2018-01-01 00:11,-77.6767,43.1167,5.00,1.90,86.68,270.00,7.00,30.38,M,T,1.50,M,1300.00,M,M,-SN BR
ROC,2018-01-01 00:15,-77.6767,43.1167,M,M,M,270.00,7.00,30.39,M,M,1.50,M,1300.00,M,M,-SN BR
ROC,2018-01-01 00:20,-77.6767,43.1167,M,M,M,270.00,6.00,30.39,M,M,1.50,M,1300.00,M,M,-SN BR
ROC,2018-01-01 00:25,-77.6767,43.1167,M,M,M,270.00,6.00,30.39,M,M,1.50,M,1300.00,M,M,-SN BR
ROC,2018-01-01 00:30,-77.6767,43.1167,M,M,M,270.00,6.00,30.39,M,M,1.50,M,1200.00,M,M,-SN BR
ROC,2018-01-01 00:35,-77.6767,43.1167,M,M,M,270.00,7.00,30.38,M,M,1.50,M,1400.00,M,M,-SN BR
ROC,2018-01-01 00:40,-77.6767,43.1167,M,M,M,270.00,7.00,30.38,M,M,1.50,M,1400.00,M,M,-SN BR
ROC,2018-01-01 00:45,-77.6767,43.1167,M,M,M,270.00,7.00,30.38,M,M,1.50,M,1400.00,M,M,-SN BR
ROC,2018-01-01 00:50,-77.6767,43.1167,M,M,M,270.00,6.00,30.38,M,M,1.50,M,1400.00,M,M,-SN BR
ROC,2018-01-01 00:54,-77.6767,43.1167,6.10,3.00,86.74,270.00,7.00,30.38,1030.70,T,1.50,M,1400.00,M,M,-SN BR
ROC,2018-01-01 00:55,-77.6767,43.1167,M,M,M,270.00,7.00,30.38,M,M,2.00,M,2100.00,M,M,-SN BR
ROC,2018-01-01 01:00,-77.6767,43.1167,M,M,M,260.00,6.00,30.38,M,M,2.50,M,2300.00,4600.00,M,-SN BR
ROC,2018-01-01 01:01,-77.6767,43.1167,6.10,3.00,86.74,260.00,6.00,30.38,M,T,2.50,M,2300.00,4600.00,M,-SN BR
ROC,2018-01-01 01:05,-77.6767,43.1167,M,M,M,260.00,6.00,30.38,M,0.01,2.50,M,2300.00,4600.00,M,-SN BR
ROC,2018-01-01 01:10,-77.6767,43.1167,M,M,M,260.00,6.00,30.38,M,0.01,2.00,M,2300.00,M,M,-SN BR
ROC,2018-01-01 01:15,-77.6767,43.1167,M,M,M,260.00,6.00,30.38,M,0.01,2.00,M,2300.00,M,M,-SN BR
ROC,2018-01-01 01:20,-77.6767,43.1167,M,M,M,260.00,7.00,30.38,M,0.01,1.75,M,2300.00,M,M,-SN BR
ROC,2018-01-01 01:23,-77.6767,43.1167,6.10,3.00,86.74,260.00,7.00,30.38,M,0.01,1.50,M,2100.00,M,M,-SN BR
ROC,2018-01-01 01:25,-77.6767,43.1167,M,M,M,260.00,7.00,30.38,M,0.01,1.50,M,1900.00,M,M,-SN BR
ROC,2018-01-01 01:30,-77.6767,43.1167,M,M,M,260.00,7.00,30.38,M,0.01,1.25,M,1900.00,M,M,-SN BR
ROC,2018-01-01 01:35,-77.6767,43.1167,M,M,M,250.00,7.00,30.38,M,0.01,1.50,M,1900.00,M,M,-SN BR
ROC,2018-01-01 01:40,-77.6767,43.1167,M,M,M,260.00,6.00,30.38,M,0.01,1.75,M,1800.00,M,M,-SN BR
ROC,2018-01-01 01:45,-77.6767,43.1167,M,M,M,260.00,7.00,30.38,M,0.01,1.50,M,1600.00,M,M,-SN BR
ROC,2018-01-01 01:50,-77.6767,43.1167,M,M,M,270.00,7.00,30.38,M,0.01,1.50,M,1600.00,M,M,-SN BR
ROC,2018-01-01 01:54,-77.6767,43.1167,6.10,3.00,86.74,260.00,8.00,30.38,1030.60,0.01,1.50,M,1600.00,M,M,-SN BR
ROC,2018-01-01 01:55,-77.6767,43.1167,M,M,M,270.00,8.00,30.38,M,M,1.50,M,1600.00,M,M,-SN BR
ROC,2018-01-01 02:00,-77.6767,43.1167,M,M,M,260.00,7.00,30.38,M,M,1.50,M,1600.00,M,M,-SN BR
ROC,2018-01-01 02:05,-77.6767,43.1167,M,M,M,260.00,6.00,30.38,M,M,1.50,M,1600.00,M,M,-SN BR
ROC,2018-01-01 02:10,-77.6767,43.1167,M,M,M,270.00,6.00,30.38,M,M,1.50,M,1600.00,M,M,-SN BR
ROC,2018-01-01 02:15,-77.6767,43.1167,M,M,M,260.00,7.00,30.38,M,M,1.25,M,1500.00,M,M,-SN BR
ROC,2018-01-01 02:20,-77.6767,43.1167,M,M,M,270.00,7.00,30.38,M,M,1.25,M,1500.00,M,M,-SN BR
ROC,2018-01-01 02:25,-77.6767,43.1167,M,M,M,270.00,7.00,30.38,M,M,1.25,M,1400.00,M,M,-SN BR
ROC,2018-01-01 02:27,-77.6767,43.1167,7.00,3.00,83.27,280.00,8.00,30.38,M,T,1.25,M,1400.00,M,M,-SN BR
ROC,2018-01-01 02:30,-77.6767,43.1167,M,M,M,280.00,7.00,30.38,M,M,1.25,M,1400.00,M,M,-SN BR
ROC,2018-01-01 02:35,-77.6767,43.1167,M,M,M,280.00,8.00,30.38,M,M,1.25,M,1400.00,M,M,-SN BR
ROC,2018-01-01 02:40,-77.6767,43.1167,M,M,M,280.00,8.00,30.38,M,M,1.25,M,1400.00,M,M,-SN BR
ROC,2018-01-01 02:45,-77.6767,43.1167,M,M,M,280.00,8.00,30.38,M,M,1.25,M,1400.00,M,M,-SN BR
ROC,2018-01-01 02:50,-77.6767,43.1167,M,M,M,280.00,8.00,30.39,M,M,1.00,M,1400.00,M,M,-SN BR
ROC,2018-01-01 02:54,-77.6767,43.1167,7.00,3.00,83.27,280.00,8.00,30.39,1030.70,T,1.25,M,1500.00,M,M,-SN BR
ROC,2018-01-01 02:55,-77.6767,43.1167,M,M,M,280.00,9.00,30.39,M,M,1.25,M,1500.00,M,M,-SN BR
ROC,2018-01-01 03:00,-77.6767,43.1167,M,M,M,280.00,8.00,30.39,M,M,1.50,M,1699.00,M,M,-SN BR
ROC,2018-01-01 03:05,-77.6767,43.1167,M,M,M,270.00,7.00,30.39,M,M,1.50,M,1699.00,M,M,-SN BR
ROC,2018-01-01 03:10,-77.6767,43.1167,M,M,M,260.00,8.00,30.39,M,M,1.50,M,1800.00,M,M,-SN BR
ROC,2018-01-01 03:15,-77.6767,43.1167,M,M,M,280.00,7.00,30.39,M,M,1.50,M,1800.00,M,M,-SN BR
ROC,2018-01-01 03:20,-77.6767,43.1167,M,M,M,280.00,8.00,30.38,M,M,1.75,M,1800.00,M,M,-SN BR
ROC,2018-01-01 03:25,-77.6767,43.1167,M,M,M,280.00,7.00,30.39,M,M,1.75,M,1800.00,M,M,-SN BR
ROC,2018-01-01 03:30,-77.6767,43.1167,M,M,M,280.00,7.00,30.39,M,M,1.75,M,1800.00,5000.00,M,-SN BR
ROC,2018-01-01 03:35,-77.6767,43.1167,M,M,M,280.00,7.00,30.39,M,M,2.00,M,1400.00,M,M,-SN BR
ROC,2018-01-01 03:36,-77.6767,43.1167,6.10,3.00,86.74,270.00,7.00,30.39,M,T,2.00,M,1800.00,M,M,-SN BR
ROC,2018-01-01 03:40,-77.6767,43.1167,M,M,M,280.00,8.00,30.39,M,M,1.75,M,1800.00,M,M,-SN BR
ROC,2018-01-01 03:45,-77.6767,43.1167,M,M,M,270.00,7.00,30.39,M,M,2.00,M,1600.00,M,M,-SN BR
ROC,2018-01-01 03:50,-77.6767,43.1167,M,M,M,280.00,8.00,30.39,M,M,2.00,M,1600.00,M,M,-SN BR
ROC,2018-01-01 03:54,-77.6767,43.1167,6.10,1.90,82.43,270.00,7.00,30.39,1030.80,T,2.00,M,1600.00,M,M,-SN BR
ROC,2018-01-01 03:55,-77.6767,43.1167,M,M,M,270.00,7.00,30.39,M,M,1.75,M,1600.00,M,M,-SN BR
ROC,2018-01-01 04:00,-77.6767,43.1167,M,M,M,270.00,7.00,30.39,M,M,2.00,M,1600.00,M,M,-SN BR
ROC,2018-01-01 04:05,-77.6767,43.1167,M,M,M,260.00,7.00,30.39,M,M,2.00,M,1600.00,5000.00,M,-SN BR
ROC,2018-01-01 04:10,-77.6767,43.1167,M,M,M,270.00,9.00,30.39,M,M,2.00,M,1600.00,5000.00,M,-SN BR
ROC,2018-01-01 04:15,-77.6767,43.1167,M,M,M,270.00,7.00,30.39,M,M,2.00,M,1999.00,5000.00,M,-SN BR
ROC,2018-01-01 04:20,-77.6767,43.1167,M,M,M,260.00,7.00,30.39,M,M,2.00,M,1999.00,5000.00,M,-SN BR
ROC,2018-01-01 04:25,-77.6767,43.1167,M,M,M,260.00,7.00,30.39,M,M,2.00,M,1999.00,5000.00,M,-SN BR
ROC,2018-01-01 04:30,-77.6767,43.1167,M,M,M,270.00,8.00,30.39,M,M,2.00,M,1999.00,5000.00,M,-SN BR
ROC,2018-01-01 04:35,-77.6767,43.1167,M,M,M,270.00,7.00,30.39,M,M,2.00,M,1999.00,M,M,-SN BR
ROC,2018-01-01 04:40,-77.6767,43.1167,M,M,M,270.00,7.00,30.39,M,M,2.00,M,2100.00,M,M,-SN BR
ROC,2018-01-01 04:45,-77.6767,43.1167,M,M,M,260.00,8.00,30.39,M,M,2.00,M,2100.00,M,M,-SN BR
ROC,2018-01-01 04:50,-77.6767,43.1167,M,M,M,250.00,7.00,30.39,M,M,2.00,M,2300.00,M,M,-SN BR
ROC,2018-01-01 04:54,-77.6767,43.1167,3.90,1.00,87.42,250.00,6.00,30.39,1030.70,T,2.00,M,2300.00,M,M,-SN BR
ROC,2018-01-01 04:55,-77.6767,43.1167,M,M,M,250.00,7.00,30.39,M,M,4.00,M,2300.00,M,M,-SN BR
ROC,2018-01-01 05:00,-77.6767,43.1167,M,M,M,250.00,7.00,30.38,M,M,2.00,M,2100.00,M,M,-SN BR
ROC,2018-01-01 05:05,-77.6767,43.1167,M,M,M,250.00,7.00,30.39,M,M,2.00,M,2100.00,M,M,-SN BR
ROC,2018-01-01 05:10,-77.6767,43.1167,M,M,M,250.00,8.00,30.38,M,M,2.00,M,1999.00,4700.00,M,-SN BR
ROC,2018-01-01 05:15,-77.6767,43.1167,M,M,M,250.00,8.00,30.38,M,M,2.00,M,2200.00,4500.00,M,-SN BR
ROC,2018-01-01 05:20,-77.6767,43.1167,M,M,M,260.00,6.00,30.38,M,M,2.00,M,2400.00,4500.00,M,-SN BR
ROC,2018-01-01 05:25,-77.6767,43.1167,M,M,M,260.00,7.00,30.38,M,M,2.00,M,2400.00,4500.00,M,-SN BR
ROC,2018-01-01 05:30,-77.6767,43.1167,M,M,M,250.00,7.00,30.38,M,M,2.00,M,2400.00,4400.00,M,-SN BR
ROC,2018-01-01 05:35,-77.6767,43.1167,M,M,M,260.00,6.00,30.38,M,M,2.00,M,2400.00,4400.00,M,-SN BR
ROC,2018-01-01 05:40,-77.6767,43.1167,M,M,M,270.00,6.00,30.38,M,M,2.00,M,2200.00,4400.00,M,-SN BR
ROC,2018-01-01 05:45,-77.6767,43.1167,M,M,M,260.00,7.00,30.38,M,M,1.75,M,2200.00,4400.00,M,-SN BR
ROC,2018-01-01 05:50,-77.6767,43.1167,M,M,M,260.00,6.00,30.38,M,M,2.00,M,1999.00,4400.00,M,-SN BR
ROC,2018-01-01 05:54,-77.6767,43.1167,3.90,1.00,87.42,260.00,6.00,30.38,1030.60,T,2.00,M,2000.00,4400.00,M,-SN BR
ROC,2018-01-01 05:55,-77.6767,43.1167,M,M,M,260.00,6.00,30.38,M,M,2.50,M,1999.00,4400.00,M,-SN BR
ROC,2018-01-01 06:00,-77.6767,43.1167,M,M,M,260.00,6.00,30.39,M,M,2.00,M,1900.00,4400.00,M,-SN BR
ROC,2018-01-01 06:05,-77.6767,43.1167,M,M,M,260.00,6.00,30.39,M,M,2.00,M,1900.00,4400.00,M,-SN BR
ROC,2018-01-01 06:10,-77.6767,43.1167,M,M,M,260.00,6.00,30.39,M,M,2.00,M,2100.00,4400.00,M,-SN BR
ROC,2018-01-01 06:15,-77.6767,43.1167,M,M,M,260.00,6.00,30.39,M,M,2.00,M,2300.00,4200.00,M,-SN BR
ROC,2018-01-01 06:20,-77.6767,43.1167,M,M,M,260.00,6.00,30.39,M,M,2.50,M,2100.00,4200.00,M,-SN BR
ROC,2018-01-01 06:25,-77.6767,43.1167,M,M,M,270.00,6.00,30.39,M,M,2.50,M,2100.00,4200.00,M,-SN BR
ROC,2018-01-01 06:30,-77.6767,43.1167,M,M,M,260.00,6.00,30.39,M,M,2.00,M,2100.00,4200.00,M,-SN BR
ROC,2018-01-01 06:35,-77.6767,43.1167,M,M,M,260.00,6.00,30.39,M,M,2.50,M,2100.00,4200.00,M,-SN BR
ROC,2018-01-01 06:40,-77.6767,43.1167,M,M,M,260.00,7.00,30.39,M,M,2.00,M,2100.00,4200.00,M,-SN BR
ROC,2018-01-01 06:45,-77.6767,43.1167,M,M,M,260.00,6.00,30.39,M,M,2.00,M,2100.00,4200.00,M,-SN BR
ROC,2018-01-01 06:50,-77.6767,43.1167,M,M,M,260.00,6.00,30.39,M,M,2.00,M,2100.00,4200.00,M,-SN BR
ROC,2018-01-01 06:54,-77.6767,43.1167,3.90,1.00,87.42,250.00,6.00,30.39,1031.00,T,2.00,M,2100.00,4200.00,M,-SN BR
ROC,2018-01-01 06:55,-77.6767,43.1167,M,M,M,260.00,6.00,30.39,M,M,2.00,M,2300.00,4200.00,M,-SN BR
ROC,2018-01-01 07:00,-77.6767,43.1167,M,M,M,260.00,6.00,30.39,M,M,2.00,M,2100.00,4200.00,M,-SN BR
ROC,2018-01-01 07:05,-77.6767,43.1167,M,M,M,260.00,5.00,30.40,M,M,1.50,M,1900.00,4200.00,M,-SN BR
ROC,2018-01-01 07:10,-77.6767,43.1167,M,M,M,260.00,6.00,30.40,M,M,2.00,M,1900.00,4100.00,M,-SN BR
ROC,2018-01-01 07:15,-77.6767,43.1167,M,M,M,260.00,6.00,30.40,M,M,2.00,M,2100.00,4100.00,M,-SN BR
ROC,2018-01-01 07:20,-77.6767,43.1167,M,M,M,250.00,6.00,30.40,M,M,2.00,M,2100.00,4100.00,M,-SN BR
ROC,2018-01-01 07:25,-77.6767,43.1167,M,M,M,250.00,7.00,30.39,M,M,2.00,M,2100.00,4300.00,M,-SN BR
ROC,2018-01-01 07:30,-77.6767,43.1167,M,M,M,250.00,6.00,30.40,M,M,2.00,M,2100.00,4300.00,M,-SN BR
ROC,2018-01-01 07:35,-77.6767,43.1167,M,M,M,250.00,6.00,30.40,M,M,2.00,M,2300.00,4300.00,M,-SN BR
ROC,2018-01-01 07:40,-77.6767,43.1167,M,M,M,250.00,6.00,30.40,M,M,2.00,M,2100.00,4300.00,M,-SN BR
ROC,2018-01-01 07:45,-77.6767,43.1167,M,M,M,260.00,6.00,30.40,M,M,2.00,M,2100.00,4300.00,M,-SN BR
ROC,2018-01-01 07:50,-77.6767,43.1167,M,M,M,260.00,5.00,30.40,M,M,2.00,M,2100.00,4300.00,M,-SN BR
ROC,2018-01-01 07:54,-77.6767,43.1167,5.00,1.90,86.68,270.00,5.00,30.40,1031.10,T,1.75,M,1900.00,M,M,-SN BR
ROC,2018-01-01 07:55,-77.6767,43.1167,M,M,M,260.00,5.00,30.40,M,M,1.75,M,1900.00,M,M,-SN BR
ROC,2018-01-01 08:00,-77.6767,43.1167,M,M,M,260.00,5.00,30.40,M,M,1.75,M,1900.00,M,M,-SN BR
ROC,2018-01-01 08:05,-77.6767,43.1167,M,M,M,260.00,5.00,30.39,M,M,1.75,M,1699.00,M,M,-SN BR
ROC,2018-01-01 08:10,-77.6767,43.1167,M,M,M,270.00,5.00,30.39,M,M,1.25,M,1699.00,M,M,-SN BR
ROC,2018-01-01 08:15,-77.6767,43.1167,M,M,M,270.00,5.00,30.39,M,M,1.50,M,1699.00,M,M,-SN BR
ROC,2018-01-01 08:20,-77.6767,43.1167,M,M,M,270.00,5.00,30.39,M,M,1.75,M,1699.00,M,M,-SN BR
ROC,2018-01-01 08:25,-77.6767,43.1167,M,M,M,270.00,5.00,30.39,M,M,1.50,M,1699.00,M,M,-SN BR
ROC,2018-01-01 08:30,-77.6767,43.1167,M,M,M,270.00,4.00,30.39,M,M,2.50,M,1699.00,3999.00,M,-SN BR
ROC,2018-01-01 08:32,-77.6767,43.1167,3.90,1.90,91.16,270.00,4.00,30.39,M,T,3.00,M,1700.00,4000.00,M,-SN BR
ROC,2018-01-01 08:35,-77.6767,43.1167,M,M,M,270.00,4.00,30.39,M,M,3.50,M,1699.00,3999.00,M,-SN BR
ROC,2018-01-01 08:40,-77.6767,43.1167,M,M,M,270.00,5.00,30.39,M,M,3.00,M,1699.00,3900.00,M,-SN BR
ROC,2018-01-01 08:45,-77.6767,43.1167,M,M,M,260.00,6.00,30.39,M,M,3.00,M,1800.00,3700.00,M,-SN BR
ROC,2018-01-01 08:50,-77.6767,43.1167,M,M,M,260.00,4.00,30.39,M,M,4.00,M,1800.00,3700.00,M,-SN BR
ROC,2018-01-01 08:54,-77.6767,43.1167,3.90,1.00,87.42,260.00,5.00,30.39,1030.70,T,5.00,M,1800.00,3700.00,M,-SN BR
ROC,2018-01-01 08:55,-77.6767,43.1167,M,M,M,250.00,5.00,30.39,M,M,6.00,M,1800.00,3700.00,M,-SN BR
ROC,2018-01-01 09:00,-77.6767,43.1167,M,M,M,250.00,5.00,30.39,M,M,8.00,M,1900.00,3500.00,M,-SN
ROC,2018-01-01 09:05,-77.6767,43.1167,M,M,M,250.00,5.00,30.39,M,M,9.00,M,1900.00,2800.00,3500.00,-SN
ROC,2018-01-01 09:10,-77.6767,43.1167,M,M,M,250.00,6.00,30.39,M,M,9.00,M,1900.00,2800.00,3500.00,-SN
ROC,2018-01-01 09:15,-77.6767,43.1167,M,M,M,250.00,6.00,30.39,M,M,9.00,M,1900.00,3300.00,M,M
ROC,2018-01-01 09:20,-77.6767,43.1167,M,M,M,250.00,6.00,30.39,M,M,10.00,M,M,M,M,M
ROC,2018-01-01 09:25,-77.6767,43.1167,M,M,M,250.00,7.00,30.39,M,M,10.00,M,3100.00,M,M,M
ROC,2018-01-01 09:30,-77.6767,43.1167,M,M,M,250.00,7.00,30.39,M,M,8.00,M,2900.00,M,M,M
ROC,2018-01-01 09:35,-77.6767,43.1167,M,M,M,260.00,6.00,30.39,M,M,8.00,M,2900.00,M,M,M
ROC,2018-01-01 09:40,-77.6767,43.1167,M,M,M,250.00,6.00,30.39,M,M,9.00,M,2900.00,M,M,M
ROC,2018-01-01 09:45,-77.6767,43.1167,M,M,M,270.00,5.00,30.39,M,M,9.00,M,2900.00,M,M,M
ROC,2018-01-01 09:50,-77.6767,43.1167,M,M,M,260.00,5.00,30.39,M,M,10.00,M,2900.00,M,M,M
ROC,2018-01-01 09:54,-77.6767,43.1167,1.90,-0.90,87.72,260.00,5.00,30.39,1031.00,T,10.00,M,2900.00,M,M,M
ROC,2018-01-01 09:55,-77.6767,43.1167,M,M,M,260.00,5.00,30.39,M,M,10.00,M,2900.00,M,M,M
ROC,2018-01-01 10:00,-77.6767,43.1167,M,M,M,250.00,6.00,30.39,M,M,10.00,M,2900.00,M,M,M
ROC,2018-01-01 10:05,-77.6767,43.1167,M,M,M,240.00,7.00,30.39,M,M,10.00,M,2900.00,M,M,M
ROC,2018-01-01 10:10,-77.6767,43.1167,M,M,M,240.00,6.00,30.39,M,M,10.00,M,2800.00,M,M,M
ROC,2018-01-01 10:15,-77.6767,43.1167,M,M,M,240.00,6.00,30.39,M,M,10.00,M,2800.00,M,M,M
ROC,2018-01-01 10:20,-77.6767,43.1167,M,M,M,240.00,7.00,30.39,M,M,10.00,M,2800.00,M,M,M
ROC,2018-01-01 10:25,-77.6767,43.1167,M,M,M,250.00,6.00,30.39,M,M,10.00,M,2800.00,M,M,M
ROC,2018-01-01 10:30,-77.6767,43.1167,M,M,M,260.00,5.00,30.39,M,M,10.00,M,M,M,M,M
ROC,2018-01-01 10:35,-77.6767,43.1167,M,M,M,260.00,6.00,30.39,M,M,10.00,M,M,M,M,M
ROC,2018-01-01 10:40,-77.6767,43.1167,M,M,M,250.00,6.00,30.39,M,M,10.00,M,M,M,M,M
ROC,2018-01-01 10:45,-77.6767,43.1167,M,M,M,250.00,7.00,30.39,M,M,10.00,M,M,M,M,M
ROC,2018-01-01 10:50,-77.6767,43.1167,M,M,M,250.00,6.00,30.39,M,M,10.00,M,M,M,M,M
ROC,2018-01-01 10:54,-77.6767,43.1167,-0.90,-4.00,86.31,250.00,7.00,30.39,1030.90,0.00,10.00,M,M,M,M,M
ROC,2018-01-01 10:55,-77.6767,43.1167,M,M,M,250.00,7.00,30.39,M,M,10.00,M,2600.00,M,M,M
ROC,2018-01-01 11:00,-77.6767,43.1167,M,M,M,250.00,7.00,30.39,M,M,9.00,M,2300.00,M,M,M
ROC,2018-01-01 11:05,-77.6767,43.1167,M,M,M,260.00,6.00,30.39,M,M,9.00,M,2300.00,M,M,M
ROC,2018-01-01 11:10,-77.6767,43.1167,M,M,M,250.00,6.00,30.39,M,M,10.00,M,2300.00,M,M,M
ROC,2018-01-01 11:15,-77.6767,43.1167,M,M,M,260.00,6.00,30.39,M,M,10.00,M,2400.00,M,M,M
ROC,2018-01-01 11:20,-77.6767,43.1167,M,M,M,260.00,6.00,30.40,M,M,10.00,M,2400.00,M,M,M
ROC,2018-01-01 11:25,-77.6767,43.1167,M,M,M,260.00,7.00,30.40,M,M,10.00,M,2400.00,M,M,M
ROC,2018-01-01 11:30,-77.6767,43.1167,M,M,M,260.00,6.00,30.40,M,M,10.00,M,2400.00,M,M,M
ROC,2018-01-01 11:34,-77.6767,43.1167,0.00,-2.90,87.19,270.00,6.00,30.40,M,0.00,10.00,M,2400.00,M,M,M
ROC,2018-01-01 11:35,-77.6767,43.1167,M,M,M,270.00,6.00,30.40,M,M,10.00,M,2300.00,M,M,M
ROC,2018-01-01 11:40,-77.6767,43.1167,M,M,M,260.00,6.00,30.40,M,M,10.00,M,2300.00,M,M,M
ROC,2018-01-01 11:45,-77.6767,43.1167,M,M,M,260.00,6.00,30.40,M,M,10.00,M,2300.00,M,M,M
ROC,2018-01-01 11:50,-77.6767,43.1167,M,M,M,260.00,6.00,30.39,M,M,10.00,M,2300.00,M,M,M
ROC,2018-01-01 11:54,-77.6767,43.1167,0.00,-2.90,87.19,260.00,6.00,30.39,1031.10,0.00,10.00,M,2300.00,M,M,M
ROC,2018-01-01 11:55,-77.6767,43.1167,M,M,M,260.00,5.00,30.39,M,M,10.00,M,2300.00,M,M,M
ROC,2018-01-01 12:00,-77.6767,43.1167,M,M,M,270.00,4.00,30.39,M,M,10.00,M,2300.00,M,M,M
ROC,2018-01-01 12:05,-77.6767,43.1167,M,M,M,270.00,4.00,30.39,M,M,10.00,M,2400.00,M,M,M
ROC,2018-01-01 12:10,-77.6767,43.1167,M,M,M,260.00,4.00,30.39,M,M,10.00,M,2400.00,M,M,M
ROC,2018-01-01 12:15,-77.6767,43.1167,M,M,M,260.00,3.00,30.39,M,M,10.00,M,M,M,M,M
ROC,2018-01-01 12:20,-77.6767,43.1167,M,M,M,250.00,4.00,30.39,M,M,10.00,M,M,M,M,M
ROC,2018-01-01 12:25,-77.6767,43.1167,M,M,M,250.00,5.00,30.39,M,M,10.00,M,2300.00,M,M,M
ROC,2018-01-01 12:30,-77.6767,43.1167,M,M,M,250.00,4.00,30.39,M,M,10.00,M,2300.00,M,M,M
ROC,2018-01-01 12:35,-77.6767,43.1167,M,M,M,230.00,4.00,30.39,M,M,10.00,M,2300.00,M,M,M
ROC,2018-01-01 12:40,-77.6767,43.1167,M,M,M,240.00,4.00,30.39,M,M,10.00,M,2300.00,M,M,M
ROC,2018-01-01 12:45,-77.6767,43.1167,M,M,M,230.00,4.00,30.39,M,M,10.00,M,2300.00,M,M,M
ROC,2018-01-01 12:50,-77.6767,43.1167,M,M,M,220.00,4.00,30.39,M,M,10.00,M,2300.00,M,M,M
ROC,2018-01-01 12:54,-77.6767,43.1167,-0.90,-5.10,81.87,220.00,3.00,30.39,1030.90,0.00,10.00,M,2300.00,M,M,M
ROC,2018-01-01 12:55,-77.6767,43.1167,M,M,M,210.00,3.00,30.39,M,M,10.00,M,7000.00,M,M,M
ROC,2018-01-01 13:00,-77.6767,43.1167,M,M,M,210.00,4.00,30.39,M,M,10.00,M,7000.00,M,M,M
ROC,2018-01-01 13:05,-77.6767,43.1167,M,M,M,220.00,4.00,30.39,M,M,10.00,M,7000.00,M,M,M
ROC,2018-01-01 13:10,-77.6767,43.1167,M,M,M,220.00,4.00,30.39,M,M,10.00,M,7000.00,M,M,M
ROC,2018-01-01 13:15,-77.6767,43.1167,M,M,M,220.00,4.00,30.39,M,M,9.00,M,7000.00,M,M,M
ROC,2018-01-01 13:20,-77.6767,43.1167,M,M,M,220.00,4.00,30.39,M,M,7.00,M,7000.00,M,M,M
ROC,2018-01-01 13:25,-77.6767,43.1167,M,M,M,210.00,3.00,30.39,M,M,7.00,M,7000.00,M,M,M
ROC,2018-01-01 13:30,-77.6767,43.1167,M,M,M,210.00,3.00,30.39,M,M,9.00,M,M,M,M,M
ROC,2018-01-01 13:35,-77.6767,43.1167,M,M,M,190.00,3.00,30.39,M,M,10.00,M,M,M,M,M
ROC,2018-01-01 13:40,-77.6767,43.1167,M,M,M,190.00,3.00,30.38,M,M,10.00,M,M,M,M,M
ROC,2018-01-01 13:45,-77.6767,43.1167,M,M,M,190.00,3.00,30.38,M,M,10.00,M,M,M,M,M
ROC,2018-01-01 13:50,-77.6767,43.1167,M,M,M,200.00,5.00,30.38,M,M,10.00,M,2500.00,7000.00,M,M
ROC,2018-01-01 13:54,-77.6767,43.1167,-0.90,-4.00,86.31,210.00,4.00,30.38,1030.70,0.00,10.00,M,2500.00,7000.00,M,M
ROC,2018-01-01 13:55,-77.6767,43.1167,M,M,M,210.00,4.00,30.38,M,M,10.00,M,M,M,M,M
ROC,2018-01-01 14:00,-77.6767,43.1167,M,M,M,220.00,4.00,30.38,M,M,10.00,M,M,M,M,M
ROC,2018-01-01 14:05,-77.6767,43.1167,M,M,M,220.00,4.00,30.38,M,M,10.00,M,M,M,M,M
ROC,2018-01-01 14:10,-77.6767,43.1167,M,M,M,220.00,4.00,30.38,M,M,10.00,M,M,M,M,M
ROC,2018-01-01 14:15,-77.6767,43.1167,M,M,M,220.00,5.00,30.38,M,M,10.00,M,M,M,M,M
ROC,2018-01-01 14:20,-77.6767,43.1167,M,M,M,220.00,6.00,30.38,M,M,10.00,M,M,M,M,M
ROC,2018-01-01 14:25,-77.6767,43.1167,M,M,M,220.00,6.00,30.38,M,M,10.00,M,M,M,M,M
ROC,2018-01-01 14:30,-77.6767,43.1167,M,M,M,220.00,7.00,30.38,M,M,10.00,M,M,M,M,M
ROC,2018-01-01 14:35,-77.6767,43.1167,M,M,M,220.00,7.00,30.38,M,M,10.00,M,M,M,M,M
ROC,2018-01-01 14:40,-77.6767,43.1167,M,M,M,210.00,8.00,30.38,M,M,10.00,M,M,M,M,M
ROC,2018-01-01 14:45,-77.6767,43.1167,M,M,M,210.00,8.00,30.37,M,M,10.00,M,2400.00,7999.00,M,M
ROC,2018-01-01 14:50,-77.6767,43.1167,M,M,M,220.00,8.00,30.37,M,M,10.00,M,2400.00,7999.00,M,M
ROC,2018-01-01 14:54,-77.6767,43.1167,3.90,0.00,83.42,220.00,8.00,30.37,1030.20,0.00,10.00,M,2400.00,8000.00,18000.00,M
ROC,2018-01-01 14:55,-77.6767,43.1167,M,M,M,220.00,9.00,30.37,M,M,10.00,M,M,M,M,M
ROC,2018-01-01 15:00,-77.6767,43.1167,M,M,M,220.00,10.00,30.37,M,M,10.00,M,M,M,M,M
ROC,2018-01-01 15:05,-77.6767,43.1167,M,M,M,220.00,10.00,30.37,M,M,10.00,M,M,M,M,M
ROC,2018-01-01 15:10,-77.6767,43.1167,M,M,M,220.00,9.00,30.37,M,M,10.00,M,M,M,M,M
ROC,2018-01-01 15:15,-77.6767,43.1167,M,M,M,220.00,9.00,30.37,M,M,10.00,M,M,M,M,M
ROC,2018-01-01 15:20,-77.6767,43.1167,M,M,M,210.00,10.00,30.37,M,M,10.00,M,M,M,M,M
ROC,2018-01-01 15:25,-77.6767,43.1167,M,M,M,210.00,9.00,30.37,M,M,10.00,M,M,M,M,M
ROC,2018-01-01 15:30,-77.6767,43.1167,M,M,M,210.00,8.00,30.36,M,M,10.00,M,M,M,M,M
ROC,2018-01-01 15:35,-77.6767,43.1167,M,M,M,210.00,9.00,30.36,M,M,10.00,M,2200.00,8500.00,M,M
ROC,2018-01-01 15:40,-77.6767,43.1167,M,M,M,210.00,8.00,30.36,M,M,10.00,M,2200.00,8500.00,M,M
ROC,2018-01-01 15:45,-77.6767,43.1167,M,M,M,220.00,10.00,30.36,M,M,10.00,M,2200.00,8500.00,M,M
ROC,2018-01-01 15:50,-77.6767,43.1167,M,M,M,220.00,9.00,30.36,M,M,10.00,M,2200.00,8500.00,M,M
ROC,2018-01-01 15:54,-77.6767,43.1167,7.00,0.00,72.41,220.00,10.00,30.36,1029.70,0.00,10.00,M,2200.00,8500.00,18000.00,M
ROC,2018-01-01 15:55,-77.6767,43.1167,M,M,M,220.00,10.00,30.36,M,M,10.00,M,M,M,M,M
ROC,2018-01-01 16:00,-77.6767,43.1167,M,M,M,M,M,30.35,M,M,10.00,M,M,M,M,M
ROC,2018-01-01 16:05,-77.6767,43.1167,M,M,M,220.00,9.00,30.35,M,M,10.00,M,M,M,M,M
ROC,2018-01-01 16:10,-77.6767,43.1167,M,M,M,220.00,10.00,30.34,M,M,10.00,M,M,M,M,M
ROC,2018-01-01 16:15,-77.6767,43.1167,M,M,M,M,M,30.34,M,M,10.00,M,M,M,M,M
ROC,2018-01-01 16:20,-77.6767,43.1167,M,M,M,220.00,11.00,30.34,M,M,10.00,M,M,M,M,M
ROC,2018-01-01 16:25,-77.6767,43.1167,M,M,M,220.00,11.00,30.33,M,M,10.00,M,M,M,M,M
ROC,2018-01-01 16:30,-77.6767,43.1167,M,M,M,220.00,10.00,30.33,M,M,10.00,M,M,M,M,M
ROC,2018-01-01 16:35,-77.6767,43.1167,M,M,M,210.00,9.00,30.33,M,M,10.00,M,M,M,M,M
ROC,2018-01-01 16:40,-77.6767,43.1167,M,M,M,220.00,10.00,30.33,M,M,10.00,M,M,M,M,M
ROC,2018-01-01 16:45,-77.6767,43.1167,M,M,M,230.00,11.00,30.32,M,M,10.00,M,M,M,M,M
ROC,2018-01-01 16:50,-77.6767,43.1167,M,M,M,220.00,11.00,30.32,M,M,10.00,M,M,M,M,M
ROC,2018-01-01 16:54,-77.6767,43.1167,10.00,1.00,66.29,230.00,11.00,30.32,1028.40,0.00,10.00,M,2100.00,8000.00,14000.00,M
ROC,2018-01-01 16:55,-77.6767,43.1167,M,M,M,230.00,11.00,30.32,M,M,10.00,M,M,M,M,M
ROC,2018-01-01 17:00,-77.6767,43.1167,M,M,M,230.00,11.00,30.32,M,M,10.00,M,M,M,M,M
ROC,2018-01-01 17:05,-77.6767,43.1167,M,M,M,230.00,12.00,30.31,M,M,10.00,M,M,M,M,M
ROC,2018-01-01 17:10,-77.6767,43.1167,M,M,M,240.00,11.00,30.31,M,M,10.00,M,M,M,M,M
ROC,2018-01-01 17:15,-77.6767,43.1167,M,M,M,240.00,11.00,30.30,M,M,10.00,M,M,M,M,M
ROC,2018-01-01 17:20,-77.6767,43.1167,M,M,M,M,M,30.30,M,M,10.00,M,M,M,M,M
ROC,2018-01-01 17:25,-77.6767,43.1167,M,M,M,220.00,10.00,30.30,M,M,10.00,M,M,M,M,M
ROC,2018-01-01 17:30,-77.6767,43.1167,M,M,M,230.00,11.00,30.29,M,M,10.00,M,M,M,M,M
ROC,2018-01-01 17:35,-77.6767,43.1167,M,M,M,230.00,10.00,30.29,M,M,10.00,M,M,M,M,M
ROC,2018-01-01 17:40,-77.6767,43.1167,M,M,M,M,M,30.29,M,M,10.00,M,M,M,M,M
ROC,2018-01-01 17:45,-77.6767,43.1167,M,M,M,M,M,30.29,M,M,10.00,M,M,M,M,M
ROC,2018-01-01 17:50,-77.6767,43.1167,M,M,M,260.00,14.00,30.29,M,M,10.00,M,M,M,M,-SN
ROC,2018-01-01 17:54,-77.6767,43.1167,15.10,1.90,55.19,260.00,18.00,30.28,1027.10,0.00,9.00,24.00,9000.00,M,M,M
ROC,2018-01-01 17:55,-77.6767,43.1167,M,M,M,M,M,30.29,M,M,9.00,M,9000.00,M,M,M
ROC,2018-01-01 18:00,-77.6767,43.1167,M,M,M,M,M,30.28,M,M,10.00,M,9000.00,M,M,M
ROC,2018-01-01 18:05,-77.6767,43.1167,M,M,M,M,M,30.28,M,M,8.00,M,9000.00,M,M,M
ROC,2018-01-01 18:10,-77.6767,43.1167,M,M,M,M,M,30.28,M,M,7.00,M,9000.00,M,M,M
ROC,2018-01-01 18:15,-77.6767,43.1167,M,M,M,M,M,30.28,M,M,9.00,M,9000.00,M,M,M
ROC,2018-01-01 18:20,-77.6767,43.1167,M,M,M,M,M,30.28,M,M,10.00,M,9000.00,M,M,M
ROC,2018-01-01 18:25,-77.6767,43.1167,M,M,M,M,M,30.28,M,M,10.00,M,M,M,M,M
ROC,2018-01-01 18:30,-77.6767,43.1167,M,M,M,M,M,30.27,M,M,9.00,M,M,M,M,M
ROC,2018-01-01 18:35,-77.6767,43.1167,M,M,M,M,M,30.27,M,M,9.00,M,7999.00,M,M,M
ROC,2018-01-01 18:40,-77.6767,43.1167,M,M,M,M,M,30.27,M,M,7.00,M,7999.00,M,M,M
ROC,2018-01-01 18:45,-77.6767,43.1167,M,M,M,M,M,30.27,M,M,6.00,M,7999.00,M,M,M
ROC,2018-01-01 18:50,-77.6767,43.1167,M,M,M,M,M,30.27,M,M,6.00,M,2600.00,7999.00,M,M
ROC,2018-01-01 18:54,-77.6767,43.1167,15.10,1.00,52.93,260.00,16.00,30.27,1026.70,0.00,7.00,28.00,2600.00,8000.00,13000.00,BLSN
ROC,2018-01-01 18:55,-77.6767,43.1167,M,M,M,M,M,30.27,M,M,7.00,M,7999.00,M,M,M
ROC,2018-01-01 19:00,-77.6767,43.1167,M,M,M,M,M,30.27,M,M,10.00,M,7999.00,M,M,M
ROC,2018-01-01 19:05,-77.6767,43.1167,M,M,M,M,M,30.27,M,M,10.00,M,M,M,M,M
ROC,2018-01-01 19:10,-77.6767,43.1167,M,M,M,M,M,30.27,M,M,9.00,M,M,M,M,M
ROC,2018-01-01 19:15,-77.6767,43.1167,M,M,M,M,M,30.27,M,M,9.00,M,11000.00,M,M,M
ROC,2018-01-01 19:20,-77.6767,43.1167,M,M,M,M,M,30.27,M,M,10.00,M,11000.00,M,M,M
ROC,2018-01-01 19:25,-77.6767,43.1167,M,M,M,M,M,30.27,M,M,10.00,M,7000.00,11000.00,M,M
ROC,2018-01-01 19:30,-77.6767,43.1167,M,M,M,M,M,30.27,M,M,10.00,M,7000.00,11000.00,M,M
ROC,2018-01-01 19:35,-77.6767,43.1167,M,M,M,M,M,30.27,M,M,10.00,M,7000.00,11000.00,M,M
ROC,2018-01-01 19:40,-77.6767,43.1167,M,M,M,M,M,30.27,M,M,10.00,M,7000.00,11000.00,M,M
ROC,2018-01-01 19:45,-77.6767,43.1167,M,M,M,M,M,30.27,M,M,10.00,M,6000.00,7000.00,M,M
ROC,2018-01-01 19:50,-77.6767,43.1167,M,M,M,M,M,30.26,M,M,10.00,M,4900.00,6000.00,7500.00,M
ROC,2018-01-01 19:54,-77.6767,43.1167,16.00,1.90,53.07,260.00,14.00,30.27,1026.50,0.00,10.00,M,3300.00,6000.00,7500.00,M
ROC,2018-01-01 19:55,-77.6767,43.1167,M,M,M,260.00,13.00,30.26,M,M,10.00,M,4900.00,6000.00,7500.00,M
ROC,2018-01-01 20:00,-77.6767,43.1167,M,M,M,M,M,30.27,M,M,10.00,20.00,5500.00,7500.00,M,M
ROC,2018-01-01 20:05,-77.6767,43.1167,M,M,M,M,M,30.26,M,M,10.00,M,5500.00,7500.00,M,M
ROC,2018-01-01 20:10,-77.6767,43.1167,M,M,M,M,M,30.27,M,M,10.00,M,5500.00,7500.00,9000.00,M
ROC,2018-01-01 20:15,-77.6767,43.1167,M,M,M,260.00,13.00,30.27,M,M,10.00,18.00,5500.00,7500.00,9000.00,M
ROC,2018-01-01 20:20,-77.6767,43.1167,M,M,M,M,M,30.27,M,M,10.00,M,5500.00,M,M,M
ROC,2018-01-01 20:25,-77.6767,43.1167,M,M,M,250.00,14.00,30.26,M,M,10.00,M,5500.00,M,M,M
ROC,2018-01-01 20:30,-77.6767,43.1167,M,M,M,M,M,30.27,M,M,10.00,20.00,5000.00,M,M,M
ROC,2018-01-01 20:35,-77.6767,43.1167,M,M,M,M,M,30.27,M,M,9.00,M,4700.00,M,M,M
ROC,2018-01-01 20:40,-77.6767,43.1167,M,M,M,M,M,30.27,M,M,9.00,M,5500.00,M,M,M
ROC,2018-01-01 20:45,-77.6767,43.1167,M,M,M,M,M,30.27,M,M,10.00,M,5500.00,9500.00,M,M
ROC,2018-01-01 20:50,-77.6767,43.1167,M,M,M,M,M,30.27,M,M,10.00,M,4600.00,5500.00,9500.00,M
ROC,2018-01-01 20:54,-77.6767,43.1167,15.10,1.90,55.19,260.00,17.00,30.26,1026.50,0.00,10.00,22.00,4600.00,5500.00,9500.00,M
ROC,2018-01-01 20:55,-77.6767,43.1167,M,M,M,M,M,30.26,M,M,10.00,M,4600.00,5500.00,9000.00,M
ROC,2018-01-01 21:00,-77.6767,43.1167,M,M,M,M,M,30.26,M,M,10.00,18.00,4600.00,5500.00,9000.00,M
ROC,2018-01-01 21:05,-77.6767,43.1167,M,M,M,M,M,30.26,M,M,10.00,20.00,5000.00,6000.00,9500.00,M
ROC,2018-01-01 21:10,-77.6767,43.1167,M,M,M,M,M,30.27,M,M,9.00,M,5500.00,7500.00,9500.00,M
ROC,2018-01-01 21:15,-77.6767,43.1167,M,M,M,M,M,30.27,M,M,9.00,M,5500.00,6500.00,7999.00,M
ROC,2018-01-01 21:20,-77.6767,43.1167,M,M,M,M,M,30.26,M,M,10.00,M,5500.00,7500.00,M,M
ROC,2018-01-01 21:25,-77.6767,43.1167,M,M,M,M,M,30.26,M,M,10.00,M,6000.00,7500.00,9000.00,M
ROC,2018-01-01 21:30,-77.6767,43.1167,M,M,M,M,M,30.26,M,M,10.00,M,5500.00,7000.00,9000.00,M
ROC,2018-01-01 21:35,-77.6767,43.1167,M,M,M,M,M,30.26,M,M,10.00,M,7500.00,9000.00,M,M
ROC,2018-01-01 21:40,-77.6767,43.1167,M,M,M,M,M,30.26,M,M,10.00,M,7500.00,M,M,M
ROC,2018-01-01 21:45,-77.6767,43.1167,M,M,M,M,M,30.26,M,M,10.00,M,2500.00,5500.00,9000.00,-SN
ROC,2018-01-01 21:50,-77.6767,43.1167,M,M,M,M,M,30.26,M,M,9.00,M,2500.00,5500.00,9000.00,-SN
ROC,2018-01-01 21:54,-77.6767,43.1167,14.00,3.00,60.94,260.00,14.00,30.26,1026.40,T,9.00,23.00,2500.00,5500.00,9000.00,-SN
ROC,2018-01-01 21:55,-77.6767,43.1167,M,M,M,M,M,30.26,M,M,9.00,M,7999.00,M,M,-SN
ROC,2018-01-01 22:00,-77.6767,43.1167,M,M,M,M,M,30.26,M,M,8.00,24.00,6000.00,7999.00,M,-SN
ROC,2018-01-01 22:05,-77.6767,43.1167,M,M,M,M,M,30.26,M,M,8.00,M,5500.00,7999.00,M,-SN
ROC,2018-01-01 22:10,-77.6767,43.1167,M,M,M,M,M,30.26,M,M,9.00,M,5500.00,7999.00,M,-SN
ROC,2018-01-01 22:15,-77.6767,43.1167,M,M,M,250.00,14.00,30.26,M,M,9.00,M,6000.00,7500.00,M,-SN
ROC,2018-01-01 22:20,-77.6767,43.1167,M,M,M,M,M,30.26,M,M,9.00,M,6000.00,M,M,-SN
ROC,2018-01-01 22:25,-77.6767,43.1167,M,M,M,M,M,30.27,M,M,9.00,M,6000.00,7000.00,M,-SN
ROC,2018-01-01 22:30,-77.6767,43.1167,M,M,M,M,M,30.27,M,M,9.00,M,5500.00,M,M,-SN
ROC,2018-01-01 22:35,-77.6767,43.1167,M,M,M,M,M,30.27,M,M,9.00,20.00,4800.00,7000.00,M,-SN
ROC,2018-01-01 22:40,-77.6767,43.1167,M,M,M,M,M,30.28,M,M,8.00,M,4100.00,7000.00,M,-SN
ROC,2018-01-01 22:45,-77.6767,43.1167,M,M,M,M,M,30.28,M,M,6.00,M,3900.00,M,M,-SN
ROC,2018-01-01 22:50,-77.6767,43.1167,M,M,M,M,M,30.28,M,M,2.00,M,3200.00,M,M,-SN
ROC,2018-01-01 22:55,-77.6767,43.1167,12.90,6.10,73.74,280.00,20.00,30.28,M,T,1.00,29.00,2800.00,M,M,-SN BLSN
ROC,2018-01-01 23:00,-77.6767,43.1167,M,M,M,M,M,30.28,M,M,1.00,M,2300.00,M,M,-SN
ROC,2018-01-01 23:05,-77.6767,43.1167,M,M,M,M,M,30.28,M,M,1.25,M,2300.00,M,M,-SN
ROC,2018-01-01 23:10,-77.6767,43.1167,M,M,M,M,M,30.28,M,M,1.50,M,2200.00,M,M,-SN
ROC,2018-01-01 23:15,-77.6767,43.1167,M,M,M,M,M,30.28,M,M,1.25,M,2200.00,M,M,-SN
ROC,2018-01-01 23:20,-77.6767,43.1167,M,M,M,M,M,30.28,M,M,1.25,M,2200.00,M,M,-SN
ROC,2018-01-01 23:25,-77.6767,43.1167,M,M,M,M,M,30.29,M,M,1.25,M,2200.00,M,M,-SN
ROC,2018-01-01 23:30,-77.6767,43.1167,M,M,M,280.00,14.00,30.29,M,M,1.25,M,2600.00,M,M,-SN
ROC,2018-01-01 23:35,-77.6767,43.1167,M,M,M,M,M,30.29,M,M,1.25,19.00,2600.00,M,M,-SN
ROC,2018-01-01 23:38,-77.6767,43.1167,12.90,9.00,84.07,280.00,15.00,30.29,M,T,0.75,M,2400.00,M,M,-SN BR BLSN
ROC,2018-01-01 23:40,-77.6767,43.1167,M,M,M,M,M,30.29,M,M,0.75,M,2200.00,M,M,-SN BR
ROC,2018-01-01 23:45,-77.6767,43.1167,M,M,M,M,M,30.29,M,M,0.75,M,2200.00,M,M,-SN BR
ROC,2018-01-01 23:50,-77.6767,43.1167,M,M,M,M,M,30.29,M,M,0.75,M,1800.00,M,M,-SN BR
ROC,2018-01-01 23:54,-77.6767,43.1167,12.90,9.00,84.07,270.00,18.00,30.29,1027.30,T,1.00,26.00,1600.00,M,M,-SN BR BLSN
ROC,2018-01-01 23:55,-77.6767,43.1167,M,M,M,M,M,30.29,M,M,1.00,M,1500.00,M,M,-SN BR
ROC,2018-01-02 00:00,-77.6767,43.1167,M,M,M,M,M,30.29,M,M,1.00,M,1500.00,M,M,-SN BR
ROC,2018-01-02 00:05,-77.6767,43.1167,M,M,M,M,M,30.29,M,M,1.00,M,1600.00,M,M,-SN BR
ROC,2018-01-02 00:10,-77.6767,43.1167,M,M,M,M,M,30.29,M,M,1.00,M,1699.00,M,M,-SN BR
ROC,2018-01-02 00:15,-77.6767,43.1167,M,M,M,M,M,30.29,M,M,1.00,M,1699.00,M,M,-SN BR
ROC,2018-01-02 00:20,-77.6767,43.1167,M,M,M,M,M,30.29,M,M,1.00,M,1600.00,M,M,-SN BR
ROC,2018-01-02 00:25,-77.6767,43.1167,M,M,M,M,M,30.30,M,M,1.25,M,1600.00,M,M,-SN BR
ROC,2018-01-02 00:30,-77.6767,43.1167,M,M,M,M,M,30.30,M,M,1.25,19.00,1500.00,M,M,-SN BR
ROC,2018-01-02 00:35,-77.6767,43.1167,M,M,M,M,M,30.30,M,M,1.25,M,1500.00,M,M,-SN BR
ROC,2018-01-02 00:40,-77.6767,43.1167,M,M,M,M,M,30.30,M,M,1.00,M,1600.00,M,M,-SN BR
ROC,2018-01-02 00:45,-77.6767,43.1167,M,M,M,M,M,30.30,M,M,1.00,M,1600.00,M,M,-SN BR
ROC,2018-01-02 00:49,-77.6767,43.1167,12.20,8.60,85.17,290.00,14.00,30.30,M,T,1.00,22.00,1400.00,M,M,-SN BR BLSN
ROC,2018-01-02 00:50,-77.6767,43.1167,M,M,M,280.00,14.00,30.30,M,M,1.00,19.00,1400.00,M,M,-SN BR
ROC,2018-01-02 00:54,-77.6767,43.1167,12.90,10.00,87.92,280.00,11.00,30.30,1027.80,T,1.00,M,1400.00,M,M,-SN BR BLSN
ROC,2018-01-02 00:55,-77.6767,43.1167,M,M,M,280.00,11.00,30.30,M,M,1.00,M,1400.00,M,M,-SN BR
ROC,2018-01-02 01:00,-77.6767,43.1167,M,M,M,M,M,30.30,M,M,1.00,M,1300.00,M,M,-SN BR
ROC,2018-01-02 01:05,-77.6767,43.1167,M,M,M,280.00,11.00,30.30,M,M,1.00,17.00,1300.00,M,M,-SN BR
ROC,2018-01-02 01:10,-77.6767,43.1167,M,M,M,M,M,30.31,M,M,1.00,M,1200.00,M,M,-SN BR
ROC,2018-01-02 01:15,-77.6767,43.1167,M,M,M,M,M,30.31,M,M,1.00,M,1300.00,M,M,-SN BR
ROC,2018-01-02 01:20,-77.6767,43.1167,M,M,M,280.00,10.00,30.31,M,M,1.25,M,1400.00,M,M,-SN BR
ROC,2018-01-02 01:25,-77.6767,43.1167,M,M,M,290.00,12.00,30.31,M,M,1.25,M,1400.00,M,M,-SN BR
ROC,2018-01-02 01:27,-77.6767,43.1167,12.90,10.00,87.92,280.00,13.00,30.31,M,T,1.50,19.00,1600.00,M,M,-SN BR BLSN
ROC,2018-01-02 01:30,-77.6767,43.1167,M,M,M,290.00,12.00,30.31,M,M,1.50,M,1600.00,4300.00,M,-SN BR
ROC,2018-01-02 01:31,-77.6767,43.1167,12.90,9.00,84.07,290.00,10.00,30.31,M,T,2.00,19.00,1800.00,4300.00,M,-SN BR BLSN
ROC,2018-01-02 01:35,-77.6767,43.1167,M,M,M,M,M,30.31,M,M,2.00,M,1800.00,4300.00,M,-SN BR
ROC,2018-01-02 01:40,-77.6767,43.1167,M,M,M,M,M,30.31,M,M,2.00,M,1800.00,4300.00,M,-SN BR
ROC,2018-01-02 01:43,-77.6767,43.1167,12.90,7.00,76.82,290.00,16.00,30.31,M,T,3.00,25.00,2400.00,4300.00,M,-SN BR BLSN
ROC,2018-01-02 01:45,-77.6767,43.1167,M,M,M,M,M,30.31,M,M,3.00,M,2400.00,4300.00,M,-SN BR
ROC,2018-01-02 01:50,-77.6767,43.1167,M,M,M,M,M,30.32,M,M,3.00,19.00,3000.00,4300.00,M,-SN BR
ROC,2018-01-02 01:54,-77.6767,43.1167,14.00,6.10,70.26,300.00,18.00,30.32,1028.30,T,3.00,28.00,4300.00,M,M,-SN BLSN
ROC,2018-01-02 01:55,-77.6767,43.1167,M,M,M,M,M,30.32,M,M,3.00,M,4300.00,M,M,-SN
ROC,2018-01-02 02:00,-77.6767,43.1167,M,M,M,M,M,30.32,M,M,5.00,M,4500.00,M,M,M
ROC,2018-01-02 02:05,-77.6767,43.1167,M,M,M,M,M,30.32,M,M,4.00,M,4500.00,M,M,M
ROC,2018-01-02 02:10,-77.6767,43.1167,M,M,M,M,M,30.32,M,M,4.00,M,4300.00,M,M,M
ROC,2018-01-02 02:15,-77.6767,43.1167,M,M,M,M,M,30.32,M,M,6.00,M,4100.00,4800.00,M,M
ROC,2018-01-02 02:20,-77.6767,43.1167,M,M,M,M,M,30.33,M,M,8.00,M,3600.00,4500.00,M,M
ROC,2018-01-02 02:25,-77.6767,43.1167,M,M,M,M,M,30.33,M,M,6.00,M,3900.00,4800.00,M,M
ROC,2018-01-02 02:30,-77.6767,43.1167,M,M,M,M,M,30.33,M,M,7.00,19.00,3300.00,4100.00,M,-SN
ROC,2018-01-02 02:31,-77.6767,43.1167,14.00,3.90,63.53,310.00,15.00,30.33,M,T,2.00,19.00,3300.00,4100.00,M,-SN BLSN
ROC,2018-01-02 02:35,-77.6767,43.1167,M,M,M,340.00,11.00,30.33,M,M,2.00,M,2900.00,3700.00,4600.00,-SN
ROC,2018-01-02 02:36,-77.6767,43.1167,14.00,5.00,66.82,330.00,11.00,30.33,M,T,1.00,19.00,2900.00,3700.00,4600.00,-SN BLSN
ROC,2018-01-02 02:40,-77.6767,43.1167,M,M,M,330.00,12.00,30.33,M,M,1.00,M,2900.00,3700.00,4600.00,-SN
ROC,2018-01-02 02:45,-77.6767,43.1167,M,M,M,330.00,12.00,30.34,M,M,1.25,M,1999.00,3300.00,M,-SN
ROC,2018-01-02 02:50,-77.6767,43.1167,M,M,M,330.00,12.00,30.34,M,M,1.00,M,1699.00,M,M,-SN
ROC,2018-01-02 02:54,-77.6767,43.1167,12.90,9.00,84.07,330.00,9.00,30.34,1029.10,T,1.50,M,1600.00,M,M,-SN BR BLSN
ROC,2018-01-02 02:55,-77.6767,43.1167,M,M,M,340.00,10.00,30.34,M,M,1.00,17.00,1600.00,M,M,-SN BR
ROC,2018-01-02 03:00,-77.6767,43.1167,12.90,9.00,84.07,330.00,16.00,30.34,M,T,3.00,22.00,1500.00,M,M,-SN BR BLSN
ROC,2018-01-02 03:05,-77.6767,43.1167,M,M,M,M,M,30.35,M,M,3.00,M,1500.00,2300.00,M,-SN BR
ROC,2018-01-02 03:10,-77.6767,43.1167,M,M,M,320.00,10.00,30.35,M,M,3.00,M,1500.00,2300.00,2900.00,-SN
ROC,2018-01-02 03:15,-77.6767,43.1167,M,M,M,330.00,10.00,30.35,M,M,4.00,M,1699.00,2300.00,2900.00,-SN
ROC,2018-01-02 03:20,-77.6767,43.1167,M,M,M,330.00,12.00,30.35,M,M,4.00,M,2200.00,2800.00,M,-SN
ROC,2018-01-02 03:25,-77.6767,43.1167,M,M,M,320.00,11.00,30.35,M,M,5.00,17.00,2200.00,2800.00,M,-SN
ROC,2018-01-02 03:30,-77.6767,43.1167,M,M,M,320.00,12.00,30.35,M,M,6.00,M,2400.00,2800.00,M,-SN
ROC,2018-01-02 03:35,-77.6767,43.1167,M,M,M,330.00,11.00,30.35,M,M,6.00,M,2400.00,3000.00,M,-SN
ROC,2018-01-02 03:38,-77.6767,43.1167,12.00,6.10,76.73,330.00,12.00,30.35,M,T,2.50,17.00,2400.00,3000.00,M,-SN BLSN
ROC,2018-01-02 03:40,-77.6767,43.1167,M,M,M,340.00,13.00,30.36,M,M,2.50,M,2400.00,3000.00,M,-SN
ROC,2018-01-02 03:45,-77.6767,43.1167,M,M,M,M,M,30.36,M,M,2.50,M,2400.00,3000.00,M,-SN
ROC,2018-01-02 03:50,-77.6767,43.1167,M,M,M,340.00,13.00,30.36,M,M,2.50,M,1900.00,2400.00,3000.00,-SN
ROC,2018-01-02 03:54,-77.6767,43.1167,10.90,6.10,80.57,330.00,13.00,30.36,1029.70,T,2.50,M,1900.00,2600.00,M,-SN BLSN
ROC,2018-01-02 03:55,-77.6767,43.1167,M,M,M,330.00,11.00,30.36,M,M,2.00,M,1699.00,2300.00,3000.00,-SN
ROC,2018-01-02 04:00,-77.6767,43.1167,M,M,M,330.00,10.00,30.36,M,M,2.00,M,1699.00,2200.00,2800.00,-SN
ROC,2018-01-02 04:05,-77.6767,43.1167,M,M,M,330.00,10.00,30.36,M,M,2.50,M,1500.00,2200.00,3999.00,-SN
ROC,2018-01-02 04:08,-77.6767,43.1167,10.90,6.10,80.57,320.00,9.00,30.36,M,T,3.00,M,1500.00,2000.00,4000.00,-SN BLSN
ROC,2018-01-02 04:10,-77.6767,43.1167,M,M,M,340.00,10.00,30.36,M,M,3.50,M,1500.00,1999.00,3999.00,-SN
ROC,2018-01-02 04:15,-77.6767,43.1167,M,M,M,330.00,9.00,30.37,M,M,5.00,15.00,1500.00,3999.00,M,-SN BR
ROC,2018-01-02 04:20,-77.6767,43.1167,M,M,M,320.00,11.00,30.37,M,M,4.00,M,1500.00,2200.00,3999.00,-SN BR
ROC,2018-01-02 04:25,-77.6767,43.1167,M,M,M,310.00,9.00,30.37,M,M,3.00,M,1500.00,1900.00,3999.00,-SN
ROC,2018-01-02 04:30,-77.6767,43.1167,M,M,M,320.00,8.00,30.37,M,M,3.00,M,1500.00,1900.00,3999.00,-SN
ROC,2018-01-02 04:35,-77.6767,43.1167,M,M,M,320.00,11.00,30.37,M,M,3.00,M,1500.00,1900.00,3999.00,-SN
ROC,2018-01-02 04:40,-77.6767,43.1167,M,M,M,310.00,9.00,30.37,M,M,3.00,M,1500.00,2100.00,2800.00,-SN
ROC,2018-01-02 04:44,-77.6767,43.1167,10.00,6.10,83.87,300.00,9.00,30.37,M,T,2.50,M,1600.00,2400.00,M,-SN BR BLSN
ROC,2018-01-02 04:45,-77.6767,43.1167,M,M,M,310.00,8.00,30.37,M,M,2.50,M,1600.00,2400.00,M,-SN BR
ROC,2018-01-02 04:50,-77.6767,43.1167,M,M,M,300.00,8.00,30.37,M,M,2.50,M,1600.00,2600.00,M,-SN BR
ROC,2018-01-02 04:54,-77.6767,43.1167,10.00,5.00,79.76,310.00,8.00,30.37,1029.90,T,2.50,M,1600.00,2400.00,M,-SN BR BLSN
ROC,2018-01-02 04:55,-77.6767,43.1167,M,M,M,300.00,8.00,30.37,M,M,4.00,M,1600.00,2400.00,M,-SN BR
ROC,2018-01-02 05:00,-77.6767,43.1167,M,M,M,300.00,8.00,30.37,M,M,2.50,M,1600.00,2600.00,M,-SN BR
ROC,2018-01-02 05:05,-77.6767,43.1167,M,M,M,300.00,9.00,30.37,M,M,2.50,M,1600.00,2300.00,2800.00,-SN BR
ROC,2018-01-02 05:10,-77.6767,43.1167,M,M,M,300.00,9.00,30.37,M,M,5.00,M,2100.00,2800.00,M,-SN
ROC,2018-01-02 05:15,-77.6767,43.1167,M,M,M,290.00,8.00,30.37,M,M,5.00,M,2400.00,2900.00,M,-SN
ROC,2018-01-02 05:16,-77.6767,43.1167,10.00,5.00,79.76,300.00,7.00,30.37,M,T,5.00,M,2400.00,2900.00,M,-SN
ROC,2018-01-02 05:20,-77.6767,43.1167,M,M,M,300.00,7.00,30.37,M,M,5.00,M,2400.00,3100.00,M,-SN
ROC,2018-01-02 05:25,-77.6767,43.1167,M,M,M,300.00,6.00,30.36,M,M,5.00,M,2400.00,3100.00,M,-SN
ROC,2018-01-02 05:30,-77.6767,43.1167,M,M,M,300.00,6.00,30.37,M,M,5.00,M,2400.00,M,M,-SN BR
ROC,2018-01-02 05:35,-77.6767,43.1167,M,M,M,300.00,6.00,30.37,M,M,5.00,M,2400.00,M,M,-SN BR
ROC,2018-01-02 05:40,-77.6767,43.1167,M,M,M,310.00,7.00,30.36,M,M,5.00,M,2600.00,M,M,-SN BR
ROC,2018-01-02 05:45,-77.6767,43.1167,M,M,M,310.00,7.00,30.36,M,M,5.00,M,2600.00,M,M,-SN BR
ROC,2018-01-02 05:50,-77.6767,43.1167,M,M,M,300.00,6.00,30.36,M,M,5.00,M,2800.00,M,M,-SN BR
ROC,2018-01-02 05:54,-77.6767,43.1167,10.00,6.10,83.87,310.00,6.00,30.36,1029.70,T,5.00,M,2800.00,M,M,-SN BR
ROC,2018-01-02 05:55,-77.6767,43.1167,M,M,M,310.00,6.00,30.36,M,M,6.00,M,2800.00,M,M,-SN BR
ROC,2018-01-02 06:00,-77.6767,43.1167,M,M,M,290.00,7.00,30.36,M,M,5.00,M,2800.00,M,M,-SN BR
ROC,2018-01-02 06:05,-77.6767,43.1167,M,M,M,290.00,7.00,30.36,M,M,4.00,M,2800.00,M,M,-SN BR
ROC,2018-01-02 06:10,-77.6767,43.1167,M,M,M,290.00,8.00,30.36,M,M,3.50,M,2800.00,M,M,-SN BR
ROC,2018-01-02 06:15,-77.6767,43.1167,M,M,M,290.00,6.00,30.36,M,M,4.00,M,2800.00,M,M,-SN BR
ROC,2018-01-02 06:20,-77.6767,43.1167,M,M,M,270.00,6.00,30.36,M,M,4.00,M,2800.00,M,M,-SN BR
ROC,2018-01-02 06:25,-77.6767,43.1167,M,M,M,270.00,6.00,30.36,M,M,5.00,M,3000.00,M,M,-SN BR
ROC,2018-01-02 06:30,-77.6767,43.1167,M,M,M,270.00,5.00,30.36,M,M,5.00,M,3000.00,3600.00,M,-SN BR
ROC,2018-01-02 06:35,-77.6767,43.1167,M,M,M,260.00,5.00,30.36,M,M,5.00,M,3300.00,4100.00,M,-SN BR
ROC,2018-01-02 06:40,-77.6767,43.1167,M,M,M,270.00,4.00,30.36,M,M,5.00,M,3300.00,4300.00,M,-SN BR
ROC,2018-01-02 06:45,-77.6767,43.1167,M,M,M,260.00,5.00,30.36,M,M,3.00,M,3399.00,4200.00,M,-SN BR
ROC,2018-01-02 06:50,-77.6767,43.1167,M,M,M,280.00,5.00,30.36,M,M,3.00,M,4200.00,M,M,-SN BR
ROC,2018-01-02 06:54,-77.6767,43.1167,10.00,7.00,87.37,280.00,5.00,30.36,1029.60,T,3.00,M,4000.00,M,M,-SN BR
ROC,2018-01-02 06:55,-77.6767,43.1167,M,M,M,280.00,5.00,30.36,M,M,4.00,M,3999.00,M,M,-SN BR
ROC,2018-01-02 07:00,-77.6767,43.1167,M,M,M,280.00,5.00,30.36,M,M,4.00,M,4200.00,M,M,-SN BR
ROC,2018-01-02 07:05,-77.6767,43.1167,M,M,M,290.00,6.00,30.37,M,M,5.00,M,4200.00,M,M,-SN BR
ROC,2018-01-02 07:10,-77.6767,43.1167,M,M,M,300.00,7.00,30.37,M,M,4.00,M,4200.00,M,M,-SN BR
ROC,2018-01-02 07:15,-77.6767,43.1167,M,M,M,290.00,5.00,30.37,M,M,3.00,M,3900.00,4600.00,M,-SN BR
ROC,2018-01-02 07:20,-77.6767,43.1167,M,M,M,300.00,4.00,30.36,M,M,3.00,M,3700.00,4600.00,M,-SN BR
ROC,2018-01-02 07:25,-77.6767,43.1167,M,M,M,300.00,5.00,30.36,M,M,3.00,M,4300.00,M,M,-SN BR
ROC,2018-01-02 07:30,-77.6767,43.1167,M,M,M,290.00,5.00,30.36,M,M,3.00,M,3700.00,4500.00,M,-SN BR
ROC,2018-01-02 07:35,-77.6767,43.1167,M,M,M,290.00,4.00,30.36,M,M,3.00,M,3500.00,4700.00,M,-SN BR
ROC,2018-01-02 07:40,-77.6767,43.1167,M,M,M,280.00,4.00,30.36,M,M,3.50,M,3000.00,4700.00,M,-SN BR
ROC,2018-01-02 07:45,-77.6767,43.1167,M,M,M,290.00,4.00,30.36,M,M,3.50,M,4700.00,M,M,-SN BR
ROC,2018-01-02 07:50,-77.6767,43.1167,M,M,M,280.00,4.00,30.36,M,M,3.50,M,4700.00,M,M,-SN BR
ROC,2018-01-02 07:54,-77.6767,43.1167,10.90,8.10,88.21,300.00,4.00,30.36,1029.60,T,4.00,M,4700.00,M,M,-SN BR
ROC,2018-01-02 07:55,-77.6767,43.1167,M,M,M,290.00,4.00,30.36,M,M,4.00,M,4700.00,M,M,-SN BR
ROC,2018-01-02 08:00,-77.6767,43.1167,M,M,M,270.00,4.00,30.36,M,M,4.00,M,4600.00,M,M,-SN BR
ROC,2018-01-02 08:05,-77.6767,43.1167,M,M,M,270.00,4.00,30.36,M,M,4.00,M,4600.00,M,M,-SN BR
ROC,2018-01-02 08:10,-77.6767,43.1167,M,M,M,270.00,3.00,30.36,M,M,5.00,M,4600.00,M,M,-SN BR
ROC,2018-01-02 08:15,-77.6767,43.1167,M,M,M,0.00,0.00,30.35,M,M,5.00,M,4400.00,M,M,-SN BR
ROC,2018-01-02 08:20,-77.6767,43.1167,M,M,M,250.00,3.00,30.35,M,M,5.00,M,4400.00,M,M,-SN BR
ROC,2018-01-02 08:25,-77.6767,43.1167,M,M,M,250.00,3.00,30.35,M,M,6.00,M,4400.00,M,M,-SN BR
ROC,2018-01-02 08:30,-77.6767,43.1167,M,M,M,250.00,3.00,30.35,M,M,6.00,M,4400.00,M,M,-SN BR
ROC,2018-01-02 08:35,-77.6767,43.1167,M,M,M,0.00,0.00,30.35,M,M,7.00,M,4500.00,M,M,-SN
ROC,2018-01-02 08:40,-77.6767,43.1167,M,M,M,0.00,0.00,30.35,M,M,8.00,M,4500.00,M,M,-SN
ROC,2018-01-02 08:45,-77.6767,43.1167,M,M,M,0.00,0.00,30.35,M,M,8.00,M,4700.00,M,M,-SN
ROC,2018-01-02 08:50,-77.6767,43.1167,M,M,M,240.00,3.00,30.34,M,M,9.00,M,4700.00,M,M,-SN
ROC,2018-01-02 08:54,-77.6767,43.1167,10.90,8.10,88.21,230.00,4.00,30.34,1029.00,T,9.00,M,4000.00,4700.00,M,-SN
ROC,2018-01-02 08:55,-77.6767,43.1167,M,M,M,230.00,4.00,30.34,M,M,9.00,M,4700.00,M,M,-SN
ROC,2018-01-02 09:00,-77.6767,43.1167,M,M,M,220.00,4.00,30.34,M,M,9.00,M,4700.00,M,M,-SN
ROC,2018-01-02 09:05,-77.6767,43.1167,M,M,M,220.00,3.00,30.34,M,M,9.00,M,4700.00,M,M,-SN
ROC,2018-01-02 09:10,-77.6767,43.1167,M,M,M,220.00,4.00,30.34,M,M,7.00,M,4500.00,M,M,-SN
ROC,2018-01-02 09:15,-77.6767,43.1167,M,M,M,230.00,4.00,30.34,M,M,6.00,M,4500.00,M,M,-SN BR
ROC,2018-01-02 09:20,-77.6767,43.1167,M,M,M,220.00,3.00,30.34,M,M,6.00,M,4500.00,M,M,-SN BR
ROC,2018-01-02 09:25,-77.6767,43.1167,M,M,M,230.00,3.00,30.34,M,M,7.00,M,4500.00,M,M,-SN
ROC,2018-01-02 09:30,-77.6767,43.1167,M,M,M,230.00,3.00,30.34,M,M,7.00,M,4500.00,M,M,-SN
ROC,2018-01-02 09:35,-77.6767,43.1167,M,M,M,220.00,3.00,30.34,M,M,7.00,M,4700.00,M,M,-SN
ROC,2018-01-02 09:40,-77.6767,43.1167,M,M,M,230.00,4.00,30.33,M,M,6.00,M,4700.00,M,M,-SN BR
ROC,2018-01-02 09:45,-77.6767,43.1167,M,M,M,230.00,4.00,30.33,M,M,5.00,M,4700.00,M,M,-SN BR
ROC,2018-01-02 09:50,-77.6767,43.1167,M,M,M,230.00,5.00,30.33,M,M,6.00,M,4700.00,M,M,-SN BR
ROC,2018-01-02 09:54,-77.6767,43.1167,10.90,8.10,88.21,240.00,6.00,30.33,1028.60,T,8.00,M,4700.00,M,M,-SN
ROC,2018-01-02 09:55,-77.6767,43.1167,M,M,M,240.00,6.00,30.33,M,M,8.00,M,4700.00,M,M,-SN
ROC,2018-01-02 10:00,-77.6767,43.1167,M,M,M,240.00,7.00,30.33,M,M,9.00,M,4500.00,M,M,-SN
ROC,2018-01-02 10:05,-77.6767,43.1167,M,M,M,250.00,7.00,30.32,M,M,7.00,M,4200.00,5000.00,M,-SN
ROC,2018-01-02 10:10,-77.6767,43.1167,M,M,M,260.00,9.00,30.32,M,M,6.00,M,3999.00,M,M,-SN BR
ROC,2018-01-02 10:15,-77.6767,43.1167,M,M,M,270.00,7.00,30.32,M,M,7.00,M,3999.00,M,M,-SN
ROC,2018-01-02 10:20,-77.6767,43.1167,M,M,M,280.00,10.00,30.32,M,M,7.00,16.00,3800.00,M,M,-SN
ROC,2018-01-02 10:25,-77.6767,43.1167,M,M,M,280.00,10.00,30.32,M,M,8.00,M,3800.00,M,M,-SN
ROC,2018-01-02 10:30,-77.6767,43.1167,M,M,M,270.00,14.00,30.32,M,M,6.00,M,3500.00,M,M,-SN
ROC,2018-01-02 10:35,-77.6767,43.1167,M,M,M,M,M,30.32,M,M,4.00,18.00,3500.00,M,M,-SN
ROC,2018-01-02 10:40,-77.6767,43.1167,M,M,M,M,M,30.32,M,M,4.00,M,3500.00,M,M,-SN
ROC,2018-01-02 10:45,-77.6767,43.1167,M,M,M,270.00,11.00,30.32,M,M,4.00,M,3500.00,4800.00,M,-SN
ROC,2018-01-02 10:50,-77.6767,43.1167,M,M,M,280.00,11.00,30.32,M,M,4.00,M,3500.00,4500.00,M,-SN
ROC,2018-01-02 10:54,-77.6767,43.1167,15.10,10.00,79.84,280.00,10.00,30.32,1028.10,T,5.00,M,3500.00,4500.00,M,-SN
ROC,2018-01-02 10:55,-77.6767,43.1167,M,M,M,270.00,10.00,30.32,M,M,5.00,M,3500.00,4700.00,M,-SN
ROC,2018-01-02 11:00,-77.6767,43.1167,M,M,M,270.00,11.00,30.32,M,M,5.00,M,3500.00,4500.00,M,-SN
ROC,2018-01-02 11:05,-77.6767,43.1167,M,M,M,M,M,30.32,M,M,4.00,M,3300.00,4300.00,5000.00,-SN
ROC,2018-01-02 11:10,-77.6767,43.1167,M,M,M,M,M,30.32,M,M,4.00,M,3999.00,4900.00,M,-SN
ROC,2018-01-02 11:15,-77.6767,43.1167,M,M,M,M,M,30.32,M,M,4.00,M,3999.00,4900.00,M,-SN
ROC,2018-01-02 11:20,-77.6767,43.1167,M,M,M,270.00,12.00,30.32,M,M,4.00,M,3999.00,4900.00,M,-SN
ROC,2018-01-02 11:25,-77.6767,43.1167,M,M,M,M,M,30.32,M,M,4.00,M,4200.00,M,M,-SN
ROC,2018-01-02 11:30,-77.6767,43.1167,M,M,M,280.00,16.00,30.32,M,M,4.00,M,3900.00,4700.00,M,-SN
ROC,2018-01-02 11:35,-77.6767,43.1167,M,M,M,260.00,13.00,30.32,M,M,5.00,M,3700.00,4500.00,M,-SN
ROC,2018-01-02 11:40,-77.6767,43.1167,M,M,M,M,M,30.32,M,M,5.00,M,3700.00,4500.00,M,-SN
ROC,2018-01-02 11:45,-77.6767,43.1167,M,M,M,M,M,30.32,M,M,5.00,M,3500.00,4500.00,M,-SN
ROC,2018-01-02 11:50,-77.6767,43.1167,M,M,M,M,M,30.32,M,M,5.00,M,3500.00,4700.00,M,-SN
ROC,2018-01-02 11:54,-77.6767,43.1167,16.00,10.00,76.77,260.00,14.00,30.31,1028.00,T,6.00,M,3500.00,M,M,-SN
ROC,2018-01-02 11:55,-77.6767,43.1167,M,M,M,260.00,13.00,30.32,M,M,7.00,M,3500.00,M,M,-SN
ROC,2018-01-02 12:00,-77.6767,43.1167,M,M,M,M,M,30.32,M,M,8.00,19.00,3500.00,M,M,-SN
ROC,2018-01-02 12:05,-77.6767,43.1167,M,M,M,260.00,13.00,30.32,M,M,8.00,19.00,3500.00,M,M,-SN
ROC,2018-01-02 12:10,-77.6767,43.1167,M,M,M,M,M,30.32,M,M,9.00,M,3500.00,M,M,-SN
ROC,2018-01-02 12:15,-77.6767,43.1167,M,M,M,M,M,30.32,M,M,9.00,M,3700.00,M,M,-SN
ROC,2018-01-02 12:20,-77.6767,43.1167,M,M,M,M,M,30.31,M,M,9.00,M,3700.00,M,M,-SN
ROC,2018-01-02 12:25,-77.6767,43.1167,M,M,M,M,M,30.32,M,M,9.00,M,3700.00,4400.00,M,-SN
ROC,2018-01-02 12:30,-77.6767,43.1167,M,M,M,270.00,17.00,30.32,M,M,8.00,M,3800.00,4500.00,5500.00,-SN
ROC,2018-01-02 12:35,-77.6767,43.1167,M,M,M,M,M,30.32,M,M,8.00,M,3000.00,4100.00,5500.00,-SN
ROC,2018-01-02 12:40,-77.6767,43.1167,M,M,M,270.00,13.00,30.32,M,M,9.00,M,3000.00,4300.00,5500.00,-SN
ROC,2018-01-02 12:45,-77.6767,43.1167,M,M,M,M,M,30.31,M,M,9.00,M,3000.00,4300.00,M,-SN
ROC,2018-01-02 12:50,-77.6767,43.1167,M,M,M,270.00,12.00,30.31,M,M,9.00,M,3200.00,4500.00,M,-SN
ROC,2018-01-02 12:54,-77.6767,43.1167,16.00,9.00,73.41,270.00,13.00,30.31,1027.90,T,9.00,21.00,3200.00,4500.00,M,-SN
ROC,2018-01-02 12:55,-77.6767,43.1167,M,M,M,M,M,30.31,M,M,9.00,M,3200.00,4500.00,M,-SN
ROC,2018-01-02 13:00,-77.6767,43.1167,M,M,M,270.00,12.00,30.31,M,M,9.00,M,3200.00,M,M,-SN
ROC,2018-01-02 13:05,-77.6767,43.1167,M,M,M,260.00,12.00,30.31,M,M,9.00,M,3200.00,M,M,-SN
ROC,2018-01-02 13:10,-77.6767,43.1167,M,M,M,270.00,12.00,30.31,M,M,9.00,M,3200.00,M,M,-SN
ROC,2018-01-02 13:15,-77.6767,43.1167,M,M,M,M,M,30.31,M,M,9.00,M,3300.00,M,M,-SN
ROC,2018-01-02 13:20,-77.6767,43.1167,M,M,M,270.00,11.00,30.30,M,M,9.00,M,3500.00,4300.00,M,-SN
ROC,2018-01-02 13:25,-77.6767,43.1167,M,M,M,260.00,12.00,30.30,M,M,9.00,M,3500.00,4800.00,M,-SN
ROC,2018-01-02 13:30,-77.6767,43.1167,M,M,M,270.00,12.00,30.30,M,M,9.00,M,3399.00,4100.00,5000.00,-SN
ROC,2018-01-02 13:35,-77.6767,43.1167,M,M,M,270.00,11.00,30.30,M,M,9.00,M,3600.00,5000.00,M,-SN
ROC,2018-01-02 13:40,-77.6767,43.1167,M,M,M,M,M,30.30,M,M,9.00,M,3600.00,4900.00,M,-SN
ROC,2018-01-02 13:45,-77.6767,43.1167,M,M,M,260.00,11.00,30.30,M,M,9.00,M,3999.00,4900.00,M,-SN
ROC,2018-01-02 13:50,-77.6767,43.1167,M,M,M,260.00,11.00,30.30,M,M,9.00,M,3000.00,5000.00,M,-SN
ROC,2018-01-02 13:54,-77.6767,43.1167,17.10,9.00,69.99,260.00,14.00,30.30,1027.30,T,9.00,M,3000.00,5000.00,15000.00,-SN
ROC,2018-01-02 13:55,-77.6767,43.1167,M,M,M,260.00,14.00,30.30,M,M,9.00,M,5000.00,M,M,-SN
ROC,2018-01-02 14:00,-77.6767,43.1167,M,M,M,250.00,11.00,30.29,M,M,9.00,M,5000.00,M,M,-SN
ROC,2018-01-02 14:05,-77.6767,43.1167,M,M,M,260.00,14.00,30.29,M,M,9.00,M,4900.00,M,M,-SN
ROC,2018-01-02 14:10,-77.6767,43.1167,M,M,M,250.00,13.00,30.30,M,M,9.00,M,4900.00,M,M,-SN
ROC,2018-01-02 14:15,-77.6767,43.1167,M,M,M,260.00,13.00,30.30,M,M,9.00,M,M,M,M,-SN
ROC,2018-01-02 14:20,-77.6767,43.1167,M,M,M,M,M,30.30,M,M,9.00,M,M,M,M,-SN
ROC,2018-01-02 14:25,-77.6767,43.1167,M,M,M,M,M,30.29,M,M,9.00,M,1999.00,M,M,-SN
ROC,2018-01-02 14:30,-77.6767,43.1167,M,M,M,250.00,13.00,30.29,M,M,9.00,M,1999.00,M,M,-SN
ROC,2018-01-02 14:35,-77.6767,43.1167,M,M,M,250.00,13.00,30.29,M,M,9.00,M,1999.00,M,M,-SN
ROC,2018-01-02 14:40,-77.6767,43.1167,M,M,M,M,M,30.29,M,M,6.00,M,1999.00,5000.00,M,-SN
ROC,2018-01-02 14:41,-77.6767,43.1167,19.00,12.00,73.73,260.00,17.00,30.29,M,T,4.00,28.00,2000.00,5000.00,M,-SN BLSN
ROC,2018-01-02 14:45,-77.6767,43.1167,M,M,M,M,M,30.29,M,M,4.00,M,1999.00,5000.00,M,-SN
ROC,2018-01-02 14:50,-77.6767,43.1167,M,M,M,260.00,14.00,30.29,M,M,5.00,M,1999.00,5000.00,M,-SN
ROC,2018-01-02 14:54,-77.6767,43.1167,19.00,12.00,73.73,260.00,13.00,30.28,1026.90,T,5.00,22.00,2000.00,5000.00,M,-SN BLSN
ROC,2018-01-02 14:55,-77.6767,43.1167,M,M,M,260.00,13.00,30.28,M,M,5.00,M,1999.00,M,M,-SN
ROC,2018-01-02 15:00,-77.6767,43.1167,M,M,M,M,M,30.28,M,M,5.00,M,2200.00,M,M,-SN
ROC,2018-01-02 15:05,-77.6767,43.1167,M,M,M,M,M,30.28,M,M,9.00,20.00,2200.00,M,M,-SN
ROC,2018-01-02 15:10,-77.6767,43.1167,M,M,M,250.00,15.00,30.28,M,M,7.00,M,2200.00,M,M,-SN
ROC,2018-01-02 15:15,-77.6767,43.1167,M,M,M,250.00,15.00,30.27,M,M,6.00,M,2200.00,M,M,-SN
ROC,2018-01-02 15:20,-77.6767,43.1167,M,M,M,M,M,30.27,M,M,6.00,M,2300.00,M,M,-SN
ROC,2018-01-02 15:25,-77.6767,43.1167,M,M,M,M,M,30.27,M,M,4.00,M,2300.00,M,M,-SN
ROC,2018-01-02 15:30,-77.6767,43.1167,19.90,12.90,73.83,250.00,18.00,30.28,M,T,1.50,29.00,2300.00,5000.00,M,-SN BLSN
ROC,2018-01-02 15:35,-77.6767,43.1167,M,M,M,M,M,30.27,M,M,1.50,M,2300.00,5000.00,M,-SN
ROC,2018-01-02 15:39,-77.6767,43.1167,19.00,12.90,76.72,240.00,16.00,30.27,M,T,3.00,M,2300.00,5000.00,M,-SN BLSN
ROC,2018-01-02 15:40,-77.6767,43.1167,M,M,M,M,M,30.27,M,M,3.00,M,2300.00,5000.00,M,-SN
ROC,2018-01-02 15:45,-77.6767,43.1167,M,M,M,M,M,30.27,M,M,3.00,M,2300.00,5000.00,M,-SN
ROC,2018-01-02 15:50,-77.6767,43.1167,M,M,M,250.00,20.00,30.27,M,M,2.00,M,2300.00,5000.00,M,-SN
ROC,2018-01-02 15:54,-77.6767,43.1167,19.00,12.90,76.72,250.00,23.00,30.26,1026.10,T,2.00,30.00,2300.00,5000.00,M,-SN BLSN
ROC,2018-01-02 15:55,-77.6767,43.1167,M,M,M,M,M,30.26,M,M,1.75,M,2300.00,2800.00,M,-SN
ROC,2018-01-02 16:00,-77.6767,43.1167,M,M,M,M,M,30.26,M,M,2.00,M,2300.00,2800.00,M,-SN
ROC,2018-01-02 16:05,-77.6767,43.1167,M,M,M,M,M,30.25,M,M,2.00,M,2300.00,2800.00,M,-SN
ROC,2018-01-02 16:10,-77.6767,43.1167,M,M,M,M,M,30.25,M,M,2.00,M,2500.00,5000.00,M,-SN
ROC,2018-01-02 16:15,-77.6767,43.1167,M,M,M,M,M,30.25,M,M,2.00,M,2500.00,5000.00,M,-SN
ROC,2018-01-02 16:20,-77.6767,43.1167,M,M,M,M,M,30.24,M,M,2.00,M,2500.00,5000.00,M,-SN
ROC,2018-01-02 16:25,-77.6767,43.1167,M,M,M,M,M,30.24,M,M,2.00,M,2500.00,5000.00,M,-SN
ROC,2018-01-02 16:30,-77.6767,43.1167,M,M,M,M,M,30.23,M,M,2.00,M,2500.00,5000.00,M,-SN
ROC,2018-01-02 16:35,-77.6767,43.1167,M,M,M,M,M,30.23,M,M,2.00,M,2500.00,5000.00,M,-SN
ROC,2018-01-02 16:40,-77.6767,43.1167,M,M,M,M,M,30.23,M,M,2.00,M,2500.00,5000.00,M,-SN
ROC,2018-01-02 16:45,-77.6767,43.1167,M,M,M,M,M,30.23,M,M,2.00,M,2500.00,5000.00,M,-SN
ROC,2018-01-02 16:50,-77.6767,43.1167,M,M,M,250.00,18.00,30.23,M,M,2.00,M,2500.00,5000.00,M,-SN
ROC,2018-01-02 16:54,-77.6767,43.1167,19.90,12.90,73.83,260.00,20.00,30.22,1024.70,T,2.00,33.00,2500.00,5000.00,M,-SN BLSN
ROC,2018-01-02 16:55,-77.6767,43.1167,M,M,M,M,M,30.22,M,M,2.00,M,2500.00,5000.00,M,-SN
ROC,2018-01-02 17:00,-77.6767,43.1167,M,M,M,M,M,30.22,M,M,2.00,M,2500.00,5000.00,M,-SN
ROC,2018-01-02 17:05,-77.6767,43.1167,M,M,M,M,M,30.21,M,M,2.00,M,2500.00,5000.00,M,-SN
ROC,2018-01-02 17:10,-77.6767,43.1167,M,M,M,M,M,30.21,M,M,2.00,M,2500.00,3000.00,M,-SN
ROC,2018-01-02 17:15,-77.6767,43.1167,M,M,M,M,M,30.21,M,M,2.00,M,2500.00,3000.00,M,-SN
ROC,2018-01-02 17:20,-77.6767,43.1167,M,M,M,M,M,30.21,M,M,2.00,M,2500.00,3000.00,M,-SN
ROC,2018-01-02 17:25,-77.6767,43.1167,M,M,M,M,M,30.21,M,M,2.00,M,2500.00,3000.00,M,-SN
ROC,2018-01-02 17:30,-77.6767,43.1167,M,M,M,M,M,30.20,M,M,2.00,M,2500.00,3000.00,M,-SN
ROC,2018-01-02 17:35,-77.6767,43.1167,M,M,M,M,M,30.20,M,M,2.00,M,2500.00,3000.00,M,-SN
ROC,2018-01-02 17:40,-77.6767,43.1167,M,M,M,M,M,30.20,M,M,2.00,M,2500.00,5000.00,M,-SN
ROC,2018-01-02 17:45,-77.6767,43.1167,M,M,M,M,M,30.20,M,M,2.00,M,2500.00,5000.00,M,-SN
ROC,2018-01-02 17:50,-77.6767,43.1167,M,M,M,260.00,19.00,30.20,M,M,2.00,M,2500.00,5000.00,M,-SN
ROC,2018-01-02 17:54,-77.6767,43.1167,19.90,12.00,70.95,250.00,18.00,30.20,1024.00,T,2.00,31.00,2500.00,5000.00,M,-SN BLSN
ROC,2018-01-02 17:55,-77.6767,43.1167,M,M,M,M,M,30.20,M,M,3.50,M,2500.00,5000.00,M,-SN
ROC,2018-01-02 18:00,-77.6767,43.1167,M,M,M,M,M,30.20,M,M,2.00,M,2500.00,5000.00,M,-SN
ROC,2018-01-02 18:05,-77.6767,43.1167,M,M,M,M,M,30.20,M,M,2.00,M,2500.00,5000.00,M,-SN
ROC,2018-01-02 18:10,-77.6767,43.1167,M,M,M,M,M,30.20,M,M,2.00,M,2500.00,5000.00,M,-SN
ROC,2018-01-02 18:15,-77.6767,43.1167,M,M,M,M,M,30.20,M,M,2.00,M,2500.00,5000.00,M,-SN
ROC,2018-01-02 18:20,-77.6767,43.1167,M,M,M,M,M,30.20,M,M,2.00,M,2500.00,5000.00,M,-SN
ROC,2018-01-02 18:25,-77.6767,43.1167,M,M,M,M,M,30.20,M,M,2.00,M,2500.00,5000.00,M,-SN
ROC,2018-01-02 18:30,-77.6767,43.1167,M,M,M,250.00,17.00,30.20,M,M,2.00,M,2500.00,5000.00,M,-SN
ROC,2018-01-02 18:35,-77.6767,43.1167,M,M,M,M,M,30.20,M,M,2.00,M,2500.00,5000.00,M,-SN
ROC,2018-01-02 18:40,-77.6767,43.1167,M,M,M,M,M,30.20,M,M,2.00,M,2500.00,5000.00,M,-SN
ROC,2018-01-02 18:45,-77.6767,43.1167,M,M,M,M,M,30.19,M,M,2.00,M,2500.00,5000.00,M,-SN
ROC,2018-01-02 18:50,-77.6767,43.1167,M,M,M,M,M,30.19,M,M,2.00,M,2500.00,5000.00,M,-SN
ROC,2018-01-02 18:54,-77.6767,43.1167,19.00,12.90,76.72,250.00,22.00,30.19,1023.80,T,2.00,33.00,2500.00,5000.00,M,-SN BLSN
ROC,2018-01-02 18:55,-77.6767,43.1167,M,M,M,M,M,30.19,M,M,2.00,M,2500.00,5000.00,M,-SN
ROC,2018-01-02 19:00,-77.6767,43.1167,M,M,M,M,M,30.19,M,M,2.00,M,2500.00,5000.00,M,-SN
ROC,2018-01-02 19:05,-77.6767,43.1167,M,M,M,M,M,30.19,M,M,2.00,M,2500.00,5000.00,M,-SN
ROC,2018-01-02 19:10,-77.6767,43.1167,M,M,M,M,M,30.19,M,M,2.00,M,2500.00,5000.00,M,-SN
ROC,2018-01-02 19:15,-77.6767,43.1167,M,M,M,M,M,30.19,M,M,2.00,M,2500.00,5000.00,M,-SN
ROC,2018-01-02 19:20,-77.6767,43.1167,M,M,M,M,M,30.19,M,M,2.00,M,2500.00,5000.00,M,-SN
ROC,2018-01-02 19:25,-77.6767,43.1167,M,M,M,M,M,30.19,M,M,2.00,M,2500.00,5000.00,M,-SN
ROC,2018-01-02 19:30,-77.6767,43.1167,M,M,M,260.00,23.00,30.18,M,M,2.00,M,2500.00,5000.00,M,-SN
ROC,2018-01-02 19:35,-77.6767,43.1167,M,M,M,M,M,30.18,M,M,2.00,M,2500.00,5000.00,M,-SN
ROC,2018-01-02 19:40,-77.6767,43.1167,M,M,M,M,M,30.18,M,M,2.00,M,2500.00,3999.00,M,-SN
ROC,2018-01-02 19:45,-77.6767,43.1167,M,M,M,M,M,30.18,M,M,2.00,M,2500.00,3999.00,M,-SN
ROC,2018-01-02 19:50,-77.6767,43.1167,M,M,M,250.00,22.00,30.18,M,M,2.00,M,2500.00,3999.00,M,-SN
ROC,2018-01-02 19:54,-77.6767,43.1167,19.00,12.00,73.73,260.00,22.00,30.18,1023.50,T,2.00,31.00,2500.00,4000.00,15000.00,-SN BLSN
ROC,2018-01-02 19:55,-77.6767,43.1167,M,M,M,M,M,30.19,M,M,2.00,M,2900.00,M,M,-SN
ROC,2018-01-02 20:00,-77.6767,43.1167,M,M,M,M,M,30.19,M,M,2.50,M,2900.00,M,M,-SN
ROC,2018-01-02 20:05,-77.6767,43.1167,M,M,M,M,M,30.19,M,M,2.00,M,2500.00,3999.00,M,-SN
ROC,2018-01-02 20:10,-77.6767,43.1167,M,M,M,M,M,30.19,M,M,2.00,M,2500.00,3999.00,M,-SN
ROC,2018-01-02 20:15,-77.6767,43.1167,M,M,M,M,M,30.19,M,M,2.00,M,2500.00,5000.00,M,-SN
ROC,2018-01-02 20:20,-77.6767,43.1167,M,M,M,M,M,30.19,M,M,2.00,M,2500.00,5000.00,M,-SN
ROC,2018-01-02 20:25,-77.6767,43.1167,M,M,M,M,M,30.19,M,M,2.00,M,2500.00,5000.00,M,-SN
ROC,2018-01-02 20:30,-77.6767,43.1167,M,M,M,M,M,30.19,M,M,2.00,M,2500.00,5000.00,M,-SN
ROC,2018-01-02 20:33,-77.6767,43.1167,19.00,12.00,73.73,250.00,23.00,30.19,M,T,3.00,33.00,2500.00,5000.00,15000.00,-SN BLSN
ROC,2018-01-02 20:35,-77.6767,43.1167,M,M,M,M,M,30.19,M,M,3.00,M,2500.00,5000.00,M,-SN
ROC,2018-01-02 20:40,-77.6767,43.1167,M,M,M,M,M,30.19,M,M,3.00,M,2500.00,5000.00,M,-SN
ROC,2018-01-02 20:45,-77.6767,43.1167,M,M,M,M,M,30.19,M,M,3.00,M,2500.00,5000.00,M,-SN
ROC,2018-01-02 20:50,-77.6767,43.1167,M,M,M,260.00,21.00,30.20,M,M,3.00,M,2500.00,5000.00,M,-SN
ROC,2018-01-02 20:54,-77.6767,43.1167,18.00,10.90,73.30,250.00,23.00,30.20,1024.00,T,3.00,33.00,2500.00,5000.00,15000.00,-SN BLSN
ROC,2018-01-02 20:55,-77.6767,43.1167,M,M,M,M,M,30.20,M,M,3.00,M,2900.00,5000.00,M,-SN
ROC,2018-01-02 21:00,-77.6767,43.1167,M,M,M,M,M,30.20,M,M,3.00,M,2900.00,5000.00,M,-SN
ROC,2018-01-02 21:01,-77.6767,43.1167,18.00,10.00,70.41,250.00,18.00,30.20,M,T,6.00,30.00,2900.00,5000.00,15000.00,-SN BLSN
ROC,2018-01-02 21:05,-77.6767,43.1167,M,M,M,M,M,30.20,M,M,6.00,M,2900.00,3399.00,M,-SN
ROC,2018-01-02 21:10,-77.6767,43.1167,M,M,M,M,M,30.20,M,M,6.00,M,2900.00,3399.00,M,-SN
ROC,2018-01-02 21:15,-77.6767,43.1167,M,M,M,M,M,30.20,M,M,6.00,M,2900.00,3399.00,M,-SN
ROC,2018-01-02 21:20,-77.6767,43.1167,M,M,M,M,M,30.20,M,M,6.00,M,2900.00,3399.00,M,-SN
ROC,2018-01-02 21:25,-77.6767,43.1167,M,M,M,250.00,20.00,30.20,M,M,6.00,M,2900.00,3399.00,M,-SN
ROC,2018-01-02 21:30,-77.6767,43.1167,M,M,M,240.00,20.00,30.20,M,M,5.00,M,2800.00,3399.00,M,-SN
ROC,2018-01-02 21:35,-77.6767,43.1167,M,M,M,240.00,19.00,30.20,M,M,6.00,M,2800.00,3399.00,M,-SN
ROC,2018-01-02 21:40,-77.6767,43.1167,M,M,M,M,M,30.20,M,M,8.00,M,2800.00,3399.00,M,-SN
ROC,2018-01-02 21:45,-77.6767,43.1167,16.00,8.10,70.50,250.00,20.00,30.20,M,T,6.00,27.00,2800.00,5000.00,18000.00,BLSN
ROC,2018-01-02 21:50,-77.6767,43.1167,M,M,M,240.00,17.00,30.20,M,M,6.00,M,2800.00,5000.00,M,M
ROC,2018-01-02 21:54,-77.6767,43.1167,16.00,8.10,70.50,250.00,17.00,30.20,1024.10,T,6.00,M,2800.00,5000.00,18000.00,BLSN
ROC,2018-01-02 21:55,-77.6767,43.1167,M,M,M,M,M,30.20,M,M,10.00,M,2800.00,M,M,M
ROC,2018-01-02 22:00,-77.6767,43.1167,M,M,M,M,M,30.20,M,M,9.00,M,2800.00,M,M,M
ROC,2018-01-02 22:05,-77.6767,43.1167,M,M,M,250.00,17.00,30.20,M,M,9.00,M,M,M,M,M
ROC,2018-01-02 22:10,-77.6767,43.1167,M,M,M,250.00,17.00,30.20,M,M,10.00,M,M,M,M,M
ROC,2018-01-02 22:15,-77.6767,43.1167,M,M,M,M,M,30.20,M,M,10.00,M,M,M,M,M
ROC,2018-01-02 22:20,-77.6767,43.1167,M,M,M,250.00,15.00,30.20,M,M,10.00,M,M,M,M,M
ROC,2018-01-02 22:25,-77.6767,43.1167,M,M,M,240.00,14.00,30.20,M,M,10.00,M,M,M,M,M
ROC,2018-01-02 22:30,-77.6767,43.1167,M,M,M,240.00,18.00,30.20,M,M,10.00,M,M,M,M,M
ROC,2018-01-02 22:35,-77.6767,43.1167,M,M,M,M,M,30.20,M,M,10.00,M,M,M,M,M
ROC,2018-01-02 22:40,-77.6767,43.1167,M,M,M,M,M,30.20,M,M,10.00,M,M,M,M,M
ROC,2018-01-02 22:45,-77.6767,43.1167,M,M,M,M,M,30.20,M,M,10.00,M,M,M,M,M
ROC,2018-01-02 22:50,-77.6767,43.1167,M,M,M,250.00,14.00,30.20,M,M,10.00,M,3000.00,M,M,M
ROC,2018-01-02 22:54,-77.6767,43.1167,16.00,6.10,64.39,240.00,16.00,30.20,1024.00,0.00,10.00,M,3000.00,M,M,M
ROC,2018-01-02 22:55,-77.6767,43.1167,M,M,M,M,M,30.20,M,M,10.00,M,M,M,M,M
ROC,2018-01-02 23:00,-77.6767,43.1167,M,M,M,M,M,30.20,M,M,10.00,M,M,M,M,M
ROC,2018-01-02 23:05,-77.6767,43.1167,M,M,M,250.00,16.00,30.20,M,M,10.00,M,M,M,M,M
ROC,2018-01-02 23:10,-77.6767,43.1167,M,M,M,250.00,15.00,30.20,M,M,10.00,M,M,M,M,M
ROC,2018-01-02 23:15,-77.6767,43.1167,M,M,M,M,M,30.20,M,M,10.00,M,M,M,M,M
ROC,2018-01-02 23:20,-77.6767,43.1167,M,M,M,250.00,16.00,30.20,M,M,10.00,M,M,M,M,M
ROC,2018-01-02 23:25,-77.6767,43.1167,M,M,M,M,M,30.20,M,M,10.00,M,M,M,M,M
ROC,2018-01-02 23:30,-77.6767,43.1167,M,M,M,250.00,17.00,30.20,M,M,10.00,M,3000.00,M,M,M
ROC,2018-01-02 23:35,-77.6767,43.1167,M,M,M,M,M,30.20,M,M,10.00,M,3000.00,M,M,M
ROC,2018-01-02 23:40,-77.6767,43.1167,M,M,M,M,M,30.20,M,M,10.00,M,2800.00,M,M,M
ROC,2018-01-02 23:45,-77.6767,43.1167,M,M,M,250.00,17.00,30.20,M,M,10.00,M,2800.00,M,M,M
ROC,2018-01-02 23:50,-77.6767,43.1167,M,M,M,250.00,15.00,30.20,M,M,10.00,M,3000.00,M,M,M
ROC,2018-01-02 23:54,-77.6767,43.1167,16.00,6.10,64.39,260.00,13.00,30.20,1024.10,0.00,10.00,23.00,3000.00,M,M,M
ROC,2018-01-02 23:55,-77.6767,43.1167,M,M,M,260.00,14.00,30.20,M,M,10.00,M,2700.00,M,M,M
ROC,2018-01-03 00:00,-77.6767,43.1167,M,M,M,M,M,30.20,M,M,10.00,M,2700.00,M,M,M
ROC,2018-01-03 00:05,-77.6767,43.1167,M,M,M,M,M,30.20,M,M,10.00,M,2500.00,3000.00,M,M
ROC,2018-01-03 00:10,-77.6767,43.1167,M,M,M,260.00,14.00,30.20,M,M,10.00,M,2400.00,M,M,M
ROC,2018-01-03 00:11,-77.6767,43.1167,16.00,6.10,64.39,260.00,13.00,30.20,M,T,10.00,M,2400.00,M,M,-SN
ROC,2018-01-03 00:15,-77.6767,43.1167,M,M,M,260.00,13.00,30.20,M,M,10.00,M,2400.00,M,M,-SN
ROC,2018-01-03 00:20,-77.6767,43.1167,M,M,M,260.00,12.00,30.20,M,M,9.00,M,2400.00,M,M,-SN
ROC,2018-01-03 00:25,-77.6767,43.1167,M,M,M,M,M,30.20,M,M,9.00,M,2400.00,M,M,-SN
ROC,2018-01-03 00:30,-77.6767,43.1167,M,M,M,260.00,14.00,30.20,M,M,9.00,M,2500.00,M,M,-SN
ROC,2018-01-03 00:35,-77.6767,43.1167,M,M,M,250.00,14.00,30.20,M,M,9.00,M,2500.00,M,M,-SN
ROC,2018-01-03 00:40,-77.6767,43.1167,M,M,M,M,M,30.20,M,M,9.00,M,2500.00,M,M,-SN
ROC,2018-01-03 00:45,-77.6767,43.1167,M,M,M,250.00,12.00,30.19,M,M,9.00,M,2500.00,M,M,-SN
ROC,2018-01-03 00:50,-77.6767,43.1167,M,M,M,250.00,12.00,30.19,M,M,9.00,M,2500.00,M,M,-SN
ROC,2018-01-03 00:54,-77.6767,43.1167,16.00,7.00,67.08,250.00,12.00,30.19,1023.80,T,9.00,M,2500.00,18000.00,M,-SN
ROC,2018-01-03 00:55,-77.6767,43.1167,M,M,M,250.00,12.00,30.19,M,M,9.00,M,2500.00,M,M,-SN
ROC,2018-01-03 01:00,-77.6767,43.1167,M,M,M,250.00,12.00,30.19,M,M,9.00,M,2500.00,M,M,-SN
ROC,2018-01-03 01:05,-77.6767,43.1167,M,M,M,M,M,30.19,M,M,9.00,M,2500.00,2900.00,M,-SN
ROC,2018-01-03 01:10,-77.6767,43.1167,16.00,7.00,67.08,250.00,15.00,30.19,M,T,9.00,M,2300.00,3000.00,18000.00,-SN
ROC,2018-01-03 01:15,-77.6767,43.1167,M,M,M,250.00,13.00,30.19,M,M,9.00,M,2300.00,3000.00,M,-SN
ROC,2018-01-03 01:20,-77.6767,43.1167,M,M,M,M,M,30.19,M,M,9.00,M,2300.00,3000.00,M,-SN
ROC,2018-01-03 01:25,-77.6767,43.1167,M,M,M,M,M,30.19,M,M,9.00,M,2300.00,3000.00,M,-SN
ROC,2018-01-03 01:30,-77.6767,43.1167,M,M,M,260.00,15.00,30.19,M,M,9.00,M,2300.00,3000.00,M,-SN
ROC,2018-01-03 01:35,-77.6767,43.1167,M,M,M,M,M,30.18,M,M,9.00,M,2300.00,3000.00,M,-SN
ROC,2018-01-03 01:40,-77.6767,43.1167,M,M,M,250.00,14.00,30.18,M,M,9.00,20.00,2500.00,M,M,M
ROC,2018-01-03 01:45,-77.6767,43.1167,M,M,M,M,M,30.18,M,M,9.00,M,2500.00,M,M,M
ROC,2018-01-03 01:50,-77.6767,43.1167,M,M,M,260.00,10.00,30.18,M,M,10.00,M,2500.00,M,M,M
ROC,2018-01-03 01:54,-77.6767,43.1167,16.00,6.10,64.39,260.00,9.00,30.18,1023.40,T,10.00,M,2500.00,18000.00,M,M
ROC,2018-01-03 01:55,-77.6767,43.1167,M,M,M,260.00,10.00,30.18,M,M,10.00,M,2700.00,M,M,M
ROC,2018-01-03 02:00,-77.6767,43.1167,M,M,M,250.00,12.00,30.18,M,M,10.00,M,2700.00,M,M,M
ROC,2018-01-03 02:05,-77.6767,43.1167,M,M,M,250.00,9.00,30.18,M,M,10.00,M,2500.00,M,M,M
ROC,2018-01-03 02:10,-77.6767,43.1167,16.00,7.00,67.08,260.00,11.00,30.18,M,0.00,10.00,20.00,2300.00,2800.00,18000.00,M
ROC,2018-01-03 02:15,-77.6767,43.1167,M,M,M,250.00,12.00,30.17,M,M,10.00,M,2300.00,2800.00,M,M
ROC,2018-01-03 02:20,-77.6767,43.1167,M,M,M,250.00,12.00,30.18,M,M,10.00,M,2300.00,2800.00,M,M
ROC,2018-01-03 02:25,-77.6767,43.1167,M,M,M,M,M,30.18,M,M,10.00,M,2300.00,2800.00,M,M
ROC,2018-01-03 02:30,-77.6767,43.1167,M,M,M,240.00,12.00,30.18,M,M,10.00,M,2300.00,2800.00,M,M
ROC,2018-01-03 02:35,-77.6767,43.1167,M,M,M,250.00,13.00,30.18,M,M,10.00,M,2300.00,2800.00,M,M
ROC,2018-01-03 02:40,-77.6767,43.1167,M,M,M,240.00,11.00,30.18,M,M,10.00,M,2300.00,2800.00,M,M
ROC,2018-01-03 02:41,-77.6767,43.1167,16.00,6.10,64.39,240.00,11.00,30.18,M,T,10.00,M,2100.00,18000.00,M,-SN
ROC,2018-01-03 02:45,-77.6767,43.1167,M,M,M,240.00,11.00,30.18,M,M,10.00,M,M,M,M,-SN
ROC,2018-01-03 02:50,-77.6767,43.1167,M,M,M,250.00,13.00,30.17,M,M,9.00,M,1999.00,M,M,-SN
ROC,2018-01-03 02:54,-77.6767,43.1167,16.00,6.10,64.39,250.00,15.00,30.17,1023.10,T,9.00,M,2000.00,18000.00,M,-SN
ROC,2018-01-03 02:55,-77.6767,43.1167,M,M,M,250.00,14.00,30.17,M,M,9.00,M,M,M,M,-SN
ROC,2018-01-03 03:00,-77.6767,43.1167,M,M,M,240.00,13.00,30.17,M,M,9.00,M,2100.00,M,M,-SN
ROC,2018-01-03 03:05,-77.6767,43.1167,M,M,M,240.00,12.00,30.17,M,M,9.00,M,2100.00,M,M,-SN
ROC,2018-01-03 03:10,-77.6767,43.1167,M,M,M,M,M,30.17,M,M,9.00,M,2100.00,M,M,-SN
ROC,2018-01-03 03:15,-77.6767,43.1167,M,M,M,M,M,30.17,M,M,9.00,M,2100.00,M,M,-SN
ROC,2018-01-03 03:20,-77.6767,43.1167,M,M,M,M,M,30.17,M,M,9.00,M,2100.00,M,M,-SN
ROC,2018-01-03 03:25,-77.6767,43.1167,M,M,M,M,M,30.17,M,M,9.00,M,2100.00,M,M,-SN
ROC,2018-01-03 03:30,-77.6767,43.1167,M,M,M,M,M,30.17,M,M,9.00,M,2100.00,M,M,-SN
ROC,2018-01-03 03:35,-77.6767,43.1167,M,M,M,240.00,12.00,30.18,M,M,9.00,M,2100.00,M,M,-SN
ROC,2018-01-03 03:40,-77.6767,43.1167,M,M,M,230.00,12.00,30.17,M,M,9.00,M,2600.00,M,M,-SN
ROC,2018-01-03 03:42,-77.6767,43.1167,15.10,5.00,63.68,230.00,12.00,30.17,M,T,9.00,M,2600.00,3100.00,M,-SN
ROC,2018-01-03 03:45,-77.6767,43.1167,M,M,M,M,M,30.17,M,M,9.00,M,2800.00,M,M,-SN
ROC,2018-01-03 03:50,-77.6767,43.1167,M,M,M,230.00,10.00,30.18,M,M,9.00,M,2800.00,M,M,-SN
ROC,2018-01-03 03:54,-77.6767,43.1167,15.10,5.00,63.68,240.00,13.00,30.18,1023.30,T,9.00,M,2800.00,M,M,-SN
ROC,2018-01-03 03:55,-77.6767,43.1167,M,M,M,230.00,11.00,30.18,M,M,9.00,M,2800.00,M,M,-SN
ROC,2018-01-03 04:00,-77.6767,43.1167,M,M,M,230.00,11.00,30.18,M,M,9.00,M,2800.00,M,M,-SN
ROC,2018-01-03 04:05,-77.6767,43.1167,M,M,M,230.00,12.00,30.18,M,M,9.00,M,2800.00,M,M,-SN
ROC,2018-01-03 04:10,-77.6767,43.1167,M,M,M,230.00,11.00,30.18,M,M,9.00,M,2800.00,M,M,-SN
ROC,2018-01-03 04:15,-77.6767,43.1167,M,M,M,M,M,30.18,M,M,9.00,M,2800.00,M,M,-SN
ROC,2018-01-03 04:20,-77.6767,43.1167,M,M,M,220.00,9.00,30.18,M,M,9.00,M,2800.00,M,M,-SN
ROC,2018-01-03 04:25,-77.6767,43.1167,M,M,M,210.00,10.00,30.18,M,M,9.00,M,2800.00,M,M,-SN
ROC,2018-01-03 04:30,-77.6767,43.1167,M,M,M,220.00,9.00,30.18,M,M,9.00,M,2800.00,M,M,-SN
ROC,2018-01-03 04:35,-77.6767,43.1167,M,M,M,220.00,10.00,30.18,M,M,9.00,M,2800.00,M,M,-SN
ROC,2018-01-03 04:40,-77.6767,43.1167,M,M,M,M,M,30.18,M,M,9.00,M,2800.00,M,M,-SN
ROC,2018-01-03 04:45,-77.6767,43.1167,M,M,M,220.00,11.00,30.18,M,M,9.00,M,2700.00,M,M,-SN
ROC,2018-01-03 04:50,-77.6767,43.1167,M,M,M,220.00,11.00,30.18,M,M,9.00,M,2700.00,M,M,-SN
ROC,2018-01-03 04:54,-77.6767,43.1167,16.00,5.00,61.23,220.00,9.00,30.17,1023.20,T,9.00,M,2700.00,M,M,-SN
ROC,2018-01-03 04:55,-77.6767,43.1167,M,M,M,210.00,11.00,30.17,M,M,9.00,M,2700.00,M,M,-SN
ROC,2018-01-03 05:00,-77.6767,43.1167,M,M,M,210.00,11.00,30.17,M,M,9.00,M,2700.00,M,M,M
ROC,2018-01-03 05:05,-77.6767,43.1167,M,M,M,220.00,11.00,30.17,M,M,10.00,M,2800.00,M,M,M
ROC,2018-01-03 05:10,-77.6767,43.1167,M,M,M,220.00,12.00,30.17,M,M,10.00,M,2800.00,M,M,M
ROC,2018-01-03 05:15,-77.6767,43.1167,M,M,M,M,M,30.17,M,M,10.00,M,2800.00,M,M,M
ROC,2018-01-03 05:20,-77.6767,43.1167,M,M,M,220.00,10.00,30.16,M,M,10.00,M,2700.00,M,M,M
ROC,2018-01-03 05:25,-77.6767,43.1167,M,M,M,220.00,8.00,30.16,M,M,10.00,M,2700.00,M,M,M
ROC,2018-01-03 05:30,-77.6767,43.1167,M,M,M,220.00,9.00,30.16,M,M,10.00,M,2700.00,M,M,M
ROC,2018-01-03 05:35,-77.6767,43.1167,M,M,M,210.00,9.00,30.16,M,M,10.00,M,2700.00,M,M,M
ROC,2018-01-03 05:40,-77.6767,43.1167,M,M,M,210.00,9.00,30.16,M,M,10.00,M,2700.00,M,M,M
ROC,2018-01-03 05:45,-77.6767,43.1167,M,M,M,210.00,9.00,30.16,M,M,10.00,M,2700.00,M,M,M
ROC,2018-01-03 05:50,-77.6767,43.1167,M,M,M,210.00,10.00,30.16,M,M,10.00,M,2600.00,M,M,M
ROC,2018-01-03 05:54,-77.6767,43.1167,15.10,3.90,60.54,220.00,11.00,30.16,1022.70,T,10.00,M,2600.00,M,M,M
ROC,2018-01-03 05:55,-77.6767,43.1167,M,M,M,220.00,10.00,30.16,M,M,10.00,M,2600.00,M,M,M
ROC,2018-01-03 06:00,-77.6767,43.1167,M,M,M,210.00,10.00,30.16,M,M,10.00,M,2600.00,M,M,M
ROC,2018-01-03 06:05,-77.6767,43.1167,M,M,M,210.00,9.00,30.16,M,M,10.00,M,2600.00,M,M,M
ROC,2018-01-03 06:10,-77.6767,43.1167,M,M,M,210.00,10.00,30.16,M,M,10.00,M,2600.00,M,M,M
ROC,2018-01-03 06:15,-77.6767,43.1167,M,M,M,210.00,9.00,30.16,M,M,10.00,M,2600.00,M,M,M
ROC,2018-01-03 06:20,-77.6767,43.1167,M,M,M,210.00,11.00,30.15,M,M,10.00,M,2600.00,M,M,M
ROC,2018-01-03 06:25,-77.6767,43.1167,M,M,M,210.00,11.00,30.16,M,M,10.00,M,2500.00,M,M,M
ROC,2018-01-03 06:30,-77.6767,43.1167,M,M,M,220.00,11.00,30.15,M,M,10.00,M,2500.00,M,M,M
ROC,2018-01-03 06:35,-77.6767,43.1167,M,M,M,210.00,13.00,30.15,M,M,10.00,M,2500.00,M,M,M
ROC,2018-01-03 06:40,-77.6767,43.1167,M,M,M,220.00,10.00,30.16,M,M,10.00,15.00,2500.00,M,M,M
ROC,2018-01-03 06:45,-77.6767,43.1167,M,M,M,220.00,11.00,30.15,M,M,10.00,M,2500.00,M,M,M
ROC,2018-01-03 06:50,-77.6767,43.1167,M,M,M,210.00,12.00,30.16,M,M,10.00,M,2500.00,M,M,M
ROC,2018-01-03 06:54,-77.6767,43.1167,14.00,1.90,57.91,220.00,12.00,30.16,1022.60,0.00,10.00,M,2500.00,M,M,M
ROC,2018-01-03 06:55,-77.6767,43.1167,M,M,M,M,M,30.16,M,M,10.00,M,2500.00,M,M,M
ROC,2018-01-03 07:00,-77.6767,43.1167,M,M,M,M,M,30.16,M,M,10.00,M,2500.00,M,M,M
ROC,2018-01-03 07:05,-77.6767,43.1167,M,M,M,M,M,30.16,M,M,10.00,M,2400.00,M,M,M
ROC,2018-01-03 07:10,-77.6767,43.1167,M,M,M,M,M,30.16,M,M,10.00,M,2400.00,M,M,M
ROC,2018-01-03 07:15,-77.6767,43.1167,M,M,M,220.00,12.00,30.16,M,M,10.00,M,2400.00,M,M,M
ROC,2018-01-03 07:20,-77.6767,43.1167,M,M,M,220.00,11.00,30.16,M,M,10.00,M,2400.00,M,M,M
ROC,2018-01-03 07:25,-77.6767,43.1167,M,M,M,230.00,13.00,30.16,M,M,10.00,M,2400.00,M,M,M
ROC,2018-01-03 07:30,-77.6767,43.1167,M,M,M,M,M,30.16,M,M,10.00,M,2400.00,M,M,M
ROC,2018-01-03 07:35,-77.6767,43.1167,M,M,M,220.00,9.00,30.16,M,M,10.00,M,2400.00,M,M,M
ROC,2018-01-03 07:40,-77.6767,43.1167,M,M,M,220.00,11.00,30.16,M,M,10.00,M,2400.00,M,M,M
ROC,2018-01-03 07:45,-77.6767,43.1167,M,M,M,M,M,30.17,M,M,10.00,M,2400.00,M,M,M
ROC,2018-01-03 07:50,-77.6767,43.1167,M,M,M,220.00,12.00,30.17,M,M,10.00,M,2400.00,M,M,M
ROC,2018-01-03 07:54,-77.6767,43.1167,12.90,1.90,60.78,220.00,12.00,30.17,1023.00,0.00,10.00,M,2400.00,M,M,M
ROC,2018-01-03 07:55,-77.6767,43.1167,M,M,M,M,M,30.17,M,M,10.00,M,2400.00,M,M,M
ROC,2018-01-03 08:00,-77.6767,43.1167,M,M,M,M,M,30.17,M,M,10.00,M,2400.00,M,M,M
ROC,2018-01-03 08:05,-77.6767,43.1167,M,M,M,M,M,30.17,M,M,10.00,M,2400.00,M,M,M
ROC,2018-01-03 08:10,-77.6767,43.1167,M,M,M,M,M,30.17,M,M,10.00,M,2400.00,M,M,M
ROC,2018-01-03 08:15,-77.6767,43.1167,M,M,M,M,M,30.17,M,M,10.00,M,2400.00,M,M,M
ROC,2018-01-03 08:20,-77.6767,43.1167,M,M,M,M,M,30.17,M,M,10.00,M,2400.00,M,M,M
ROC,2018-01-03 08:25,-77.6767,43.1167,M,M,M,M,M,30.17,M,M,10.00,M,2400.00,M,M,M
ROC,2018-01-03 08:30,-77.6767,43.1167,M,M,M,M,M,30.17,M,M,10.00,M,2400.00,M,M,M
ROC,2018-01-03 08:35,-77.6767,43.1167,M,M,M,M,M,30.16,M,M,10.00,M,2400.00,M,M,M
ROC,2018-01-03 08:40,-77.6767,43.1167,M,M,M,M,M,30.16,M,M,10.00,M,2400.00,M,M,M
ROC,2018-01-03 08:45,-77.6767,43.1167,M,M,M,M,M,30.16,M,M,10.00,M,2400.00,M,M,M
ROC,2018-01-03 08:50,-77.6767,43.1167,M,M,M,M,M,30.16,M,M,10.00,M,2300.00,M,M,M
ROC,2018-01-03 08:54,-77.6767,43.1167,12.00,1.00,60.65,230.00,13.00,30.16,1022.50,0.00,10.00,M,2300.00,M,M,M
ROC,2018-01-03 08:55,-77.6767,43.1167,M,M,M,230.00,13.00,30.15,M,M,10.00,M,2300.00,M,M,M
ROC,2018-01-03 09:00,-77.6767,43.1167,M,M,M,M,M,30.15,M,M,10.00,M,2300.00,M,M,M
ROC,2018-01-03 09:05,-77.6767,43.1167,M,M,M,M,M,30.16,M,M,10.00,M,2300.00,M,M,M
ROC,2018-01-03 09:10,-77.6767,43.1167,M,M,M,240.00,14.00,30.16,M,M,10.00,M,2300.00,M,M,M
ROC,2018-01-03 09:15,-77.6767,43.1167,M,M,M,M,M,30.15,M,M,10.00,M,2300.00,M,M,M
ROC,2018-01-03 09:20,-77.6767,43.1167,M,M,M,M,M,30.15,M,M,10.00,M,2300.00,M,M,M
ROC,2018-01-03 09:25,-77.6767,43.1167,M,M,M,M,M,30.15,M,M,10.00,M,2300.00,M,M,M
ROC,2018-01-03 09:30,-77.6767,43.1167,M,M,M,M,M,30.15,M,M,10.00,M,2300.00,M,M,M
ROC,2018-01-03 09:35,-77.6767,43.1167,M,M,M,M,M,30.15,M,M,10.00,M,2300.00,M,M,M
ROC,2018-01-03 09:40,-77.6767,43.1167,M,M,M,M,M,30.14,M,M,10.00,M,2300.00,M,M,M
ROC,2018-01-03 09:45,-77.6767,43.1167,M,M,M,M,M,30.14,M,M,10.00,M,6000.00,M,M,M
ROC,2018-01-03 09:50,-77.6767,43.1167,M,M,M,M,M,30.14,M,M,10.00,M,6000.00,M,M,M
ROC,2018-01-03 09:54,-77.6767,43.1167,12.00,0.00,57.88,220.00,10.00,30.14,1022.20,0.00,10.00,19.00,6000.00,14000.00,22000.00,M
ROC,2018-01-03 09:55,-77.6767,43.1167,M,M,M,210.00,8.00,30.14,M,M,10.00,M,M,M,M,M
ROC,2018-01-03 10:00,-77.6767,43.1167,M,M,M,210.00,8.00,30.14,M,M,10.00,M,M,M,M,M
ROC,2018-01-03 10:05,-77.6767,43.1167,M,M,M,200.00,9.00,30.14,M,M,10.00,M,M,M,M,M
ROC,2018-01-03 10:10,-77.6767,43.1167,M,M,M,210.00,9.00,30.14,M,M,10.00,M,M,M,M,M
ROC,2018-01-03 10:15,-77.6767,43.1167,M,M,M,210.00,9.00,30.14,M,M,10.00,M,M,M,M,M
ROC,2018-01-03 10:20,-77.6767,43.1167,M,M,M,210.00,8.00,30.14,M,M,10.00,M,M,M,M,M
ROC,2018-01-03 10:25,-77.6767,43.1167,M,M,M,200.00,8.00,30.14,M,M,10.00,M,M,M,M,M
ROC,2018-01-03 10:30,-77.6767,43.1167,M,M,M,210.00,8.00,30.14,M,M,10.00,M,M,M,M,M
ROC,2018-01-03 10:35,-77.6767,43.1167,M,M,M,200.00,7.00,30.15,M,M,10.00,M,M,M,M,M
ROC,2018-01-03 10:40,-77.6767,43.1167,M,M,M,200.00,6.00,30.15,M,M,10.00,M,M,M,M,M
ROC,2018-01-03 10:45,-77.6767,43.1167,M,M,M,210.00,6.00,30.15,M,M,10.00,M,M,M,M,M
ROC,2018-01-03 10:50,-77.6767,43.1167,M,M,M,200.00,6.00,30.15,M,M,10.00,M,M,M,M,M
ROC,2018-01-03 10:54,-77.6767,43.1167,10.00,-0.90,60.64,200.00,6.00,30.15,1022.60,0.00,10.00,M,14000.00,18000.00,25000.00,M
ROC,2018-01-03 10:55,-77.6767,43.1167,M,M,M,200.00,6.00,30.15,M,M,10.00,M,M,M,M,M
ROC,2018-01-03 11:00,-77.6767,43.1167,M,M,M,200.00,5.00,30.15,M,M,10.00,M,M,M,M,M
ROC,2018-01-03 11:05,-77.6767,43.1167,M,M,M,190.00,6.00,30.15,M,M,10.00,M,M,M,M,M
ROC,2018-01-03 11:10,-77.6767,43.1167,M,M,M,200.00,6.00,30.15,M,M,10.00,M,M,M,M,M
ROC,2018-01-03 11:15,-77.6767,43.1167,M,M,M,200.00,7.00,30.15,M,M,10.00,M,M,M,M,M
ROC,2018-01-03 11:20,-77.6767,43.1167,M,M,M,200.00,7.00,30.15,M,M,10.00,M,M,M,M,M
ROC,2018-01-03 11:25,-77.6767,43.1167,M,M,M,210.00,6.00,30.15,M,M,10.00,M,M,M,M,M
ROC,2018-01-03 11:30,-77.6767,43.1167,M,M,M,210.00,6.00,30.15,M,M,10.00,M,M,M,M,M
ROC,2018-01-03 11:35,-77.6767,43.1167,M,M,M,210.00,8.00,30.15,M,M,10.00,M,M,M,M,M
ROC,2018-01-03 11:40,-77.6767,43.1167,M,M,M,210.00,10.00,30.15,M,M,10.00,M,M,M,M,M
ROC,2018-01-03 11:45,-77.6767,43.1167,M,M,M,M,M,M,M,M,M,M,M,M,M,M
ROC,2018-01-03 11:50,-77.6767,43.1167,M,M,M,210.00,12.00,30.15,M,M,10.00,M,12000.00,M,M,M
ROC,2018-01-03 11:54,-77.6767,43.1167,10.00,-0.90,60.64,210.00,10.00,30.14,1022.30,0.00,10.00,M,12000.00,18000.00,25000.00,M
ROC,2018-01-03 11:55,-77.6767,43.1167,M,M,M,210.00,10.00,30.14,M,M,10.00,M,M,M,M,M
ROC,2018-01-03 12:00,-77.6767,43.1167,M,M,M,210.00,11.00,30.14,M,M,10.00,M,M,M,M,M
ROC,2018-01-03 12:05,-77.6767,43.1167,M,M,M,220.00,10.00,30.14,M,M,10.00,15.00,M,M,M,M
ROC,2018-01-03 12:10,-77.6767,43.1167,M,M,M,230.00,9.00,30.15,M,M,10.00,M,M,M,M,M
ROC,2018-01-03 12:15,-77.6767,43.1167,M,M,M,230.00,11.00,30.15,M,M,10.00,M,7000.00,M,M,M
ROC,2018-01-03 12:20,-77.6767,43.1167,M,M,M,230.00,10.00,30.15,M,M,10.00,M,7000.00,M,M,M
ROC,2018-01-03 12:25,-77.6767,43.1167,M,M,M,M,M,30.15,M,M,10.00,M,7000.00,M,M,M
ROC,2018-01-03 12:30,-77.6767,43.1167,M,M,M,220.00,10.00,30.15,M,M,10.00,M,7000.00,M,M,M
ROC,2018-01-03 12:35,-77.6767,43.1167,M,M,M,220.00,11.00,30.15,M,M,10.00,M,7000.00,M,M,M
ROC,2018-01-03 12:40,-77.6767,43.1167,M,M,M,220.00,10.00,30.15,M,M,10.00,M,7000.00,M,M,M
ROC,2018-01-03 12:45,-77.6767,43.1167,M,M,M,220.00,9.00,30.14,M,M,10.00,M,7000.00,M,M,M
ROC,2018-01-03 12:50,-77.6767,43.1167,M,M,M,210.00,10.00,30.14,M,M,10.00,M,7000.00,M,M,M
ROC,2018-01-03 12:54,-77.6767,43.1167,10.00,-2.00,57.57,210.00,12.00,30.15,1022.30,0.00,10.00,M,7000.00,18000.00,25000.00,M
ROC,2018-01-03 12:55,-77.6767,43.1167,M,M,M,210.00,11.00,30.15,M,M,10.00,M,7000.00,M,M,M
ROC,2018-01-03 13:00,-77.6767,43.1167,M,M,M,210.00,11.00,30.15,M,M,10.00,M,7000.00,M,M,M
ROC,2018-01-03 13:05,-77.6767,43.1167,M,M,M,220.00,10.00,30.15,M,M,10.00,M,7000.00,M,M,M
ROC,2018-01-03 13:10,-77.6767,43.1167,M,M,M,230.00,11.00,30.16,M,M,10.00,M,7000.00,M,M,M
ROC,2018-01-03 13:15,-77.6767,43.1167,M,M,M,220.00,11.00,30.15,M,M,10.00,M,M,M,M,M
ROC,2018-01-03 13:20,-77.6767,43.1167,M,M,M,220.00,10.00,30.15,M,M,10.00,M,M,M,M,M
ROC,2018-01-03 13:25,-77.6767,43.1167,M,M,M,210.00,9.00,30.15,M,M,10.00,M,M,M,M,M
ROC,2018-01-03 13:30,-77.6767,43.1167,M,M,M,M,M,30.15,M,M,10.00,M,M,M,M,M
ROC,2018-01-03 13:35,-77.6767,43.1167,M,M,M,M,M,30.15,M,M,10.00,M,M,M,M,M
ROC,2018-01-03 13:40,-77.6767,43.1167,M,M,M,M,M,30.14,M,M,10.00,M,M,M,M,M
ROC,2018-01-03 13:45,-77.6767,43.1167,M,M,M,210.00,12.00,30.15,M,M,10.00,M,7000.00,M,M,M
ROC,2018-01-03 13:50,-77.6767,43.1167,M,M,M,210.00,13.00,30.14,M,M,10.00,M,7000.00,M,M,M
ROC,2018-01-03 13:54,-77.6767,43.1167,10.90,-2.00,55.30,210.00,11.00,30.15,1022.30,0.00,10.00,M,7000.00,18000.00,M,M
ROC,2018-01-03 13:55,-77.6767,43.1167,M,M,M,210.00,10.00,30.15,M,M,10.00,M,6500.00,M,M,M
ROC,2018-01-03 14:00,-77.6767,43.1167,M,M,M,M,M,30.14,M,M,10.00,M,6500.00,M,M,M
ROC,2018-01-03 14:05,-77.6767,43.1167,M,M,M,200.00,11.00,30.14,M,M,10.00,M,6500.00,M,M,M
ROC,2018-01-03 14:10,-77.6767,43.1167,M,M,M,M,M,30.14,M,M,10.00,M,6500.00,M,M,M
ROC,2018-01-03 14:15,-77.6767,43.1167,M,M,M,210.00,9.00,30.14,M,M,10.00,M,7000.00,M,M,M
ROC,2018-01-03 14:20,-77.6767,43.1167,M,M,M,220.00,10.00,30.14,M,M,10.00,15.00,7000.00,M,M,M
ROC,2018-01-03 14:25,-77.6767,43.1167,M,M,M,M,M,30.14,M,M,10.00,M,7000.00,M,M,M
ROC,2018-01-03 14:30,-77.6767,43.1167,M,M,M,210.00,14.00,30.14,M,M,10.00,M,7000.00,M,M,M
ROC,2018-01-03 14:35,-77.6767,43.1167,M,M,M,210.00,10.00,30.14,M,M,10.00,M,7000.00,M,M,M
ROC,2018-01-03 14:40,-77.6767,43.1167,M,M,M,210.00,10.00,30.14,M,M,10.00,M,7000.00,M,M,M
ROC,2018-01-03 14:45,-77.6767,43.1167,M,M,M,M,M,30.14,M,M,10.00,19.00,7000.00,M,M,M
ROC,2018-01-03 14:50,-77.6767,43.1167,M,M,M,210.00,12.00,30.14,M,M,10.00,M,7000.00,M,M,M
ROC,2018-01-03 14:54,-77.6767,43.1167,12.00,-0.90,55.48,210.00,12.00,30.14,1022.00,0.00,10.00,19.00,7000.00,M,M,M
ROC,2018-01-03 14:55,-77.6767,43.1167,M,M,M,200.00,13.00,30.14,M,M,10.00,M,7000.00,M,M,M
ROC,2018-01-03 15:00,-77.6767,43.1167,M,M,M,210.00,10.00,30.13,M,M,10.00,M,7000.00,M,M,M
ROC,2018-01-03 15:05,-77.6767,43.1167,M,M,M,210.00,12.00,30.13,M,M,10.00,M,7000.00,M,M,M
ROC,2018-01-03 15:10,-77.6767,43.1167,M,M,M,210.00,11.00,30.13,M,M,10.00,16.00,7000.00,M,M,M
ROC,2018-01-03 15:15,-77.6767,43.1167,M,M,M,220.00,11.00,30.13,M,M,10.00,M,7000.00,M,M,M
ROC,2018-01-03 15:20,-77.6767,43.1167,M,M,M,M,M,30.13,M,M,10.00,M,7000.00,M,M,M
ROC,2018-01-03 15:25,-77.6767,43.1167,M,M,M,210.00,12.00,30.13,M,M,10.00,M,7000.00,M,M,M
ROC,2018-01-03 15:30,-77.6767,43.1167,M,M,M,200.00,12.00,30.12,M,M,10.00,18.00,7000.00,M,M,M
ROC,2018-01-03 15:35,-77.6767,43.1167,M,M,M,210.00,12.00,30.12,M,M,10.00,M,7000.00,M,M,M
ROC,2018-01-03 15:40,-77.6767,43.1167,M,M,M,M,M,30.11,M,M,10.00,M,7000.00,M,M,M
ROC,2018-01-03 15:45,-77.6767,43.1167,M,M,M,M,M,30.11,M,M,10.00,M,7000.00,M,M,M
ROC,2018-01-03 15:50,-77.6767,43.1167,M,M,M,220.00,10.00,30.11,M,M,10.00,M,7000.00,M,M,M
ROC,2018-01-03 15:54,-77.6767,43.1167,15.10,0.00,50.51,220.00,13.00,30.11,1021.10,0.00,10.00,20.00,7000.00,M,M,M
ROC,2018-01-03 15:55,-77.6767,43.1167,M,M,M,M,M,30.11,M,M,10.00,M,7000.00,M,M,M
ROC,2018-01-03 16:00,-77.6767,43.1167,M,M,M,220.00,12.00,30.11,M,M,10.00,M,7000.00,M,M,M
ROC,2018-01-03 16:05,-77.6767,43.1167,M,M,M,M,M,30.11,M,M,10.00,M,7000.00,M,M,M
ROC,2018-01-03 16:10,-77.6767,43.1167,M,M,M,M,M,30.10,M,M,10.00,M,7000.00,M,M,M
ROC,2018-01-03 16:15,-77.6767,43.1167,M,M,M,M,M,30.10,M,M,10.00,M,7500.00,M,M,M
ROC,2018-01-03 16:20,-77.6767,43.1167,M,M,M,210.00,14.00,30.09,M,M,10.00,M,7000.00,M,M,M
ROC,2018-01-03 16:25,-77.6767,43.1167,M,M,M,M,M,30.08,M,M,10.00,M,7500.00,M,M,M
ROC,2018-01-03 16:30,-77.6767,43.1167,M,M,M,M,M,30.08,M,M,10.00,23.00,7500.00,M,M,M
ROC,2018-01-03 16:35,-77.6767,43.1167,M,M,M,M,M,30.07,M,M,10.00,M,7500.00,M,M,M
ROC,2018-01-03 16:40,-77.6767,43.1167,M,M,M,M,M,30.07,M,M,10.00,M,7500.00,M,M,M
ROC,2018-01-03 16:45,-77.6767,43.1167,M,M,M,M,M,30.07,M,M,10.00,M,7500.00,M,M,M
ROC,2018-01-03 16:50,-77.6767,43.1167,M,M,M,M,M,30.07,M,M,10.00,M,7500.00,M,M,M
ROC,2018-01-03 16:54,-77.6767,43.1167,17.10,1.00,48.53,210.00,10.00,30.07,1019.70,0.00,10.00,M,7500.00,M,M,M
ROC,2018-01-03 16:55,-77.6767,43.1167,M,M,M,220.00,11.00,30.07,M,M,10.00,M,7500.00,M,M,M
ROC,2018-01-03 17:00,-77.6767,43.1167,M,M,M,M,M,30.07,M,M,10.00,M,7999.00,M,M,M
ROC,2018-01-03 17:05,-77.6767,43.1167,M,M,M,M,M,30.07,M,M,10.00,M,7999.00,M,M,M
ROC,2018-01-03 17:10,-77.6767,43.1167,M,M,M,220.00,14.00,30.07,M,M,10.00,M,7999.00,M,M,M
ROC,2018-01-03 17:15,-77.6767,43.1167,M,M,M,M,M,30.06,M,M,10.00,M,8500.00,M,M,M
ROC,2018-01-03 17:20,-77.6767,43.1167,M,M,M,M,M,30.06,M,M,10.00,19.00,8500.00,M,M,M
ROC,2018-01-03 17:25,-77.6767,43.1167,M,M,M,M,M,30.05,M,M,10.00,M,8500.00,M,M,M
ROC,2018-01-03 17:30,-77.6767,43.1167,M,M,M,200.00,13.00,30.05,M,M,10.00,M,9000.00,M,M,M
ROC,2018-01-03 17:35,-77.6767,43.1167,M,M,M,M,M,30.04,M,M,10.00,M,9000.00,M,M,M
ROC,2018-01-03 17:40,-77.6767,43.1167,M,M,M,M,M,30.04,M,M,10.00,M,9000.00,M,M,M
ROC,2018-01-03 17:45,-77.6767,43.1167,M,M,M,220.00,12.00,30.04,M,M,10.00,M,7500.00,9000.00,M,M
ROC,2018-01-03 17:50,-77.6767,43.1167,M,M,M,210.00,12.00,30.04,M,M,10.00,M,7500.00,9000.00,M,M
ROC,2018-01-03 17:54,-77.6767,43.1167,19.90,1.00,43.03,210.00,13.00,30.04,1018.50,0.00,10.00,M,7500.00,9000.00,15000.00,M
ROC,2018-01-03 17:55,-77.6767,43.1167,M,M,M,M,M,30.04,M,M,10.00,M,M,M,M,M
ROC,2018-01-03 18:00,-77.6767,43.1167,M,M,M,M,M,30.03,M,M,10.00,M,M,M,M,M
ROC,2018-01-03 18:05,-77.6767,43.1167,M,M,M,210.00,13.00,30.03,M,M,10.00,18.00,M,M,M,M
ROC,2018-01-03 18:10,-77.6767,43.1167,M,M,M,210.00,8.00,30.03,M,M,10.00,M,M,M,M,M
ROC,2018-01-03 18:15,-77.6767,43.1167,M,M,M,210.00,9.00,30.03,M,M,10.00,M,M,M,M,M
ROC,2018-01-03 18:20,-77.6767,43.1167,M,M,M,220.00,13.00,30.02,M,M,10.00,M,M,M,M,M
ROC,2018-01-03 18:25,-77.6767,43.1167,M,M,M,210.00,11.00,30.02,M,M,10.00,M,M,M,M,M
ROC,2018-01-03 18:30,-77.6767,43.1167,M,M,M,210.00,10.00,30.01,M,M,10.00,M,M,M,M,M
ROC,2018-01-03 18:35,-77.6767,43.1167,M,M,M,210.00,11.00,30.01,M,M,10.00,M,M,M,M,M
ROC,2018-01-03 18:40,-77.6767,43.1167,M,M,M,M,M,30.01,M,M,10.00,M,M,M,M,M
ROC,2018-01-03 18:45,-77.6767,43.1167,M,M,M,210.00,9.00,30.01,M,M,10.00,M,9000.00,M,M,M
ROC,2018-01-03 18:50,-77.6767,43.1167,M,M,M,M,M,30.01,M,M,10.00,M,9000.00,M,M,M
ROC,2018-01-03 18:54,-77.6767,43.1167,21.90,1.00,39.53,210.00,10.00,30.01,1017.50,0.00,10.00,M,9000.00,14000.00,M,M
ROC,2018-01-03 18:55,-77.6767,43.1167,M,M,M,210.00,10.00,30.01,M,M,10.00,M,M,M,M,M
ROC,2018-01-03 19:00,-77.6767,43.1167,M,M,M,M,M,30.00,M,M,10.00,M,M,M,M,M
ROC,2018-01-03 19:05,-77.6767,43.1167,M,M,M,200.00,10.00,30.00,M,M,10.00,M,M,M,M,M
ROC,2018-01-03 19:10,-77.6767,43.1167,M,M,M,210.00,8.00,30.00,M,M,10.00,M,6000.00,M,M,M
ROC,2018-01-03 19:15,-77.6767,43.1167,M,M,M,200.00,10.00,30.00,M,M,10.00,M,6000.00,M,M,M
ROC,2018-01-03 19:20,-77.6767,43.1167,M,M,M,200.00,10.00,30.00,M,M,10.00,M,6000.00,M,M,M
ROC,2018-01-03 19:25,-77.6767,43.1167,M,M,M,200.00,9.00,30.00,M,M,10.00,M,6000.00,M,M,M
ROC,2018-01-03 19:30,-77.6767,43.1167,M,M,M,210.00,10.00,30.00,M,M,10.00,M,6000.00,M,M,M
ROC,2018-01-03 19:35,-77.6767,43.1167,M,M,M,210.00,9.00,30.00,M,M,10.00,M,6000.00,M,M,M
ROC,2018-01-03 19:40,-77.6767,43.1167,M,M,M,210.00,8.00,29.99,M,M,10.00,M,6000.00,M,M,M
ROC,2018-01-03 19:45,-77.6767,43.1167,M,M,M,200.00,7.00,29.99,M,M,10.00,M,6000.00,M,M,M
ROC,2018-01-03 19:50,-77.6767,43.1167,M,M,M,200.00,7.00,29.99,M,M,10.00,M,6000.00,M,M,M
ROC,2018-01-03 19:54,-77.6767,43.1167,23.00,1.90,39.36,200.00,8.00,29.99,1016.90,0.00,10.00,M,6000.00,14000.00,M,M
ROC,2018-01-03 19:55,-77.6767,43.1167,M,M,M,200.00,9.00,29.99,M,M,10.00,M,5000.00,6000.00,M,M
ROC,2018-01-03 20:00,-77.6767,43.1167,M,M,M,200.00,6.00,29.99,M,M,10.00,M,5000.00,6000.00,M,M
ROC,2018-01-03 20:05,-77.6767,43.1167,M,M,M,210.00,6.00,29.99,M,M,10.00,M,5000.00,6000.00,M,M
ROC,2018-01-03 20:10,-77.6767,43.1167,M,M,M,230.00,6.00,29.99,M,M,10.00,M,5500.00,7000.00,M,M
ROC,2018-01-03 20:15,-77.6767,43.1167,M,M,M,230.00,7.00,29.98,M,M,10.00,M,5500.00,7000.00,M,M
ROC,2018-01-03 20:20,-77.6767,43.1167,M,M,M,230.00,6.00,29.98,M,M,10.00,M,7000.00,M,M,M
ROC,2018-01-03 20:25,-77.6767,43.1167,M,M,M,230.00,7.00,29.98,M,M,10.00,M,7000.00,M,M,M
ROC,2018-01-03 20:30,-77.6767,43.1167,M,M,M,220.00,6.00,29.98,M,M,10.00,M,5500.00,M,M,M
ROC,2018-01-03 20:35,-77.6767,43.1167,M,M,M,230.00,6.00,29.98,M,M,10.00,M,6000.00,M,M,M
ROC,2018-01-03 20:40,-77.6767,43.1167,M,M,M,220.00,5.00,29.98,M,M,10.00,M,6000.00,M,M,M
ROC,2018-01-03 20:45,-77.6767,43.1167,M,M,M,220.00,3.00,29.98,M,M,10.00,M,5500.00,M,M,M
ROC,2018-01-03 20:50,-77.6767,43.1167,M,M,M,220.00,4.00,29.97,M,M,10.00,M,5500.00,M,M,M
ROC,2018-01-03 20:54,-77.6767,43.1167,24.10,1.90,37.58,220.00,3.00,29.97,1016.40,0.00,10.00,M,5500.00,14000.00,M,M
ROC,2018-01-03 20:55,-77.6767,43.1167,M,M,M,220.00,3.00,29.97,M,M,10.00,M,5500.00,M,M,M
ROC,2018-01-03 21:00,-77.6767,43.1167,M,M,M,0.00,0.00,29.97,M,M,10.00,M,5500.00,M,M,M
ROC,2018-01-03 21:05,-77.6767,43.1167,M,M,M,0.00,0.00,29.97,M,M,10.00,M,5500.00,M,M,M
ROC,2018-01-03 21:10,-77.6767,43.1167,M,M,M,0.00,0.00,29.97,M,M,10.00,M,5500.00,M,M,M
ROC,2018-01-03 21:15,-77.6767,43.1167,M,M,M,0.00,0.00,29.97,M,M,10.00,M,5500.00,M,M,M
ROC,2018-01-03 21:20,-77.6767,43.1167,M,M,M,0.00,0.00,29.97,M,M,10.00,M,5500.00,M,M,M
ROC,2018-01-03 21:25,-77.6767,43.1167,M,M,M,0.00,0.00,29.97,M,M,10.00,M,5500.00,12000.00,M,M
ROC,2018-01-03 21:30,-77.6767,43.1167,M,M,M,0.00,0.00,29.97,M,M,10.00,M,5500.00,12000.00,M,M
ROC,2018-01-03 21:35,-77.6767,43.1167,M,M,M,0.00,0.00,29.97,M,M,10.00,M,5500.00,M,M,M
ROC,2018-01-03 21:40,-77.6767,43.1167,M,M,M,0.00,0.00,29.97,M,M,10.00,M,5500.00,M,M,M
ROC,2018-01-03 21:45,-77.6767,43.1167,M,M,M,0.00,0.00,29.97,M,M,10.00,M,5500.00,12000.00,M,M
ROC,2018-01-03 21:50,-77.6767,43.1167,M,M,M,0.00,0.00,29.97,M,M,10.00,M,3000.00,5500.00,12000.00,M
ROC,2018-01-03 21:54,-77.6767,43.1167,24.10,1.90,37.58,0.00,0.00,29.97,1016.30,0.00,10.00,M,3000.00,5500.00,12000.00,M
ROC,2018-01-03 21:55,-77.6767,43.1167,M,M,M,0.00,0.00,29.97,M,M,10.00,M,5500.00,11000.00,M,M
ROC,2018-01-03 22:00,-77.6767,43.1167,M,M,M,0.00,0.00,29.98,M,M,10.00,M,5500.00,9000.00,11000.00,M
ROC,2018-01-03 22:05,-77.6767,43.1167,M,M,M,0.00,0.00,29.98,M,M,10.00,M,5500.00,9000.00,11000.00,M
ROC,2018-01-03 22:10,-77.6767,43.1167,M,M,M,0.00,0.00,29.98,M,M,10.00,M,5500.00,9000.00,11000.00,M
ROC,2018-01-03 22:15,-77.6767,43.1167,M,M,M,0.00,0.00,29.98,M,M,10.00,M,5500.00,7500.00,9000.00,M
ROC,2018-01-03 22:20,-77.6767,43.1167,M,M,M,0.00,0.00,29.98,M,M,10.00,M,6000.00,7500.00,11000.00,M
ROC,2018-01-03 22:25,-77.6767,43.1167,M,M,M,0.00,0.00,29.98,M,M,10.00,M,6000.00,7000.00,9000.00,M
ROC,2018-01-03 22:30,-77.6767,43.1167,M,M,M,0.00,0.00,29.99,M,M,10.00,M,6000.00,7500.00,9000.00,M
ROC,2018-01-03 22:35,-77.6767,43.1167,M,M,M,0.00,0.00,29.99,M,M,10.00,M,6000.00,M,M,M
ROC,2018-01-03 22:40,-77.6767,43.1167,M,M,M,0.00,0.00,29.99,M,M,10.00,M,6000.00,M,M,M
ROC,2018-01-03 22:45,-77.6767,43.1167,M,M,M,0.00,0.00,29.99,M,M,10.00,M,6000.00,M,M,M
ROC,2018-01-03 22:50,-77.6767,43.1167,M,M,M,0.00,0.00,29.99,M,M,10.00,M,6000.00,M,M,M
ROC,2018-01-03 22:54,-77.6767,43.1167,21.90,9.00,57.02,0.00,0.00,29.99,1017.00,0.00,10.00,M,6000.00,M,M,M
ROC,2018-01-03 22:55,-77.6767,43.1167,M,M,M,0.00,0.00,29.99,M,M,10.00,M,6000.00,M,M,M
ROC,2018-01-03 23:00,-77.6767,43.1167,M,M,M,0.00,0.00,30.00,M,M,10.00,M,6500.00,M,M,M
ROC,2018-01-03 23:05,-77.6767,43.1167,M,M,M,0.00,0.00,29.99,M,M,10.00,M,6500.00,M,M,M
ROC,2018-01-03 23:10,-77.6767,43.1167,M,M,M,0.00,0.00,30.00,M,M,10.00,M,6500.00,M,M,M
ROC,2018-01-03 23:15,-77.6767,43.1167,M,M,M,0.00,0.00,30.00,M,M,10.00,M,6500.00,M,M,M
ROC,2018-01-03 23:20,-77.6767,43.1167,M,M,M,0.00,0.00,30.00,M,M,10.00,M,6500.00,M,M,M
ROC,2018-01-03 23:25,-77.6767,43.1167,M,M,M,310.00,4.00,29.99,M,M,10.00,M,6500.00,M,M,M
ROC,2018-01-03 23:30,-77.6767,43.1167,M,M,M,310.00,5.00,29.99,M,M,10.00,M,6500.00,M,M,M
ROC,2018-01-03 23:35,-77.6767,43.1167,M,M,M,330.00,4.00,29.99,M,M,10.00,M,6500.00,M,M,M
ROC,2018-01-03 23:40,-77.6767,43.1167,M,M,M,0.00,0.00,29.99,M,M,10.00,M,6500.00,M,M,M
ROC,2018-01-03 23:45,-77.6767,43.1167,M,M,M,0.00,0.00,29.99,M,M,10.00,M,7000.00,M,M,M
ROC,2018-01-03 23:50,-77.6767,43.1167,M,M,M,0.00,0.00,29.99,M,M,10.00,M,7000.00,M,M,M
ROC,2018-01-03 23:54,-77.6767,43.1167,23.00,6.10,47.75,0.00,0.00,29.99,1017.00,0.00,10.00,M,7000.00,M,M,M
ROC,2018-01-03 23:55,-77.6767,43.1167,M,M,M,0.00,0.00,29.99,M,M,10.00,M,7000.00,M,M,M
SDC,2018-01-01 00:35,-77.1195,43.2346,6.80,5.00,92.12,250.00,6.00,30.38,M,0.00,2.00,M,400.00,1000.00,M,-SN
SDC,2018-01-01 00:55,-77.1195,43.2346,8.60,5.00,84.93,250.00,6.00,30.38,M,0.00,1.00,M,400.00,1000.00,M,-SN
SDC,2018-01-01 01:15,-77.1195,43.2346,8.60,5.00,84.93,260.00,4.00,30.38,M,0.00,1.25,M,600.00,1000.00,1800.00,-SN
SDC,2018-01-01 01:35,-77.1195,43.2346,8.60,6.80,92.19,300.00,4.00,30.37,M,0.00,1.50,M,800.00,1500.00,2000.00,-SN
SDC,2018-01-01 01:55,-77.1195,43.2346,10.40,6.80,85.05,310.00,5.00,30.37,M,0.00,1.75,M,600.00,1000.00,2000.00,-SN
SDC,2018-01-01 02:15,-77.1195,43.2346,10.40,5.00,78.35,320.00,6.00,30.37,M,0.00,2.00,M,800.00,1300.00,2200.00,-SN
SDC,2018-01-01 02:35,-77.1195,43.2346,10.40,5.00,78.35,320.00,6.00,30.38,M,0.00,4.00,M,900.00,1900.00,2400.00,-SN
SDC,2018-01-01 02:55,-77.1195,43.2346,10.40,5.00,78.35,330.00,7.00,30.38,M,0.00,5.00,M,1800.00,2500.00,4100.00,-SN
SDC,2018-01-01 03:15,-77.1195,43.2346,10.40,3.20,72.12,330.00,6.00,30.38,M,0.00,10.00,M,1900.00,3100.00,3800.00,M
SDC,2018-01-01 03:35,-77.1195,43.2346,10.40,3.20,72.12,330.00,4.00,30.38,M,0.00,10.00,M,2400.00,3000.00,3700.00,M
SDC,2018-01-01 03:55,-77.1195,43.2346,10.40,3.20,72.12,320.00,5.00,30.39,M,0.00,5.00,M,2500.00,3600.00,M,-SN
SDC,2018-01-01 04:15,-77.1195,43.2346,10.40,3.20,72.12,320.00,6.00,30.39,M,0.00,7.00,M,2100.00,2700.00,3600.00,M
SDC,2018-01-01 04:35,-77.1195,43.2346,10.40,3.20,72.12,320.00,5.00,30.39,M,0.00,10.00,M,2500.00,3900.00,M,M
SDC,2018-01-01 04:55,-77.1195,43.2346,10.40,3.20,72.12,320.00,4.00,30.39,M,0.00,10.00,M,2600.00,3200.00,3800.00,-SN
SDC,2018-01-01 05:15,-77.1195,43.2346,10.40,3.20,72.12,330.00,3.00,30.39,M,0.00,5.00,M,2600.00,3400.00,M,-SN
SDC,2018-01-01 05:35,-77.1195,43.2346,8.60,3.20,78.18,330.00,6.00,30.39,M,0.00,7.00,M,2400.00,3200.00,3700.00,-SN
SDC,2018-01-01 05:55,-77.1195,43.2346,8.60,3.20,78.18,310.00,5.00,30.39,M,0.00,5.00,M,2100.00,2600.00,3400.00,-SN
SDC,2018-01-01 06:15,-77.1195,43.2346,8.60,3.20,78.18,320.00,3.00,30.38,M,0.00,7.00,M,2600.00,3200.00,M,-SN
SDC,2018-01-01 06:35,-77.1195,43.2346,8.60,1.40,71.92,320.00,3.00,30.39,M,0.00,10.00,M,2700.00,3500.00,M,M
SDC,2018-01-01 06:55,-77.1195,43.2346,8.60,1.40,71.92,320.00,4.00,30.39,M,0.00,10.00,M,2700.00,3500.00,M,M
SDC,2018-01-01 07:15,-77.1195,43.2346,8.60,1.40,71.92,310.00,5.00,30.39,M,0.00,10.00,M,2500.00,2900.00,3300.00,M
SDC,2018-01-01 07:35,-77.1195,43.2346,8.60,1.40,71.92,310.00,4.00,30.40,M,0.00,10.00,M,2500.00,2900.00,3600.00,M
SDC,2018-01-01 07:55,-77.1195,43.2346,8.60,3.20,78.18,330.00,4.00,30.40,M,0.00,10.00,M,2300.00,2800.00,3600.00,M
SDC,2018-01-01 08:15,-77.1195,43.2346,8.60,3.20,78.18,330.00,5.00,30.40,M,0.00,10.00,M,2300.00,M,M,M
SDC,2018-01-01 08:35,-77.1195,43.2346,8.60,1.40,71.92,340.00,6.00,30.40,M,0.00,10.00,M,2500.00,M,M,M
SDC,2018-01-01 08:55,-77.1195,43.2346,8.60,1.40,71.92,340.00,5.00,30.40,M,0.00,10.00,M,2700.00,3300.00,M,M
SDC,2018-01-01 09:15,-77.1195,43.2346,8.60,1.40,71.92,330.00,4.00,30.40,M,0.00,10.00,M,2700.00,3200.00,M,M
SDC,2018-01-01 09:35,-77.1195,43.2346,8.60,1.40,71.92,330.00,3.00,30.39,M,0.00,10.00,M,2300.00,2900.00,M,M
SDC,2018-01-01 09:55,-77.1195,43.2346,8.60,1.40,71.92,330.00,4.00,30.39,M,0.00,10.00,M,2300.00,3000.00,M,M
SDC,2018-01-01 10:15,-77.1195,43.2346,8.60,1.40,71.92,310.00,3.00,30.39,M,0.00,10.00,M,2300.00,3000.00,M,M
SDC,2018-01-01 10:35,-77.1195,43.2346,8.60,1.40,71.92,0.00,0.00,30.40,M,0.00,7.00,M,1900.00,2500.00,M,-SN
SDC,2018-01-01 10:55,-77.1195,43.2346,8.60,3.20,78.18,300.00,3.00,30.40,M,0.00,5.00,M,2000.00,M,M,-SN
SDC,2018-01-01 11:15,-77.1195,43.2346,8.60,3.20,78.18,0.00,0.00,30.39,M,0.00,10.00,M,1900.00,2500.00,M,M
SDC,2018-01-01 11:35,-77.1195,43.2346,8.60,3.20,78.18,0.00,0.00,30.40,M,0.00,5.00,M,1700.00,2500.00,3100.00,-SN
SDC,2018-01-01 11:55,-77.1195,43.2346,6.80,3.20,84.80,0.00,0.00,30.40,M,0.00,10.00,M,2500.00,3300.00,M,M
SDC,2018-01-01 12:15,-77.1195,43.2346,6.80,3.20,84.80,230.00,5.00,30.40,M,0.00,10.00,M,2700.00,M,M,M
SDC,2018-01-01 12:35,-77.1195,43.2346,6.80,3.20,84.80,260.00,3.00,30.40,M,0.00,10.00,M,2300.00,M,M,-SN
SDC,2018-01-01 12:55,-77.1195,43.2346,5.00,3.20,92.06,230.00,3.00,30.40,M,0.00,3.00,M,800.00,2200.00,2700.00,-SN
SDC,2018-01-01 13:15,-77.1195,43.2346,5.00,3.20,92.06,240.00,4.00,30.40,M,0.00,2.00,M,600.00,M,M,-SN
SDC,2018-01-01 13:35,-77.1195,43.2346,5.00,3.20,92.06,220.00,3.00,30.39,M,0.00,2.50,M,800.00,1200.00,1900.00,-SN
SDC,2018-01-01 13:55,-77.1195,43.2346,5.00,3.20,92.06,240.00,5.00,30.40,M,0.00,1.50,M,1000.00,M,M,-SN
SDC,2018-01-01 14:15,-77.1195,43.2346,6.80,1.40,78.01,240.00,4.00,30.40,M,0.00,4.00,M,1000.00,M,M,-SN
SDC,2018-01-01 14:35,-77.1195,43.2346,5.00,1.40,84.68,220.00,6.00,30.39,M,0.00,10.00,M,1200.00,1900.00,2400.00,M
SDC,2018-01-01 14:55,-77.1195,43.2346,6.80,1.40,78.01,210.00,4.00,30.39,M,0.00,10.00,M,2500.00,3200.00,4700.00,M
SDC,2018-01-01 15:15,-77.1195,43.2346,6.80,1.40,78.01,210.00,4.00,30.39,M,0.00,10.00,M,3800.00,4800.00,6000.00,M
SDC,2018-01-01 15:35,-77.1195,43.2346,8.60,1.40,71.92,230.00,5.00,30.38,M,0.00,10.00,M,M,M,M,M
SDC,2018-01-01 15:55,-77.1195,43.2346,10.40,3.20,72.12,230.00,8.00,30.38,M,0.00,10.00,M,M,M,M,M
SDC,2018-01-01 16:15,-77.1195,43.2346,10.40,3.20,72.12,220.00,6.00,30.37,M,0.00,10.00,M,M,M,M,M
SDC,2018-01-01 16:35,-77.1195,43.2346,12.20,3.20,66.58,230.00,5.00,30.36,M,0.00,10.00,M,M,M,M,M
SDC,2018-01-01 16:55,-77.1195,43.2346,12.20,3.20,66.58,230.00,4.00,30.35,M,0.00,10.00,M,4200.00,4800.00,5000.00,M
SDC,2018-01-01 17:15,-77.1195,43.2346,12.20,3.20,66.58,220.00,6.00,30.34,M,0.00,10.00,M,3800.00,4800.00,M,M
SDC,2018-01-01 17:55,-77.1195,43.2346,12.20,3.20,66.58,210.00,5.00,30.32,M,0.00,10.00,M,3100.00,3800.00,M,M
SDC,2018-01-01 18:15,-77.1195,43.2346,14.00,3.20,61.51,220.00,10.00,30.30,M,0.00,10.00,M,3100.00,3800.00,M,M
SDC,2018-01-01 18:55,-77.1195,43.2346,15.80,3.20,56.86,240.00,12.00,30.28,M,0.00,7.00,15.00,4200.00,M,M,M
SDC,2018-01-01 19:55,-77.1195,43.2346,17.60,3.20,52.60,240.00,9.00,30.26,M,0.00,10.00,17.00,3900.00,4700.00,M,M
SDC,2018-01-01 20:15,-77.1195,43.2346,15.80,3.20,56.86,240.00,11.00,30.26,M,0.00,10.00,18.00,4400.00,M,M,M
SDC,2018-01-01 20:35,-77.1195,43.2346,15.80,3.20,56.86,240.00,11.00,30.26,M,0.00,10.00,15.00,3700.00,4400.00,5500.00,M
SDC,2018-01-01 20:55,-77.1195,43.2346,17.60,3.20,52.60,240.00,14.00,30.26,M,0.00,7.00,20.00,3700.00,4600.00,7500.00,M
SDC,2018-01-01 21:35,-77.1195,43.2346,15.80,3.20,56.86,240.00,11.00,30.26,M,0.00,7.00,M,4100.00,5000.00,M,M
SDC,2018-01-01 21:55,-77.1195,43.2346,14.00,3.20,61.51,240.00,12.00,30.25,M,0.00,5.00,20.00,2800.00,3400.00,4300.00,HZ
SDC,2018-01-01 22:15,-77.1195,43.2346,14.00,3.20,61.51,240.00,12.00,30.26,M,0.00,7.00,16.00,3300.00,4200.00,5000.00,M
SDC,2018-01-01 22:55,-77.1195,43.2346,14.00,5.00,66.82,240.00,12.00,30.26,M,0.00,4.00,20.00,2800.00,4000.00,4800.00,HZ
SDC,2018-01-01 23:15,-77.1195,43.2346,14.00,5.00,66.82,250.00,11.00,30.27,M,0.00,10.00,17.00,2400.00,2900.00,3600.00,M
SDC,2018-01-01 23:35,-77.1195,43.2346,14.00,8.60,78.68,250.00,14.00,30.27,M,0.00,1.75,20.00,1200.00,1700.00,2200.00,-SN
SDC,2018-01-01 23:55,-77.1195,43.2346,14.00,8.60,78.68,250.00,10.00,30.28,M,0.00,1.75,16.00,1200.00,M,M,-SN
SDC,2018-01-02 00:15,-77.1195,43.2346,12.20,10.40,92.32,260.00,10.00,30.28,M,0.00,1.00,18.00,700.00,M,M,-SN
SDC,2018-01-02 00:35,-77.1195,43.2346,12.20,10.40,92.32,250.00,10.00,30.28,M,0.00,1.00,16.00,800.00,M,M,-SN
SDC,2018-01-02 00:55,-77.1195,43.2346,12.20,10.40,92.32,250.00,12.00,30.28,M,0.00,1.00,19.00,800.00,M,M,-SN
SDC,2018-01-02 01:15,-77.1195,43.2346,12.20,10.40,92.32,250.00,10.00,30.28,M,0.00,1.00,14.00,600.00,M,M,-SN
SDC,2018-01-02 01:55,-77.1195,43.2346,14.00,12.20,92.38,290.00,11.00,30.30,M,0.00,2.50,19.00,400.00,1200.00,2100.00,-SN
SDC,2018-01-02 02:15,-77.1195,43.2346,14.00,8.60,78.68,310.00,10.00,30.30,M,0.00,2.50,23.00,1100.00,2400.00,3900.00,-SN
SDC,2018-01-02 02:55,-77.1195,43.2346,12.20,8.60,85.17,310.00,10.00,30.33,M,0.00,2.00,19.00,1100.00,1900.00,2400.00,-SN
SDC,2018-01-02 03:15,-77.1195,43.2346,12.20,8.60,85.17,310.00,11.00,30.33,M,0.00,1.25,20.00,700.00,1400.00,2000.00,-SN
SDC,2018-01-02 03:35,-77.1195,43.2346,12.20,8.60,85.17,310.00,15.00,30.34,M,0.00,0.75,21.00,700.00,M,M,SN
SDC,2018-01-02 03:55,-77.1195,43.2346,10.40,8.60,92.25,310.00,8.00,30.35,M,0.00,0.75,22.00,700.00,M,M,-SN
SDC,2018-01-02 04:15,-77.1195,43.2346,10.40,6.80,85.05,310.00,9.00,30.35,M,0.00,2.50,20.00,700.00,2000.00,2800.00,-SN
SDC,2018-01-02 04:35,-77.1195,43.2346,10.40,5.00,78.35,320.00,7.00,30.36,M,0.00,2.00,20.00,1700.00,2400.00,M,-SN
SDC,2018-01-02 04:55,-77.1195,43.2346,10.40,5.00,78.35,310.00,7.00,30.36,M,0.00,3.00,22.00,1500.00,2100.00,2900.00,-SN
SDC,2018-01-02 05:15,-77.1195,43.2346,10.40,5.00,78.35,310.00,10.00,30.36,M,0.00,3.00,19.00,1900.00,2700.00,3100.00,-SN
SDC,2018-01-02 05:35,-77.1195,43.2346,10.40,5.00,78.35,310.00,6.00,30.36,M,0.00,5.00,16.00,1900.00,2600.00,M,-SN
SDC,2018-01-02 05:55,-77.1195,43.2346,10.40,6.80,85.05,310.00,7.00,30.36,M,0.00,4.00,19.00,2100.00,2800.00,M,-SN
SDC,2018-01-02 06:15,-77.1195,43.2346,10.40,6.80,85.05,310.00,8.00,30.36,M,0.00,4.00,M,1900.00,2600.00,M,-SN
SDC,2018-01-02 06:35,-77.1195,43.2346,10.40,6.80,85.05,300.00,6.00,30.36,M,0.00,2.50,M,1700.00,2200.00,2700.00,-SN
SDC,2018-01-02 06:55,-77.1195,43.2346,10.40,5.00,78.35,310.00,7.00,30.36,M,0.00,7.00,M,1900.00,2700.00,M,-SN
SDC,2018-01-02 07:15,-77.1195,43.2346,10.40,6.80,85.05,300.00,8.00,30.37,M,0.00,5.00,M,2100.00,2700.00,M,-SN
SDC,2018-01-02 07:35,-77.1195,43.2346,10.40,8.60,92.25,300.00,8.00,30.37,M,0.00,3.00,M,2000.00,M,M,-SN
SDC,2018-01-02 07:55,-77.1195,43.2346,12.20,8.60,85.17,280.00,5.00,30.37,M,0.00,2.50,M,2200.00,M,M,-SN
SDC,2018-01-02 08:15,-77.1195,43.2346,12.20,8.60,85.17,310.00,4.00,30.37,M,0.00,3.00,M,1900.00,2400.00,M,-SN
SDC,2018-01-02 08:35,-77.1195,43.2346,12.20,8.60,85.17,310.00,5.00,30.37,M,0.00,2.50,M,1000.00,2600.00,3200.00,-SN
SDC,2018-01-02 08:55,-77.1195,43.2346,12.20,8.60,85.17,300.00,3.00,30.36,M,0.00,3.00,M,1300.00,2000.00,3400.00,-SN
SDC,2018-01-02 09:15,-77.1195,43.2346,12.20,8.60,85.17,250.00,3.00,30.36,M,0.00,2.00,M,1300.00,M,M,-SN
SDC,2018-01-02 09:35,-77.1195,43.2346,10.40,8.60,92.25,240.00,3.00,30.36,M,0.00,0.75,M,300.00,M,M,SN
SDC,2018-01-02 09:55,-77.1195,43.2346,10.40,10.40,100.00,0.00,0.00,30.35,M,0.00,1.50,M,500.00,M,M,-SN
SDC,2018-01-02 10:15,-77.1195,43.2346,10.40,8.60,92.25,0.00,0.00,30.35,M,0.00,10.00,M,500.00,900.00,4300.00,M
SDC,2018-01-02 10:35,-77.1195,43.2346,12.20,8.60,85.17,230.00,3.00,30.34,M,0.00,7.00,M,4300.00,M,M,-SN
SDC,2018-01-02 10:55,-77.1195,43.2346,12.20,10.40,92.32,240.00,4.00,30.34,M,0.00,4.00,M,1100.00,3000.00,4300.00,-SN
SDC,2018-01-02 11:15,-77.1195,43.2346,12.20,10.40,92.32,230.00,4.00,30.34,M,0.00,2.50,M,1300.00,4500.00,5000.00,-SN
SDC,2018-01-02 11:35,-77.1195,43.2346,10.40,8.60,92.25,0.00,0.00,30.33,M,0.00,2.50,M,4600.00,M,M,-SN
SDC,2018-01-02 11:55,-77.1195,43.2346,10.40,8.60,92.25,230.00,4.00,30.33,M,0.00,4.00,M,4500.00,M,M,-SN
SDC,2018-01-02 12:15,-77.1195,43.2346,10.40,10.40,100.00,230.00,4.00,30.33,M,0.00,7.00,M,4100.00,M,M,-SN
SDC,2018-01-02 12:35,-77.1195,43.2346,12.20,10.40,92.32,230.00,4.00,30.32,M,0.00,5.00,M,4300.00,M,M,-SN
SDC,2018-01-02 12:55,-77.1195,43.2346,12.20,10.40,92.32,220.00,4.00,30.32,M,0.00,3.00,M,1100.00,4100.00,4700.00,-SN
SDC,2018-01-02 13:15,-77.1195,43.2346,12.20,10.40,92.32,210.00,4.00,30.31,M,0.00,4.00,M,1100.00,3800.00,4700.00,-SN
SDC,2018-01-02 13:35,-77.1195,43.2346,14.00,12.20,92.38,230.00,5.00,30.31,M,0.00,7.00,M,3500.00,M,M,-SN
SDC,2018-01-02 14:15,-77.1195,43.2346,17.60,12.20,79.00,250.00,11.00,30.30,M,0.00,10.00,15.00,2800.00,4000.00,4600.00,M
SDC,2018-01-02 14:55,-77.1195,43.2346,17.60,12.20,79.00,250.00,10.00,30.30,M,0.00,10.00,14.00,2500.00,4700.00,M,M
SDC,2018-01-02 15:15,-77.1195,43.2346,17.60,12.20,79.00,250.00,11.00,30.29,M,0.00,10.00,15.00,5000.00,M,M,M
SDC,2018-01-02 15:35,-77.1195,43.2346,19.40,14.00,79.16,250.00,13.00,30.29,M,0.00,5.00,17.00,M,M,M,HZ
SDC,2018-01-02 15:55,-77.1195,43.2346,19.40,14.00,79.16,250.00,11.00,30.28,M,0.00,2.50,21.00,M,M,M,-SN
SDC,2018-01-02 16:15,-77.1195,43.2346,19.40,14.00,79.16,240.00,10.00,30.27,M,0.00,10.00,16.00,M,M,M,M
SDC,2018-01-02 16:35,-77.1195,43.2346,21.20,14.00,73.32,230.00,12.00,30.26,M,0.00,5.00,19.00,2500.00,3100.00,12000.00,HZ
SDC,2018-01-02 16:55,-77.1195,43.2346,19.40,14.00,79.16,240.00,12.00,30.25,M,0.00,2.50,18.00,M,M,M,-SN
SDC,2018-01-02 17:15,-77.1195,43.2346,19.40,14.00,79.16,240.00,14.00,30.24,M,0.00,2.00,19.00,M,M,M,-SN
SDC,2018-01-02 17:35,-77.1195,43.2346,21.20,12.20,67.73,240.00,12.00,30.22,M,0.00,4.00,18.00,2800.00,M,M,HZ
SDC,2018-01-02 17:55,-77.1195,43.2346,21.20,14.00,73.32,230.00,14.00,30.21,M,0.00,2.00,21.00,2800.00,M,M,HZ
SDC,2018-01-02 18:35,-77.1195,43.2346,21.20,14.00,73.32,240.00,12.00,30.21,M,0.00,4.00,21.00,3000.00,M,M,HZ
SDC,2018-01-02 19:35,-77.1195,43.2346,21.20,14.00,73.32,240.00,12.00,30.19,M,0.00,1.25,23.00,3200.00,M,M,-SN
SDC,2018-01-02 19:55,-77.1195,43.2346,21.20,14.00,73.32,240.00,14.00,30.18,M,0.00,1.25,25.00,3000.00,M,M,-SN
SDC,2018-01-02 20:15,-77.1195,43.2346,21.20,14.00,73.32,250.00,16.00,30.19,M,0.00,1.75,28.00,3000.00,M,M,HZ
SDC,2018-01-02 20:55,-77.1195,43.2346,21.20,12.20,67.73,240.00,14.00,30.20,M,0.00,2.00,22.00,3200.00,3800.00,M,HZ
SDC,2018-01-02 21:15,-77.1195,43.2346,19.40,12.20,73.13,240.00,12.00,30.21,M,0.00,10.00,16.00,3200.00,4000.00,M,M
SDC,2018-01-02 21:35,-77.1195,43.2346,19.40,12.20,73.13,250.00,11.00,30.21,M,0.00,7.00,17.00,3000.00,4000.00,M,M
SDC,2018-01-02 21:55,-77.1195,43.2346,19.40,10.40,67.51,230.00,12.00,30.20,M,0.00,7.00,15.00,3000.00,4000.00,M,M
SDC,2018-01-02 22:35,-77.1195,43.2346,17.60,10.40,72.93,240.00,11.00,30.21,M,0.00,4.00,20.00,3000.00,3800.00,M,HZ
SDC,2018-01-02 22:55,-77.1195,43.2346,15.80,8.60,72.73,240.00,10.00,30.21,M,0.00,7.00,16.00,3400.00,M,M,M
SDC,2018-01-02 23:15,-77.1195,43.2346,15.80,8.60,72.73,230.00,8.00,30.21,M,0.00,10.00,M,3200.00,M,M,M
SDC,2018-01-02 23:35,-77.1195,43.2346,15.80,8.60,72.73,240.00,8.00,30.22,M,0.00,10.00,M,M,M,M,M
SDC,2018-01-02 23:55,-77.1195,43.2346,14.00,6.80,72.53,240.00,7.00,30.23,M,0.00,10.00,M,3100.00,M,M,M
SDC,2018-01-03 00:15,-77.1195,43.2346,14.00,6.80,72.53,230.00,5.00,30.23,M,0.00,10.00,M,3100.00,M,M,M
SDC,2018-01-03 00:35,-77.1195,43.2346,14.00,6.80,72.53,240.00,7.00,30.23,M,0.00,10.00,M,3300.00,M,M,M
SDC,2018-01-03 01:15,-77.1195,43.2346,14.00,8.60,78.68,230.00,6.00,30.22,M,0.00,10.00,M,3300.00,M,M,M
SDC,2018-01-03 01:35,-77.1195,43.2346,15.80,8.60,72.73,220.00,6.00,30.22,M,0.00,10.00,M,3500.00,M,M,M
SDC,2018-01-03 01:55,-77.1195,43.2346,14.00,8.60,78.68,210.00,4.00,30.21,M,0.00,10.00,M,3500.00,M,M,M
SDC,2018-01-03 02:15,-77.1195,43.2346,14.00,8.60,78.68,220.00,5.00,30.21,M,0.00,10.00,M,2800.00,3500.00,M,M
SDC,2018-01-03 02:35,-77.1195,43.2346,15.80,8.60,72.73,230.00,6.00,30.20,M,0.00,10.00,M,3100.00,M,M,M
SDC,2018-01-03 02:55,-77.1195,43.2346,15.80,8.60,72.73,220.00,8.00,30.20,M,0.00,10.00,M,3300.00,M,M,M
SDC,2018-01-03 03:35,-77.1195,43.2346,14.00,5.00,66.82,230.00,8.00,30.19,M,0.00,10.00,M,3100.00,M,M,M
SDC,2018-01-03 03:55,-77.1195,43.2346,14.00,6.80,72.53,240.00,7.00,30.20,M,0.00,10.00,M,3100.00,M,M,M
SDC,2018-01-03 04:15,-77.1195,43.2346,14.00,5.00,66.82,230.00,8.00,30.20,M,0.00,10.00,M,3100.00,M,M,M
SDC,2018-01-03 04:35,-77.1195,43.2346,14.00,6.80,72.53,230.00,6.00,30.20,M,0.00,10.00,M,3100.00,M,M,M
SDC,2018-01-03 04:55,-77.1195,43.2346,14.00,5.00,66.82,240.00,6.00,30.20,M,0.00,10.00,M,2000.00,2900.00,M,M
SDC,2018-01-03 05:15,-77.1195,43.2346,14.00,5.00,66.82,240.00,7.00,30.19,M,0.00,10.00,M,M,M,M,M
SDC,2018-01-03 05:35,-77.1195,43.2346,14.00,5.00,66.82,230.00,7.00,30.19,M,0.00,10.00,M,2700.00,M,M,M
SDC,2018-01-03 05:55,-77.1195,43.2346,14.00,5.00,66.82,230.00,7.00,30.18,M,0.00,10.00,M,2700.00,M,M,M
SDC,2018-01-03 06:15,-77.1195,43.2346,14.00,5.00,66.82,220.00,8.00,30.18,M,0.00,10.00,M,M,M,M,M
SDC,2018-01-03 06:35,-77.1195,43.2346,14.00,5.00,66.82,220.00,6.00,30.18,M,0.00,10.00,M,M,M,M,M
SDC,2018-01-03 06:55,-77.1195,43.2346,14.00,5.00,66.82,220.00,4.00,30.17,M,0.00,10.00,M,M,M,M,M
SDC,2018-01-03 07:15,-77.1195,43.2346,12.20,3.20,66.58,220.00,5.00,30.18,M,0.00,10.00,M,M,M,M,M
SDC,2018-01-03 07:35,-77.1195,43.2346,14.00,3.20,61.51,220.00,7.00,30.18,M,0.00,10.00,M,M,M,M,M
SDC,2018-01-03 07:55,-77.1195,43.2346,12.20,3.20,66.58,210.00,6.00,30.19,M,0.00,10.00,M,M,M,M,M
SDC,2018-01-03 08:15,-77.1195,43.2346,12.20,3.20,66.58,220.00,5.00,30.19,M,0.00,10.00,M,M,M,M,M
SDC,2018-01-03 08:35,-77.1195,43.2346,12.20,3.20,66.58,200.00,5.00,30.20,M,0.00,10.00,M,M,M,M,M
SDC,2018-01-03 08:55,-77.1195,43.2346,12.20,3.20,66.58,200.00,7.00,30.19,M,0.00,10.00,M,2400.00,M,M,M
SDC,2018-01-03 09:15,-77.1195,43.2346,12.20,1.40,61.25,210.00,7.00,30.19,M,0.00,10.00,M,2400.00,M,M,M
SDC,2018-01-03 09:35,-77.1195,43.2346,12.20,1.40,61.25,210.00,5.00,30.18,M,0.00,10.00,M,2400.00,M,M,M
SDC,2018-01-03 09:55,-77.1195,43.2346,12.20,1.40,61.25,220.00,6.00,30.18,M,0.00,10.00,M,M,M,M,M
SDC,2018-01-03 10:15,-77.1195,43.2346,12.20,1.40,61.25,210.00,6.00,30.18,M,0.00,10.00,M,M,M,M,M
SDC,2018-01-03 10:35,-77.1195,43.2346,12.20,-0.40,56.30,200.00,4.00,30.17,M,0.00,10.00,M,M,M,M,M
SDC,2018-01-03 10:55,-77.1195,43.2346,12.20,-0.40,56.30,200.00,4.00,30.18,M,0.00,10.00,M,M,M,M,M
SDC,2018-01-03 11:15,-77.1195,43.2346,12.20,-0.40,56.30,200.00,3.00,30.18,M,0.00,10.00,M,M,M,M,M
SDC,2018-01-03 11:35,-77.1195,43.2346,12.20,-0.40,56.30,200.00,3.00,30.18,M,0.00,10.00,M,M,M,M,M
SDC,2018-01-03 11:55,-77.1195,43.2346,12.20,-0.40,56.30,0.00,0.00,30.18,M,0.00,10.00,M,M,M,M,M
SDC,2018-01-03 12:15,-77.1195,43.2346,10.40,-0.40,60.99,170.00,3.00,30.18,M,0.00,10.00,M,M,M,M,M
SDC,2018-01-03 12:35,-77.1195,43.2346,8.60,-0.40,66.11,0.00,0.00,30.18,M,0.00,10.00,M,M,M,M,M
SDC,2018-01-03 12:55,-77.1195,43.2346,8.60,-2.20,60.72,0.00,0.00,30.18,M,0.00,10.00,M,M,M,M,M
SDC,2018-01-03 13:15,-77.1195,43.2346,5.00,-2.20,71.50,180.00,4.00,30.18,M,0.00,10.00,M,7000.00,M,M,M
SDC,2018-01-03 13:35,-77.1195,43.2346,8.60,-0.40,66.11,0.00,0.00,30.18,M,0.00,10.00,M,7000.00,M,M,M
SDC,2018-01-03 13:55,-77.1195,43.2346,8.60,-0.40,66.11,0.00,0.00,30.18,M,0.00,10.00,M,7000.00,M,M,M
SDC,2018-01-03 14:15,-77.1195,43.2346,8.60,-0.40,66.11,0.00,0.00,30.19,M,0.00,10.00,M,7000.00,M,M,M
SDC,2018-01-03 14:35,-77.1195,43.2346,10.40,-0.40,60.99,180.00,4.00,30.17,M,0.00,10.00,M,7000.00,M,M,M
SDC,2018-01-03 14:55,-77.1195,43.2346,14.00,1.40,56.58,220.00,6.00,30.17,M,0.00,10.00,M,7000.00,M,M,M
SDC,2018-01-03 15:15,-77.1195,43.2346,14.00,1.40,56.58,210.00,6.00,30.18,M,0.00,10.00,M,7000.00,M,M,M
SDC,2018-01-03 15:35,-77.1195,43.2346,15.80,1.40,52.31,190.00,4.00,30.16,M,0.00,10.00,M,7000.00,M,M,M
SDC,2018-01-03 15:55,-77.1195,43.2346,15.80,1.40,52.31,190.00,5.00,30.15,M,0.00,10.00,M,7000.00,M,M,M
SDC,2018-01-03 16:15,-77.1195,43.2346,17.60,1.40,48.39,160.00,4.00,30.14,M,0.00,10.00,M,7000.00,M,M,M
SDC,2018-01-03 16:35,-77.1195,43.2346,19.40,3.20,48.69,190.00,4.00,30.13,M,0.00,10.00,M,7000.00,M,M,M
SDC,2018-01-03 16:55,-77.1195,43.2346,19.40,3.20,48.69,0.00,0.00,30.12,M,0.00,10.00,M,7000.00,M,M,M
SDC,2018-01-03 17:15,-77.1195,43.2346,19.40,3.20,48.69,150.00,4.00,30.11,M,0.00,10.00,M,7000.00,M,M,M
SDC,2018-01-03 17:35,-77.1195,43.2346,19.40,3.20,48.69,160.00,4.00,30.10,M,0.00,10.00,M,7000.00,M,M,M
SDC,2018-01-03 17:55,-77.1195,43.2346,19.40,3.20,48.69,170.00,4.00,30.08,M,0.00,10.00,M,7000.00,M,M,M
SDC,2018-01-03 18:15,-77.1195,43.2346,21.20,3.20,45.10,160.00,4.00,30.07,M,0.00,10.00,M,7000.00,M,M,M
SDC,2018-01-03 18:35,-77.1195,43.2346,21.20,3.20,45.10,160.00,3.00,30.05,M,0.00,10.00,M,8000.00,M,M,M
SDC,2018-01-03 19:15,-77.1195,43.2346,21.20,5.00,48.99,140.00,4.00,30.04,M,0.00,10.00,M,7000.00,8500.00,M,M
SDC,2018-01-03 19:35,-77.1195,43.2346,21.20,5.00,48.99,150.00,5.00,30.03,M,0.00,10.00,M,6000.00,7500.00,M,M
SDC,2018-01-03 19:55,-77.1195,43.2346,23.00,5.00,45.41,160.00,4.00,30.02,M,0.00,10.00,M,6000.00,7500.00,9000.00,M
SDC,2018-01-03 20:15,-77.1195,43.2346,23.00,5.00,45.41,140.00,4.00,30.02,M,0.00,10.00,M,6000.00,7500.00,9000.00,M
SDC,2018-01-03 20:35,-77.1195,43.2346,23.00,5.00,45.41,160.00,3.00,30.01,M,0.00,10.00,M,6000.00,9000.00,M,M
SDC,2018-01-03 20:55,-77.1195,43.2346,23.00,5.00,45.41,0.00,0.00,30.01,M,0.00,10.00,M,6000.00,7000.00,9000.00,M
SDC,2018-01-03 21:15,-77.1195,43.2346,23.00,5.00,45.41,0.00,0.00,30.00,M,0.00,10.00,M,6000.00,7000.00,9000.00,M
SDC,2018-01-03 21:35,-77.1195,43.2346,23.00,5.00,45.41,0.00,0.00,30.00,M,0.00,10.00,M,M,M,M,M
SDC,2018-01-03 21:55,-77.1195,43.2346,21.20,10.40,62.53,0.00,0.00,29.99,M,0.00,10.00,M,6000.00,M,M,M
SDC,2018-01-03 22:15,-77.1195,43.2346,21.20,10.40,62.53,0.00,0.00,29.99,M,0.00,10.00,M,6000.00,M,M,M
SDC,2018-01-03 22:35,-77.1195,43.2346,21.20,12.20,67.73,0.00,0.00,30.00,M,0.00,10.00,M,6000.00,M,M,M
SDC,2018-01-03 22:55,-77.1195,43.2346,21.20,12.20,67.73,0.00,0.00,30.00,M,0.00,10.00,M,6000.00,8000.00,11000.00,M
SDC,2018-01-03 23:15,-77.1195,43.2346,19.40,14.00,79.16,0.00,0.00,30.02,M,0.00,10.00,M,6000.00,11000.00,M,M
SDC,2018-01-03 23:35,-77.1195,43.2346,21.20,12.20,67.73,0.00,0.00,30.01,M,0.00,10.00,M,5000.00,M,M,M
SDC,2018-01-03 23:55,-77.1195,43.2346,19.40,14.00,79.16,0.00,0.00,30.01,M,0.00,10.00,M,5000.00,M,M,M
